{"version": 0.6, "generator": "Overpass API 0.7.56.7 b85c4387", "osm3s": {"timestamp_osm_base": "2020-12-31T00:38:03Z", "copyright": "The data included in this document is from www.openstreetmap.org. The data is made available under ODbL."}, "elements": [{"type": "node", "id": 26557798, "lat": 51.0029711, "lon": 6.9802758}, {"type": "node", "id": 54020150, "lat": 50.9325941, "lon": 6.935482, "tags": {"amenity": "theatre", "fixme": "bitte genau zuordnen", "name": "Atelier Theater", "phone": "+49 221 242485", "website": "http://www.ateliertheater.de/"}}, {"type": "node", "id": 82731335, "lat": 50.9480208, "lon": 6.9449382}, {"type": "node", "id": 160707789, "lat": 50.9426451, "lon": 6.962212}, {"type": "node", "id": 168527938, "lat": 50.9431401, "lon": 6.9614012}, {"type": "node", "id": 168527956, "lat": 50.9426901, "lon": 6.9611311}, {"type": "node", "id": 168527976, "lat": 50.9424894, "lon": 6.9619718}, {"type": "node", "id": 168527995, "lat": 50.9430956, "lon": 6.9615822}, {"type": "node", "id": 247382429, "lat": 50.9665995, "lon": 6.9564871, "tags": {"amenity": "planetarium", "man_made": "telescope", "name": "Planetarium und Sternwarte K\u00f6ln", "source": "survey", "telescope:type": "optical", "website": "http://www.koelner-planetarium.de/plan.html", "wheelchair": "no", "wikidata": "Q19059948", "wikipedia": "de:Planetarium K\u00f6ln"}}, {"type": "node", "id": 249471413, "lat": 50.9457849, "lon": 6.9707059}, {"type": "node", "id": 255149080, "lat": 50.9430798, "lon": 6.9616546}, {"type": "node", "id": 255149081, "lat": 50.9427929, "lon": 6.9622837}, {"type": "node", "id": 255149082, "lat": 50.9425985, "lon": 6.9621093}, {"type": "node", "id": 255223806, "lat": 50.9376738, "lon": 6.951472}, {"type": "node", "id": 255224305, "lat": 50.9376124, "lon": 6.9502812}, {"type": "node", "id": 255224308, "lat": 50.9372578, "lon": 6.9502162}, {"type": "node", "id": 255224310, "lat": 50.9372253, "lon": 6.9513118}, {"type": "node", "id": 255224313, "lat": 50.9375008, "lon": 6.9513548}, {"type": "node", "id": 255224315, "lat": 50.9383732, "lon": 6.9504845}, {"type": "node", "id": 255224317, "lat": 50.938301, "lon": 6.9515768}, {"type": "node", "id": 255224320, "lat": 50.938237, "lon": 6.9515654}, {"type": "node", "id": 255224322, "lat": 50.938198, "lon": 6.952156}, {"type": "node", "id": 255224330, "lat": 50.9376171, "lon": 6.9513743}, {"type": "node", "id": 255224333, "lat": 50.9376863, "lon": 6.9503723}, {"type": "node", "id": 255224335, "lat": 50.9378337, "lon": 6.9503904}, {"type": "node", "id": 255224338, "lat": 50.9378079, "lon": 6.9507652}, {"type": "node", "id": 255224340, "lat": 50.9382039, "lon": 6.9508358}, {"type": "node", "id": 255224342, "lat": 50.9382287, "lon": 6.9504597}, {"type": "node", "id": 256221801, "lat": 50.9510833, "lon": 6.9582126, "tags": {"addr:city": "K\u00f6ln", "addr:country": "DE", "addr:housenumber": "19", "addr:street": "Ebertplatz", "amenity": "cinema", "name": "Metropolis", "phone": "+49 221 722436", "website": "http://metropolis-koeln.de", "wheelchair": "no", "wikidata": "Q34379707"}}, {"type": "node", "id": 257905592, "lat": 50.9374878, "lon": 6.9449479, "tags": {"amenity": "theatre", "email": "info@gloria-theater.com", "fax": "+49 221 6606330", "image": "https://commons.wikimedia.org/wiki/File:Gloria-Theater,_K%C3%B6ln-8655.jpg", "name": "Gloria Theater", "operator": "Gastro-Event GmbH", "phone": "+49 221 660630", "toilets:wheelchair": "no", "website": "http://gloria-theater.com/", "wheelchair": "limited", "wikidata": "Q1532043", "wikipedia": "de:Gloria-Theater (K\u00f6ln)"}}, {"type": "node", "id": 258183467, "lat": 50.974384, "lon": 7.0108114, "tags": {"addr:city": "K\u00f6ln", "addr:country": "DE", "addr:housenumber": "38", "addr:postcode": "51063", "addr:street": "Tiefentalstra\u00dfe", "amenity": "community_centre", "community_centre": "youth_centre", "community_centre:for": "child;juvenile", "max_age": "27", "min_age": "6", "name": "Don-Bosco-Club K\u00f6ln-M\u00fclheim", "old_name": "Offene T\u00fcr Don-Bosco-Club", "operator": "DBC Don-Bosco-Club K\u00f6ln gGmbH", "phone": "+49-221-64708-55", "website": "http://www.don-bosco-club.de", "wheelchair": "limited"}}, {"type": "node", "id": 260691311, "lat": 50.9364497, "lon": 6.9580504}, {"type": "node", "id": 260691312, "lat": 50.9364692, "lon": 6.9588258}, {"type": "node", "id": 260728717, "lat": 50.937088, "lon": 6.9619478, "tags": {"addr:city": "K\u00f6ln", "addr:housenumber": "2-4", "addr:postcode": "50667", "addr:street": "Eisenmarkt", "amenity": "theatre", "name": "H\u00e4nneschen-Theater", "phone": "+49 221 2581201", "source": "survey", "toilets:wheelchair": "yes", "website": "https://www.haenneschen.de/", "wheelchair": "yes", "wikidata": "Q151251", "wikipedia": "de:H\u00e4nneschen-Theater"}}, {"type": "node", "id": 273910858, "lat": 51.0030266, "lon": 6.9383751, "tags": {"barrier": "gate", "bicycle": "yes", "foot": "yes", "motorcar": "yes", "motorcycle": "yes", "opening_hours": "Mo-Su 12:00-02:00"}}, {"type": "node", "id": 283419882, "lat": 50.9296765, "lon": 6.9378969, "tags": {"addr:city": "K\u00f6ln", "addr:country": "DE", "addr:housenumber": "24", "addr:postcode": "50674", "addr:street": "Z\u00fclpicher Stra\u00dfe", "amenity": "cinema", "name": "Off Broadway", "toilets:wheelchair": "no", "website": "http://www.off-broadway.de/", "wheelchair": "limited", "wikidata": "Q34379723"}}, {"type": "node", "id": 283770283, "lat": 50.9488916, "lon": 6.9489069}, {"type": "node", "id": 283770286, "lat": 50.9489815, "lon": 6.9491393}, {"type": "node", "id": 283770289, "lat": 50.9489637, "lon": 6.949157}, {"type": "node", "id": 283770310, "lat": 50.9488659, "lon": 6.9492408}, {"type": "node", "id": 283770313, "lat": 50.9488119, "lon": 6.949102}, {"type": "node", "id": 283849749, "lat": 50.9515529, "lon": 6.9544709}, {"type": "node", "id": 283849752, "lat": 50.9516573, "lon": 6.9551704}, {"type": "node", "id": 286372760, "lat": 50.924396, "lon": 6.9310818, "tags": {"entrance": "yes"}}, {"type": "node", "id": 287593601, "lat": 50.9983334, "lon": 6.9369933, "tags": {"addr:city": "K\u00f6ln", "addr:country": "DE", "addr:housenumber": "2", "addr:postcode": "50735", "addr:street": "Neusser Landstra\u00dfe", "amenity": "nightclub", "contact:phone": "+49 221 167916 0", "contact:website": "http://www.kantine.com", "name": "Die Kantine", "note:de": "Disko und Konzerthalle", "wheelchair": "limited"}}, {"type": "node", "id": 289728800, "lat": 50.9489476, "lon": 6.9494524, "tags": {"addr:city": "K\u00f6ln", "addr:country": "DE", "addr:housenumber": "111", "addr:postcode": "50670", "addr:street": "Maybachstra\u00dfe", "entrance": "yes", "source": "photography"}}, {"type": "node", "id": 293147739, "lat": 50.9213464, "lon": 6.9494241, "tags": {"amenity": "theatre", "name": "Orangerie", "wheelchair": "limited"}}, {"type": "node", "id": 295251842, "lat": 50.9530688, "lon": 6.9186721}, {"type": "node", "id": 295805462, "lat": 50.9364876, "lon": 6.9451892}, {"type": "node", "id": 295805463, "lat": 50.9364626, "lon": 6.9452079}, {"type": "node", "id": 297187863, "lat": 50.9531283, "lon": 6.9790692}, {"type": "node", "id": 299436035, "lat": 50.953243, "lon": 6.9182446}, {"type": "node", "id": 299436036, "lat": 50.9531493, "lon": 6.9187536}, {"type": "node", "id": 311164298, "lat": 50.902195, "lon": 7.0754893}, {"type": "node", "id": 311164302, "lat": 50.9015221, "lon": 7.0763137}, {"type": "node", "id": 311164306, "lat": 50.9003513, "lon": 7.0747345, "tags": {"barrier": "gate"}}, {"type": "node", "id": 311164312, "lat": 50.8998057, "lon": 7.0737974}, {"type": "node", "id": 311164317, "lat": 50.9016921, "lon": 7.0727437}, {"type": "node", "id": 311164322, "lat": 50.9017002, "lon": 7.0735328}, {"type": "node", "id": 311164327, "lat": 50.9016391, "lon": 7.0744183}, {"type": "node", "id": 311165316, "lat": 50.9008055, "lon": 7.0713969}, {"type": "node", "id": 321346380, "lat": 50.9376578, "lon": 6.9507724}, {"type": "node", "id": 321346381, "lat": 50.9375618, "lon": 6.9507556}, {"type": "node", "id": 321346382, "lat": 50.9376042, "lon": 6.9503576}, {"type": "node", "id": 333777171, "lat": 51.0035892, "lon": 6.9800901}, {"type": "node", "id": 348275499, "lat": 51.0038045, "lon": 7.0256983}, {"type": "node", "id": 352702435, "lat": 50.9417854, "lon": 6.9614648, "tags": {"amenity": "nightclub", "name": "Bogen 2", "wheelchair": "no"}}, {"type": "node", "id": 410298071, "lat": 50.9245516, "lon": 6.9312255}, {"type": "node", "id": 410298080, "lat": 50.9244834, "lon": 6.9310296}, {"type": "node", "id": 410298083, "lat": 50.9244576, "lon": 6.9312781}, {"type": "node", "id": 413454054, "lat": 50.9422286, "lon": 6.9351135, "tags": {"amenity": "nightclub", "name": "H1 Music Club"}}, {"type": "node", "id": 429517055, "lat": 50.953823, "lon": 6.9151064}, {"type": "node", "id": 429517056, "lat": 50.9535871, "lon": 6.9156381}, {"type": "node", "id": 429517057, "lat": 50.9537306, "lon": 6.9150031}, {"type": "node", "id": 429517058, "lat": 50.9535, "lon": 6.9155407}, {"type": "node", "id": 429517094, "lat": 50.9536308, "lon": 6.9155397}, {"type": "node", "id": 429523100, "lat": 50.9537741, "lon": 6.9150517, "tags": {"entrance": "main"}}, {"type": "node", "id": 431845008, "lat": 50.9503347, "lon": 6.9213612}, {"type": "node", "id": 431845014, "lat": 50.9501034, "lon": 6.9213229}, {"type": "node", "id": 431845016, "lat": 50.950076, "lon": 6.921416}, {"type": "node", "id": 431845018, "lat": 50.9502631, "lon": 6.9215746}, {"type": "node", "id": 441666353, "lat": 50.9243771, "lon": 6.9449135, "tags": {"amenity": "theatre", "name": "metropol Theater", "phone": "+49221321792", "website": "http://www.metropol-theater-koeln.de/"}}, {"type": "node", "id": 442702960, "lat": 50.9252694, "lon": 6.9582298, "tags": {"addr:city": "K\u00f6ln", "addr:country": "DE", "addr:housenumber": "81", "addr:postcode": "50678", "addr:street": "Severinstra\u00dfe", "amenity": "cinema", "brand": "Odeon", "brand:wikidata": "Q6127470", "brand:wikipedia": "en:Odeon Cinemas", "name": "Odeon", "phone": "+49 221 313110", "website": "https://www.odeon-koeln.de/", "wheelchair": "no", "wikidata": "Q34379835"}}, {"type": "node", "id": 474773025, "lat": 50.9376359, "lon": 6.9520551}, {"type": "node", "id": 474773029, "lat": 50.9374915, "lon": 6.9519424}, {"type": "node", "id": 477280426, "lat": 50.9345313, "lon": 6.9563284, "tags": {"amenity": "nightclub", "email": "office@tivoli-cologne.de", "name": "Tivoli Cologne", "phone": "+49 221 846 873 27", "website": "http://www.tivoli-cologne.de", "wheelchair": "no"}}, {"type": "node", "id": 477280444, "lat": 50.9350135, "lon": 6.9566471, "tags": {"amenity": "nightclub", "cruising": "yes", "fetish": "yes", "gay": "welcome", "gay:men": "yes", "name": "Station 2b", "source": "photography", "website": "http://www.station2b.de", "wheelchair": "limited"}}, {"type": "node", "id": 487083035, "lat": 50.9205591, "lon": 6.9555753, "tags": {"amenity": "theatre", "name": "COMEDIA Theater", "toilets:wheelchair": "yes", "website": "https://www.comedia-koeln.de/", "wheelchair": "yes", "wikidata": "Q15108870"}}, {"type": "node", "id": 562638797, "lat": 50.952095, "lon": 6.9072901}, {"type": "node", "id": 564855180, "lat": 50.9716743, "lon": 6.8571957}, {"type": "node", "id": 564855181, "lat": 50.9716871, "lon": 6.8573804}, {"type": "node", "id": 566148999, "lat": 50.9386343, "lon": 6.9512096, "tags": {"addr:city": "K\u00f6ln", "addr:country": "DE", "addr:housenumber": "11", "addr:postcode": "50667", "addr:street": "Glockengasse", "amenity": "theatre", "name": "Theater am Dom", "source": "photography", "website": "https://www.theateramdom.de/", "wheelchair": "no", "wikidata": "Q1751225", "wikipedia": "de:Theater am Dom"}}, {"type": "node", "id": 567082283, "lat": 50.9456343, "lon": 6.9700436}, {"type": "node", "id": 567082286, "lat": 50.9456318, "lon": 6.9698834}, {"type": "node", "id": 567082289, "lat": 50.9455406, "lon": 6.9698455}, {"type": "node", "id": 567082292, "lat": 50.9454939, "lon": 6.9700454}, {"type": "node", "id": 567082293, "lat": 50.9455051, "lon": 6.9700488}, {"type": "node", "id": 567082296, "lat": 50.9455612, "lon": 6.9703754}, {"type": "node", "id": 567082299, "lat": 50.9455783, "lon": 6.9703709}, {"type": "node", "id": 567082303, "lat": 50.9455888, "lon": 6.9702697}, {"type": "node", "id": 567082306, "lat": 50.9454774, "lon": 6.9702107}, {"type": "node", "id": 567082309, "lat": 50.9454649, "lon": 6.970462}, {"type": "node", "id": 567082311, "lat": 50.9454393, "lon": 6.9708118}, {"type": "node", "id": 567082314, "lat": 50.9454174, "lon": 6.9707169}, {"type": "node", "id": 567082316, "lat": 50.9454334, "lon": 6.9705341}, {"type": "node", "id": 567082318, "lat": 50.9455151, "lon": 6.9704018}, {"type": "node", "id": 567082320, "lat": 50.9459229, "lon": 6.9700837}, {"type": "node", "id": 567082322, "lat": 50.9458296, "lon": 6.970146}, {"type": "node", "id": 567082324, "lat": 50.9459121, "lon": 6.9706673}, {"type": "node", "id": 567082326, "lat": 50.9460767, "lon": 6.9705475}, {"type": "node", "id": 567082338, "lat": 50.9456842, "lon": 6.9709284}, {"type": "node", "id": 567082341, "lat": 50.9456305, "lon": 6.970956}, {"type": "node", "id": 567082343, "lat": 50.9455695, "lon": 6.9709557}, {"type": "node", "id": 567082346, "lat": 50.9455022, "lon": 6.9709151}, {"type": "node", "id": 567082351, "lat": 50.9457516, "lon": 6.9708371}, {"type": "node", "id": 567082357, "lat": 50.9457202, "lon": 6.9708908}, {"type": "node", "id": 567083035, "lat": 50.9457743, "lon": 6.9707706}, {"type": "node", "id": 570692795, "lat": 50.9366908, "lon": 6.9364479, "tags": {"addr:city": "K\u00f6ln", "addr:country": "DE", "addr:housenumber": "24-26", "addr:postcode": "50674", "addr:street": "Aachener Stra\u00dfe", "amenity": "theatre", "name": "Theater am Bauturm", "phone": "+49221 52 42 42", "website": "http://www.theater-im-bauturm.de", "wheelchair": "no", "wikidata": "Q13965778", "wikipedia": "de:Theater im Bauturm"}}, {"type": "node", "id": 570694025, "lat": 50.9363633, "lon": 6.9368048, "tags": {"addr:city": "K\u00f6ln", "addr:country": "DE", "addr:housenumber": "5", "addr:postcode": "50674", "addr:street": "Aachener Stra\u00dfe", "amenity": "theatre", "name": "Volksb\u00fchne am Rudolfplatz", "phone": "+49 221 25 17 47", "website": "http://www.volksbuehne-rudolfplatz.de/", "wheelchair": "no", "wikidata": "Q151236"}}, {"type": "node", "id": 579865150, "lat": 50.943847, "lon": 6.9339207, "tags": {"addr:city": "K\u00f6ln", "addr:housenumber": "2", "addr:postcode": "50672", "addr:street": "Hans-B\u00f6ckler-Platz", "amenity": "nightclub", "contact:facebook": "https://www.facebook.com/Gewoelbeklub/events/", "contact:website": "http://www.gewoelbe.net/impressum.html", "name": "Gew\u00f6lbe", "operator": "GEW\u00d6LBE GmbH"}}, {"type": "node", "id": 583434185, "lat": 50.9707255, "lon": 7.0093376, "tags": {"addr:city": "K\u00f6ln", "addr:country": "DE", "addr:housenumber": "44", "addr:postcode": "51063", "addr:street": "Berliner Stra\u00dfe", "amenity": "gambling", "gambling": "slot_machines", "name": "ABC Automaten"}}, {"type": "node", "id": 586889732, "lat": 50.9306512, "lon": 6.9383749, "tags": {"addr:city": "K\u00f6ln", "addr:country": "DE", "addr:housenumber": "33", "addr:postcode": "50674", "addr:street": "Roonstra\u00dfe", "amenity": "nightclub", "name": "Roonburg", "phone": "+49 221 2403719", "website": "https://www.roonburg.de/", "wheelchair": "no"}}, {"type": "node", "id": 593552802, "lat": 50.9305557, "lon": 6.9373212, "tags": {"addr:city": "K\u00f6ln", "addr:housenumber": "6", "addr:postcode": "50674", "addr:street": "Rathenauplatz", "amenity": "nightclub", "name": "The Cage", "wheelchair": "no"}}, {"type": "node", "id": 615586883, "lat": 50.9549247, "lon": 6.9694842, "tags": {"amenity": "arts_centre", "name": "IGNIS e. V. Europ\u00e4isches Kulturzentrum", "source": "photography", "website": "http://www.ignis.org", "wheelchair": "no"}}, {"type": "node", "id": 617197090, "lat": 50.9491265, "lon": 6.9854477, "tags": {"amenity": "nightclub", "name": "Geb\u00e4ude 9"}}, {"type": "node", "id": 623508566, "lat": 50.9445501, "lon": 6.959686, "tags": {"addr:city": "K\u00f6ln", "addr:country": "DE", "addr:housenumber": "11", "addr:street": "Altenberger Stra\u00dfe", "amenity": "nightclub", "name": "Kokett Bar", "opening_hours": "Mo-Sa 21:30-4:30", "phone": "+49221121846", "website": "http://www.kokett-bar.com", "wheelchair": "limited"}}, {"type": "node", "id": 633167965, "lat": 50.9367867, "lon": 6.9621187, "tags": {"amenity": "arts_centre", "name": "Beginenfenster", "website": "https://www.beginen.de/Beginenfenster/index.html"}}, {"type": "node", "id": 633480737, "lat": 50.9406158, "lon": 6.960824, "tags": {"addr:city": "K\u00f6ln", "addr:housenumber": "1", "addr:postcode": "50667", "addr:street": "Bischofsgartenstra\u00dfe", "amenity": "theatre", "layer": "2", "name": "K\u00f6lner Philharmonie", "name:de": "Philharmonie", "name:lb": "K\u00f6lner Philharmonie", "phone": "+49 221 204080", "source": "survey", "toilets:wheelchair": "yes", "website": "http://www.koelner-philharmonie.de/", "wheelchair": "yes", "wikidata": "Q177368", "wikipedia": "de:K\u00f6lner Philharmonie"}}, {"type": "node", "id": 643554530, "lat": 50.9493651, "lon": 6.9600314, "tags": {"addr:city": "K\u00f6ln", "addr:country": "DE", "addr:housenumber": "25", "addr:postcode": "50668", "addr:street": "Th\u00fcrmchenswall", "amenity": "theatre", "name": "Horizont-Theater", "phone": "+49 221 131604", "website": "https://www.horizont-theater.de/"}}, {"type": "node", "id": 651464156, "lat": 50.9363759, "lon": 6.9448232}, {"type": "node", "id": 651464160, "lat": 50.9363756, "lon": 6.9452311}, {"type": "node", "id": 651464163, "lat": 50.9364234, "lon": 6.944837}, {"type": "node", "id": 651464169, "lat": 50.9364039, "lon": 6.9448228, "tags": {"entrance": "yes", "source": "photography"}}, {"type": "node", "id": 651464172, "lat": 50.9364881, "lon": 6.9448382}, {"type": "node", "id": 651593779, "lat": 50.9462912, "lon": 6.9092218}, {"type": "node", "id": 651593801, "lat": 50.9465482, "lon": 6.9088355}, {"type": "node", "id": 651593835, "lat": 50.9465082, "lon": 6.9096}, {"type": "node", "id": 651593837, "lat": 50.9469668, "lon": 6.9095606}, {"type": "node", "id": 654207161, "lat": 50.9421526, "lon": 6.9407092, "tags": {"addr:street": "Hohenzollernring", "amenity": "nightclub", "name": "Petit Prince"}}, {"type": "node", "id": 654207482, "lat": 50.9420999, "lon": 6.9406935, "tags": {"addr:city": "K\u00f6ln", "addr:housenumber": "90", "addr:postcode": "50672", "addr:street": "Hohenzollernring", "amenity": "nightclub", "contact:email": "info@club-diamonds.de", "contact:fax": "+492211608633", "contact:phone": "+492211608620", "contact:website": "http://www.club-diamonds.de/", "name": "Diamonds", "wheelchair": "no"}}, {"type": "node", "id": 659351131, "lat": 50.9517976, "lon": 6.9128463, "tags": {"amenity": "community_centre", "community_centre:for": "child", "email": "koeln@kinderprojekt-arche.de", "name": "Kinderfreizeiteinrichtung Die Arche", "phone": "+49 221 45376900", "website": "http://kinderprojekt-arche.eu/standorte/k%C3%B6ln-ehrenfeld"}}, {"type": "node", "id": 659543595, "lat": 50.9513317, "lon": 6.9243372, "tags": {"amenity": "arts_centre", "description": "2nd Floor e.V.", "name": "Loft", "phone": "+492219521555", "toilets:wheelchair": "no", "website": "https://www.loftkoeln.de/", "wheelchair": "yes", "wikidata": "Q1867909", "wikipedia": "de:Loft (K\u00f6ln)"}}, {"type": "node", "id": 660695005, "lat": 50.9377097, "lon": 6.9598474, "tags": {"amenity": "nightclub", "name": "Le Carussel", "source": "photography", "wheelchair": "no"}}, {"type": "node", "id": 662768675, "lat": 50.9391805, "lon": 6.9476143, "tags": {"amenity": "gambling", "name": "Spielothek Gran Casino"}}, {"type": "node", "id": 667800454, "lat": 50.9379239, "lon": 6.9521071, "tags": {"entrance": "yes"}}, {"type": "node", "id": 698868712, "lat": 50.9229499, "lon": 7.084944, "tags": {"amenity": "arts_centre", "name": "B\u00fcrger- und Vereinszentrum Rath-Heumar eV", "wheelchair": "yes"}}, {"type": "node", "id": 703107029, "lat": 50.8997107, "lon": 7.0210002}, {"type": "node", "id": 703107030, "lat": 50.9005069, "lon": 7.0220386}, {"type": "node", "id": 721834699, "lat": 50.9372372, "lon": 6.950949, "tags": {"entrance": "yes"}}, {"type": "node", "id": 721834701, "lat": 50.9373628, "lon": 6.9513345, "tags": {"entrance": "main"}}, {"type": "node", "id": 730936276, "lat": 50.9403933, "lon": 7.0196817, "tags": {"amenity": "gambling", "name": "Casino"}}, {"type": "node", "id": 732073696, "lat": 50.9016201, "lon": 7.0746928}, {"type": "node", "id": 743384072, "lat": 50.9460678, "lon": 6.9705216}, {"type": "node", "id": 743384073, "lat": 50.9454148, "lon": 6.970644}, {"type": "node", "id": 743384074, "lat": 50.9454619, "lon": 6.9708615}, {"type": "node", "id": 743384076, "lat": 50.9458157, "lon": 6.9707343}, {"type": "node", "id": 743384077, "lat": 50.94625, "lon": 6.9704028}, {"type": "node", "id": 743384078, "lat": 50.9460425, "lon": 6.9704286}, {"type": "node", "id": 743384079, "lat": 50.9462247, "lon": 6.9703155}, {"type": "node", "id": 760235630, "lat": 50.9425354, "lon": 6.9620391}, {"type": "node", "id": 760235640, "lat": 50.9425017, "lon": 6.9619911}, {"type": "node", "id": 760235641, "lat": 50.9425824, "lon": 6.9621548}, {"type": "node", "id": 760235651, "lat": 50.9428013, "lon": 6.9622288}, {"type": "node", "id": 760235671, "lat": 50.9429395, "lon": 6.9622427}, {"type": "node", "id": 766477984, "lat": 50.9364431, "lon": 7.0045987, "tags": {"amenity": "theatre", "name": "Halle Kalk", "website": "http://www.schauspielkoeln.de"}}, {"type": "node", "id": 770600756, "lat": 50.9482714, "lon": 6.960011, "tags": {"addr:city": "K\u00f6ln", "addr:country": "DE", "addr:housenumber": "32", "addr:postcode": "50668", "addr:street": "Dagobertstra\u00dfe", "amenity": "theatre", "name": "Tiefrot", "wikidata": "Q571048"}}, {"type": "node", "id": 772522952, "lat": 50.9322859, "lon": 6.9360346, "tags": {"addr:city": "K\u00f6ln", "addr:country": "DE", "addr:housenumber": "54", "addr:postcode": "50674", "addr:street": "Roonstra\u00dfe", "amenity": "theatre", "name": "theater im hof", "phone": "+492213568122", "website": "https://theaterimhof.wordpress.com/"}}, {"type": "node", "id": 774756974, "lat": 50.9396681, "lon": 6.9605866, "tags": {"addr:city": "K\u00f6ln", "addr:housenumber": "4", "addr:postcode": "50667", "addr:street": "Gro\u00dfe Neugasse", "amenity": "theatre", "name": "Senft\u00f6pfchen", "phone": "+49 221 2581058", "toilets:wheelchair": "no", "website": "https://www.senftoepfchen-theater.de/", "wheelchair": "limited", "wikidata": "Q2270942", "wikipedia": "de:Senft\u00f6pfchen"}}, {"type": "node", "id": 809813736, "lat": 50.9300375, "lon": 6.9386297, "tags": {"addr:city": "K\u00f6ln", "addr:country": "DE", "addr:housenumber": "10", "addr:postcode": "50674", "addr:street": "Z\u00fclpicher Stra\u00dfe", "amenity": "nightclub", "name": "MTC", "toilets:wheelchair": "no", "wheelchair": "no"}}, {"type": "node", "id": 846546326, "lat": 50.9282603, "lon": 6.9634869, "tags": {"amenity": "theatre", "name": "Musiktheater Werkschutz", "website": "http://www.mt-werkschutz.de"}}, {"type": "node", "id": 867011368, "lat": 50.943451, "lon": 6.9292627}, {"type": "node", "id": 888174258, "lat": 50.9247115, "lon": 6.9780785, "tags": {"addr:city": "K\u00f6ln", "addr:country": "DE", "addr:housenumber": "110", "addr:postcode": "50679", "addr:street": "Siegburger Stra\u00dfe", "amenity": "arts_centre", "name": "Essigfabrik", "smoking": "no", "smoking:outside": "yes", "website": "https://www.essig-fabrik.de/", "wheelchair": "limited"}}, {"type": "node", "id": 901366886, "lat": 50.9136759, "lon": 6.9700316, "tags": {"addr:city": "K\u00f6ln", "addr:country": "DE", "addr:housenumber": "8", "addr:postcode": "50968", "addr:street": "Sch\u00f6nhauser Stra\u00dfe", "amenity": "arts_centre", "name": "Forum f\u00fcr Fotografie", "opening_hours": "We-Fr 14:00-18:00; Sa 12:00-18:00; Su 12:00-16:00", "website": "http://www.forum-fotografie.info"}}, {"type": "node", "id": 919725834, "lat": 50.9487679, "lon": 6.9487345, "tags": {"amenity": "arts_centre", "name": "Schigimont-Art", "website": "http://schigimont-art.de"}}, {"type": "node", "id": 920243537, "lat": 50.9376072, "lon": 6.9503169, "tags": {"entrance": "service", "name": "B\u00fchneneingang"}}, {"type": "node", "id": 930764137, "lat": 50.9428727, "lon": 6.9350985, "tags": {"addr:city": "K\u00f6ln", "addr:country": "DE", "addr:housenumber": "40", "addr:postcode": "50672", "addr:street": "Venloer Stra\u00dfe", "amenity": "nightclub", "level": "-1", "name": "JAKI", "toilets:wheelchair": "no", "website": "https://www.stadtgarten.de/", "wheelchair": "no"}}, {"type": "node", "id": 957231265, "lat": 50.9487439, "lon": 6.9127385, "tags": {"addr:city": "K\u00f6ln", "addr:housenumber": "2", "addr:postcode": "50825", "addr:street": "Gr\u00fcner Weg", "amenity": "nightclub", "name": "Barinton", "phone": "+49-221-4537001", "source": "photography", "website": "http://barinton.com/", "wheelchair": "no"}}, {"type": "node", "id": 960117141, "lat": 50.949635, "lon": 6.9552433, "tags": {"addr:city": "K\u00f6ln", "addr:country": "DE", "addr:housenumber": "15", "addr:postcode": "50668", "addr:street": "L\u00fcbecker Stra\u00dfe", "amenity": "cinema", "name": "Filmpalette", "phone": "+49 221 122112", "toilets:wheelchair": "no", "website": "http://www.filmpalette-koeln.de/", "wheelchair": "limited", "wheelchair:description": "Saal 1: 69 Sitze, Parken in der Mitte links | Saal 2: 44 Sitze, Parken in der 1. Reihe | Zugang von der Strasse in beiden S\u00e4alen \u00fcber 20cm hohe Stufe | Rampe und Platz zum Verstauen der Rollst\u00fchle vorhanden.", "wikidata": "Q34379635"}}, {"type": "node", "id": 1019302617, "lat": 50.9431613, "lon": 6.9350575}, {"type": "node", "id": 1019302636, "lat": 50.9429659, "lon": 6.9354294}, {"type": "node", "id": 1019308004, "lat": 50.9428551, "lon": 6.9351034}, {"type": "node", "id": 1019308007, "lat": 50.9427839, "lon": 6.9351968}, {"type": "node", "id": 1019308008, "lat": 50.9429179, "lon": 6.9349732}, {"type": "node", "id": 1019308009, "lat": 50.943006, "lon": 6.9349538}, {"type": "node", "id": 1023711218, "lat": 50.9390598, "lon": 7.0082332, "tags": {"amenity": "gambling", "name": "Rio Spielkasino"}}, {"type": "node", "id": 1024908076, "lat": 50.9399426, "lon": 7.0107271, "tags": {"amenity": "community_centre", "name": "Ev. Kirchengemeinde - Kirchengemeindehaus"}}, {"type": "node", "id": 1026198707, "lat": 50.9407011, "lon": 6.9558898, "tags": {"alt_name": "Gro\u00dfer Sendesaal", "amenity": "theatre", "name": "Klaus-von-Bismarck-Saal", "toilets:wheelchair": "yes", "wheelchair": "limited"}}, {"type": "node", "id": 1029891536, "lat": 50.941033, "lon": 6.933383, "tags": {"addr:housenumber": "60", "addr:street": "Bismarckstra\u00dfe", "amenity": "arts_centre", "name": "DOM Digital Online Media GmbH", "website": "http://Dom.de"}}, {"type": "node", "id": 1038738876, "lat": 50.9381866, "lon": 7.0006883, "tags": {"amenity": "gambling", "gambling": "wetting", "name": "Bet3000"}}, {"type": "node", "id": 1038738931, "lat": 50.9391674, "lon": 7.0012479, "tags": {"amenity": "gambling", "gambling": "betting", "name": "Sportwetten"}}, {"type": "node", "id": 1038970861, "lat": 50.941015, "lon": 6.933488, "tags": {"amenity": "nightclub", "name": "Des toten Rockstars Raucherecke"}}, {"type": "node", "id": 1057275869, "lat": 50.9490422, "lon": 6.9493597}, {"type": "node", "id": 1057516766, "lat": 50.940976, "lon": 6.9563416, "tags": {"amenity": "studio", "name": "Domradio", "studio": "radio", "website": "https://www.domradio.de/", "wikidata": "Q1238657", "wikipedia": "de:Domradio"}}, {"type": "node", "id": 1068697911, "lat": 51.0028092, "lon": 6.9378495}, {"type": "node", "id": 1068697916, "lat": 51.0030755, "lon": 6.9383228}, {"type": "node", "id": 1068697917, "lat": 51.0029898, "lon": 6.9383981}, {"type": "node", "id": 1068697920, "lat": 51.0030936, "lon": 6.9381794}, {"type": "node", "id": 1068697922, "lat": 51.0032515, "lon": 6.9361605}, {"type": "node", "id": 1068697924, "lat": 51.0027979, "lon": 6.9360529}, {"type": "node", "id": 1068697925, "lat": 51.0027844, "lon": 6.9361031}, {"type": "node", "id": 1068697927, "lat": 51.0029288, "lon": 6.9382834}, {"type": "node", "id": 1068697928, "lat": 51.00308, "lon": 6.9382403}, {"type": "node", "id": 1068697929, "lat": 51.0032696, "lon": 6.9379032}, {"type": "node", "id": 1068697930, "lat": 51.0032132, "lon": 6.9360565}, {"type": "node", "id": 1092242146, "lat": 50.9479891, "lon": 6.9449355}, {"type": "node", "id": 1092242200, "lat": 50.9479714, "lon": 6.9448494}, {"type": "node", "id": 1143496329, "lat": 50.9012027, "lon": 7.0202162}, {"type": "node", "id": 1143670305, "lat": 50.9353333, "lon": 6.9451318, "tags": {"amenity": "gambling", "name": "Zokki's Spielplatz"}}, {"type": "node", "id": 1225186194, "lat": 50.9419456, "lon": 6.9400294, "tags": {"addr:city": "K\u00f6ln", "addr:housenumber": "89-93", "addr:postcode": "50672", "addr:street": "Hohenzollernring", "amenity": "nightclub", "name": "Nachtflug", "website": "http://www.nachtflug.com"}}, {"type": "node", "id": 1252196329, "lat": 50.9463535, "lon": 6.9091393}, {"type": "node", "id": 1252196342, "lat": 50.9467131, "lon": 6.9093038}, {"type": "node", "id": 1252196355, "lat": 50.9469046, "lon": 6.9096405}, {"type": "node", "id": 1252196358, "lat": 50.9464561, "lon": 6.9095025}, {"type": "node", "id": 1252196364, "lat": 50.9463207, "lon": 6.9091831, "tags": {"entrance": "yes"}}, {"type": "node", "id": 1252196372, "lat": 50.9463015, "lon": 6.9092381}, {"type": "node", "id": 1265004394, "lat": 50.9382806, "lon": 6.9457799, "tags": {"amenity": "theatre", "name": "Kabarett Klingelp\u00fctz", "website": "http://www.kluengelpuetz.de/"}}, {"type": "node", "id": 1305956247, "lat": 50.9244222, "lon": 6.9310675}, {"type": "node", "id": 1305956266, "lat": 50.9243782, "lon": 6.9310951}, {"type": "node", "id": 1338523471, "lat": 50.951785, "lon": 6.9551468, "tags": {"addr:city": "K\u00f6ln", "addr:country": "DE", "addr:housenumber": "1", "addr:postcode": "50670", "addr:street": "Melchiorstra\u00dfe", "entrance": "yes"}}, {"type": "node", "id": 1338523473, "lat": 50.9516418, "lon": 6.9550591, "tags": {"addr:city": "K\u00f6ln", "addr:country": "DE", "addr:housenumber": "1a", "addr:postcode": "50670", "addr:street": "Sudermanplatz", "entrance": "main"}}, {"type": "node", "id": 1338523474, "lat": 50.9515743, "lon": 6.9546126, "tags": {"addr:city": "K\u00f6ln", "addr:country": "DE", "addr:housenumber": "7", "addr:postcode": "50670", "addr:street": "Sudermanplatz", "entrance": "main"}}, {"type": "node", "id": 1338523479, "lat": 50.9517292, "lon": 6.954368}, {"type": "node", "id": 1338523483, "lat": 50.9518648, "lon": 6.9551298}, {"type": "node", "id": 1338523485, "lat": 50.9521723, "lon": 6.9550705}, {"type": "node", "id": 1345580817, "lat": 50.9517057, "lon": 6.9543817, "tags": {"addr:city": "K\u00f6ln", "addr:country": "DE", "addr:housenumber": "2", "addr:postcode": "50670", "addr:street": "Kasparstra\u00dfe", "entrance": "home"}}, {"type": "node", "id": 1345580821, "lat": 50.9517423, "lon": 6.9543607, "tags": {"barrier": "gate"}}, {"type": "node", "id": 1345580822, "lat": 50.9517576, "lon": 6.954352}, {"type": "node", "id": 1345580825, "lat": 50.9518439, "lon": 6.954303}, {"type": "node", "id": 1345580829, "lat": 50.9519299, "lon": 6.9542524}, {"type": "node", "id": 1345580831, "lat": 50.9519726, "lon": 6.95423, "tags": {"barrier": "gate"}}, {"type": "node", "id": 1345580834, "lat": 50.9521125, "lon": 6.9541485}, {"type": "node", "id": 1345580835, "lat": 50.9521361, "lon": 6.9540819}, {"type": "node", "id": 1345580838, "lat": 50.9521725, "lon": 6.9541135}, {"type": "node", "id": 1345580844, "lat": 50.9522434, "lon": 6.9540719}, {"type": "node", "id": 1345580846, "lat": 50.9522933, "lon": 6.9550493}, {"type": "node", "id": 1345580851, "lat": 50.9523864, "lon": 6.9539882}, {"type": "node", "id": 1345580852, "lat": 50.95241, "lon": 6.9540083}, {"type": "node", "id": 1345580854, "lat": 50.9524335, "lon": 6.9541592}, {"type": "node", "id": 1345580857, "lat": 50.9524957, "lon": 6.9545513}, {"type": "node", "id": 1345580858, "lat": 50.9524584, "lon": 6.9550175}, {"type": "node", "id": 1345580860, "lat": 50.952526, "lon": 6.9547451}, {"type": "node", "id": 1345580861, "lat": 50.9525647, "lon": 6.9549936}, {"type": "node", "id": 1364617032, "lat": 50.8997751, "lon": 7.073209}, {"type": "node", "id": 1364617235, "lat": 50.9018173, "lon": 7.076145}, {"type": "node", "id": 1404416018, "lat": 50.9202543, "lon": 6.9580686}, {"type": "node", "id": 1404416030, "lat": 50.920086, "lon": 6.9581905}, {"type": "node", "id": 1404416031, "lat": 50.9201667, "lon": 6.9579832}, {"type": "node", "id": 1404416032, "lat": 50.9201736, "lon": 6.9582759}, {"type": "node", "id": 1434856551, "lat": 50.8568175, "lon": 7.083109}, {"type": "node", "id": 1434856557, "lat": 50.8568576, "lon": 7.0834385}, {"type": "node", "id": 1434856561, "lat": 50.856872, "lon": 7.0830923}, {"type": "node", "id": 1434856566, "lat": 50.8569122, "lon": 7.0834218}, {"type": "node", "id": 1448235867, "lat": 50.9516879, "lon": 6.915989, "tags": {"addr:city": "K\u00f6ln", "addr:country": "DE", "addr:housenumber": "65-67", "addr:postcode": "50825", "addr:street": "Bartholom\u00e4us-Schink-Stra\u00dfe", "amenity": "nightclub", "name": "Club Bahnhof Ehrenfeld", "toilets:wheelchair": "yes", "website": "https://cbe-cologne.de/", "wheelchair": "yes"}}, {"type": "node", "id": 1500782605, "lat": 50.9553774, "lon": 6.9403722, "tags": {"amenity": "brothel", "brothel:eros_center": "club", "email": "info@pascha.de", "name": "Pascha Club 11. Etage", "opening_hours": "24/7", "phone": "+49 221 17906006", "source": "bing", "toilets:wheelchair": "yes", "website": "http://www.11te-etage.com", "wheelchair": "limited"}}, {"type": "node", "id": 1500782606, "lat": 50.9555278, "lon": 6.940162, "tags": {"amenity": "stripclub", "email": "info@pascha.de", "fax": "+49 221 17906 472", "name": "Pascha Nightclub", "opening_hours": "Mo-Su 00:00-05:00,21:00-24:00", "phone": "+49 221 17906100", "website": "http://www.pascha-nightclub.de"}}, {"type": "node", "id": 1511362773, "lat": 50.9561941, "lon": 7.0078764}, {"type": "node", "id": 1511362776, "lat": 50.9562117, "lon": 7.007981}, {"type": "node", "id": 1511362779, "lat": 50.9562409, "lon": 7.0078057}, {"type": "node", "id": 1511362780, "lat": 50.9562999, "lon": 7.0078322}, {"type": "node", "id": 1591103952, "lat": 50.9822543, "lon": 7.0252811, "tags": {"amenity": "public_bookcase", "name": "\u00d6ffentlicher B\u00fccherschrank", "wheelchair": "yes"}}, {"type": "node", "id": 1625608517, "lat": 50.9375114, "lon": 6.9512542}, {"type": "node", "id": 1631311606, "lat": 50.9416581, "lon": 6.9460318, "tags": {"amenity": "community_centre", "name": "Pfarrsaal St. Gereon"}}, {"type": "node", "id": 1665843950, "lat": 50.9428198, "lon": 6.9279707}, {"type": "node", "id": 1665843958, "lat": 50.9430142, "lon": 6.9281281}, {"type": "node", "id": 1675489944, "lat": 50.8570496, "lon": 7.088334}, {"type": "node", "id": 1675489955, "lat": 50.8570861, "lon": 7.0886104}, {"type": "node", "id": 1675489960, "lat": 50.8571139, "lon": 7.0883127}, {"type": "node", "id": 1675489976, "lat": 50.8571504, "lon": 7.0885891}, {"type": "node", "id": 1686890049, "lat": 50.9394409, "lon": 6.9513733, "tags": {"amenity": "studio", "name": "1 Live", "studio": "radio", "website": "http://www.einslive.de/", "wikidata": "Q208998", "wikipedia": "de:1 Live"}}, {"type": "node", "id": 1694302231, "lat": 50.968644, "lon": 6.9486436, "tags": {"amenity": "public_bookcase", "designation": "B\u00fccher tauschen in der Telefonzelle", "name": "B\u00fccher tauschen"}}, {"type": "node", "id": 1711871614, "lat": 50.9006055, "lon": 7.0195662}, {"type": "node", "id": 1716632978, "lat": 50.8998391, "lon": 7.020781}, {"type": "node", "id": 1716633070, "lat": 50.9000162, "lon": 7.0205245, "tags": {"barrier": "gate", "bicycle": "yes", "entrance": "yes", "foot": "yes", "horse": "no"}}, {"type": "node", "id": 1716633090, "lat": 50.9000342, "lon": 7.0214233}, {"type": "node", "id": 1716633165, "lat": 50.9004029, "lon": 7.0198328}, {"type": "node", "id": 1716633191, "lat": 50.9005285, "lon": 7.0196177}, {"type": "node", "id": 1716633269, "lat": 50.900711, "lon": 7.0195904}, {"type": "node", "id": 1716633293, "lat": 50.9008512, "lon": 7.0197631}, {"type": "node", "id": 1719197564, "lat": 50.9069797, "lon": 6.9635114, "tags": {"amenity": "theatre", "name": "Die Baustelle"}}, {"type": "node", "id": 1770563596, "lat": 50.9345032, "lon": 6.9451552, "tags": {"addr:city": "K\u00f6ln", "addr:housenumber": "102", "addr:postcode": "50676", "addr:street": "Mauritiussteinweg", "amenity": "cinema", "capacity": "100", "email": "kontakt@turistarama.de", "name": "Turistarama", "old_name": "Lupe 2", "operator": "Michael Tromp", "phone": "+49 221 27848787", "start_date": "2014-10", "website": "http://www.turistarama.de", "wikidata": "Q34379770"}}, {"type": "node", "id": 1797207764, "lat": 50.9367165, "lon": 6.9751405, "tags": {"amenity": "gambling", "name": "Spiel mit!", "wheelchair": "no"}}, {"type": "node", "id": 1808335760, "lat": 50.8844792, "lon": 7.0598612}, {"type": "node", "id": 1808335761, "lat": 50.8844859, "lon": 7.0597455}, {"type": "node", "id": 1808335765, "lat": 50.8846432, "lon": 7.0598849}, {"type": "node", "id": 1808335767, "lat": 50.8846499, "lon": 7.0597692}, {"type": "node", "id": 1808379805, "lat": 50.8857582, "lon": 7.0600419}, {"type": "node", "id": 1808379806, "lat": 50.8857889, "lon": 7.0598009}, {"type": "node", "id": 1808379807, "lat": 50.8858088, "lon": 7.0599681}, {"type": "node", "id": 1808379808, "lat": 50.8858179, "lon": 7.0600037}, {"type": "node", "id": 1808379809, "lat": 50.8858284, "lon": 7.0599556}, {"type": "node", "id": 1808379810, "lat": 50.8858246, "lon": 7.0603019}, {"type": "node", "id": 1808379811, "lat": 50.8859357, "lon": 7.0601598}, {"type": "node", "id": 1808379812, "lat": 50.8859512, "lon": 7.0602207}, {"type": "node", "id": 1808379813, "lat": 50.8860152, "lon": 7.0596558}, {"type": "node", "id": 1808379814, "lat": 50.8861148, "lon": 7.060046}, {"type": "node", "id": 1862062032, "lat": 50.9716463, "lon": 7.0099249, "tags": {"amenity": "gambling", "gambling": "slot_machines", "name": "Magic Play"}}, {"type": "node", "id": 1871998518, "lat": 50.8860628, "lon": 7.06014, "tags": {"entrance": "yes"}}, {"type": "node", "id": 1874274359, "lat": 50.858482, "lon": 7.0854382, "tags": {"addr:city": "K\u00f6ln", "addr:country": "DE", "addr:housenumber": "210", "addr:postcode": "51147", "addr:street": "Frankfurter Stra\u00dfe", "addr:suburb": "Wahn", "amenity": "brothel", "brothel:apartment": "yes", "description": "Privathaus", "name": "Cat-Exclusiv", "note": "cost: 30 minutes 70\u20ac, 45 mintues 100\u20ac, 1 hour 130\u20ac", "opening_hours": "Mo-Sa 12:00-24:00, Su 12:00-22:00; PH 12:00-22:00", "phone": "+49 2203 1015141", "website": "http://www.cat-exclusiv.de"}}, {"type": "node", "id": 1877676527, "lat": 50.9011665, "lon": 7.0758369}, {"type": "node", "id": 1877676544, "lat": 50.9007664, "lon": 7.0714677}, {"type": "node", "id": 1912760411, "lat": 50.9395452, "lon": 6.9411359, "tags": {"amenity": "nightclub", "name": "Flamingo Royal", "website": "http://www.flamingo-royal.com/"}}, {"type": "node", "id": 1933712053, "lat": 50.9201339, "lon": 6.9276673, "tags": {"amenity": "theatre", "name": "Casamax Theater"}}, {"type": "node", "id": 1948954386, "lat": 50.9317194, "lon": 6.9407575, "tags": {"addr:city": "K\u00f6ln", "addr:country": "DE", "addr:housenumber": "30-32", "addr:postcode": "50674", "addr:street": "Hohenstaufenring", "amenity": "nightclub", "contact:email": "Info@dingzone.de", "name": "Das Ding", "website": "http://www.dingzone.de", "wheelchair": "limited"}}, {"type": "node", "id": 1969878310, "lat": 50.9415523, "lon": 6.9399396, "tags": {"amenity": "nightclub", "name": "Crystal", "website": "http://www.crystal-cologne.de/", "wheelchair": "no"}}, {"type": "node", "id": 1969878501, "lat": 50.9419924, "lon": 6.9400513, "tags": {"amenity": "nightclub", "name": "Starz", "website": "http://www.starz-club.de"}}, {"type": "node", "id": 2020307908, "lat": 50.9239476, "lon": 6.9667223, "tags": {"amenity": "public_bookcase", "fee": "no", "name": "B\u00fccherschrank"}}, {"type": "node", "id": 2036827999, "lat": 50.9267585, "lon": 7.0010104}, {"type": "node", "id": 2036828000, "lat": 50.9269101, "lon": 7.0007726}, {"type": "node", "id": 2036828018, "lat": 50.9267978, "lon": 7.0007325}, {"type": "node", "id": 2036828022, "lat": 50.9268708, "lon": 7.0010505}, {"type": "node", "id": 2083585919, "lat": 50.9427376, "lon": 6.9410845, "tags": {"addr:city": "K\u00f6ln", "addr:country": "DE", "addr:housenumber": "6-8", "addr:postcode": "50672", "addr:street": "Kaiser-Wilhelm-Ring", "amenity": "brothel", "brothel:apartment": "yes", "name": "Massage & Relax K\u00f6ln", "opening_hours": "Mo-Fr 11:00-20:00, Sa 11:00-18:00, Su closed; PH closed", "phone": "+49 221 9229922", "website": "http://www.massagerelax.de"}}, {"type": "node", "id": 2083714722, "lat": 50.9199199, "lon": 6.9548237}, {"type": "node", "id": 2083714723, "lat": 50.9199459, "lon": 6.9549508}, {"type": "node", "id": 2083714724, "lat": 50.9200191, "lon": 6.9547735}, {"type": "node", "id": 2083714725, "lat": 50.9200448, "lon": 6.9549005}, {"type": "node", "id": 2093703654, "lat": 50.9439275, "lon": 6.9422668, "tags": {"amenity": "cinema", "contact:email": "info@koeln.astor-filmlounge.de", "contact:phone": "+49 221 91396913", "name": "Residenz - ASTOR Film Lounge", "opening_hours": "Mo-Su,PH 13:00+", "toilets:wheelchair": "yes", "website": "https://koeln.astor-filmlounge.de/", "wheelchair": "yes", "wheelchair:description": "Nur der gro\u00dfe Saal 1 ist erreichbar, die anderen 3 S\u00e4le jedoch nicht.", "wikidata": "Q34379742"}}, {"type": "node", "id": 2096386367, "lat": 50.9621395, "lon": 6.9586643, "tags": {"amenity": "nightclub", "name": "Saphir Club"}}, {"type": "node", "id": 2111971110, "lat": 50.9616285, "lon": 6.9491672, "tags": {"amenity": "theatre", "name": "Kulturkirche K\u00f6ln", "website": "http://www.kulturkirche-koeln.de", "wheelchair": "yes"}}, {"type": "node", "id": 2154861456, "lat": 50.9406755, "lon": 6.9600503, "tags": {"addr:postcode": "50667", "amenity": "cinema", "email": "info@filmforumnrw.de", "name": "Filmforum", "phone": "+49 221 22124498", "website": "http://www.filmforumnrw.de"}}, {"type": "node", "id": 2182201925, "lat": 50.9019043, "lon": 7.0750882}, {"type": "node", "id": 2182204062, "lat": 50.901683, "lon": 7.0762736}, {"type": "node", "id": 2192641133, "lat": 50.8859763, "lon": 7.0601337}, {"type": "node", "id": 2192641137, "lat": 50.8859873, "lon": 7.0601509}, {"type": "node", "id": 2192641146, "lat": 50.8860027, "lon": 7.0601513}, {"type": "node", "id": 2192641148, "lat": 50.886012, "lon": 7.0601118}, {"type": "node", "id": 2192641149, "lat": 50.8860132, "lon": 7.0601337}, {"type": "node", "id": 2192641153, "lat": 50.8860304, "lon": 7.0601141}, {"type": "node", "id": 2192641155, "lat": 50.8860362, "lon": 7.0601342}, {"type": "node", "id": 2192641165, "lat": 50.8860426, "lon": 7.0601392}, {"type": "node", "id": 2192641167, "lat": 50.8860502, "lon": 7.0601413}, {"type": "node", "id": 2192641175, "lat": 50.8860734, "lon": 7.0601249}, {"type": "node", "id": 2192641176, "lat": 50.8860772, "lon": 7.0601121}, {"type": "node", "id": 2192641178, "lat": 50.886078, "lon": 7.060098}, {"type": "node", "id": 2278367185, "lat": 50.9229443, "lon": 6.9506316, "tags": {"amenity": "theatre", "name": "Theater der Keller", "wheelchair": "no", "wikidata": "Q1677620", "wikipedia": "de:Theater der Keller"}}, {"type": "node", "id": 2281301079, "lat": 50.9313782, "lon": 6.9368985, "tags": {"amenity": "public_bookcase", "name": "B\u00fccherschrank"}}, {"type": "node", "id": 2299937727, "lat": 50.9213028, "lon": 6.9978061, "tags": {"amenity": "gambling", "name": "Merkur-Spielothek"}}, {"type": "node", "id": 2328587401, "lat": 50.9573427, "lon": 6.9955987, "tags": {"addr:city": "K\u00f6ln", "addr:country": "DE", "addr:door": "Wir sind parterre zu finden. Klingel gibt es bei uns nur eine. Es steht nichts darauf.", "addr:housenumber": "17b", "addr:postcode": "51063", "addr:street": "Danzierstra\u00dfe", "amenity": "brothel", "brothel:apartment": "yes", "name": "Danzier Team", "opening_hours": "Mo-Fr 10:00-20:00; Sa 10:00-18:00", "phone": "+49 221 16832218", "website": "https://www.danzier-team.de/", "wheelchair": "yes"}}, {"type": "node", "id": 2339311082, "lat": 50.9192133, "lon": 6.9590449}, {"type": "node", "id": 2339311106, "lat": 50.9192843, "lon": 6.9592112}, {"type": "node", "id": 2339311112, "lat": 50.9192976, "lon": 6.9589549}, {"type": "node", "id": 2339311139, "lat": 50.9193685, "lon": 6.9591212}, {"type": "node", "id": 2345358823, "lat": 50.9220154, "lon": 6.9559334, "tags": {"addr:city": "K\u00f6ln", "addr:country": "DE", "addr:housenumber": "3", "addr:postcode": "50677", "addr:street": "Sachsenring", "amenity": "theatre", "name": "Theater am Sachsenring - TAS", "toilets:wheelchair": "no", "website": "http://www.theater-am-sachsenring.de/", "wheelchair": "no"}}, {"type": "node", "id": 2380554989, "lat": 50.8534003, "lon": 6.9750215, "tags": {"addr:city": "K\u00f6ln", "addr:country": "DE", "addr:housenumber": "133", "addr:postcode": "50997", "addr:street": "Godorfer Hauptstra\u00dfe", "addr:suburb": "Godorf", "amenity": "brothel", "brothel:apartment": "yes", "email": "info@privathaus24.com", "name": "Haus 24", "opening_hours": "Mo-Su 10:00-24:00", "phone": "+49 2236 3210026", "website": "http://www.privathaus24.com"}}, {"type": "node", "id": 2382134757, "lat": 51.0039821, "lon": 6.8918082}, {"type": "node", "id": 2382134768, "lat": 51.0040444, "lon": 6.8917521}, {"type": "node", "id": 2402942283, "lat": 50.8976071, "lon": 7.0630745}, {"type": "node", "id": 2402942284, "lat": 50.8976084, "lon": 7.0628614}, {"type": "node", "id": 2402942421, "lat": 50.8978777, "lon": 7.0630787}, {"type": "node", "id": 2402942422, "lat": 50.8979481, "lon": 7.0627551}, {"type": "node", "id": 2419064961, "lat": 50.938483, "lon": 6.9397522, "tags": {"amenity": "gambling", "name": "Spielpalast"}}, {"type": "node", "id": 2439165335, "lat": 50.9374505, "lon": 6.9394937, "tags": {"amenity": "nightclub", "email": "info@vanity.cc", "name": "Vanity", "phone": "+49 221-280 64 63-0", "website": "http://www.vanity.cc"}}, {"type": "node", "id": 2439165336, "lat": 50.9379184, "lon": 6.9398229, "tags": {"amenity": "cinema", "capacity": "1400", "cinema:3D": "yes", "name": "Filmpalast K\u00f6ln", "old_name": "Ufa-Filmpalast", "opening_hours": "Mo-Th 14:30-23:00;Fr-Sa 14:30-01:00; Su, PH 10:30-23:00", "phone": "+49 221 27257717", "screen": "8", "start_date": "2016-12-16", "toilets:wheelchair": "yes", "website": "https://www.cineplex.de/koeln/", "wheelchair": "yes", "wheelchair:description": "Kino-Saal 7 und 8, sowie das Cafe sind nicht zug\u00e4nglich, da dort kein Aufzug hinf\u00fchrt."}}, {"type": "node", "id": 2439751947, "lat": 50.936473, "lon": 6.9451967}, {"type": "node", "id": 2464989492, "lat": 50.9393335, "lon": 6.9357079, "tags": {"addr:city": "K\u00f6ln", "addr:country": "DE", "addr:housenumber": "23", "addr:postcode": "50672", "addr:street": "Genter Stra\u00dfe", "amenity": "theatre", "name": "Theaterp\u00e4dagisches Zentrum"}}, {"type": "node", "id": 2490663641, "lat": 50.885877, "lon": 7.059991, "tags": {"addr:city": "K\u00f6ln", "addr:housenumber": "20", "addr:postcode": "51143", "addr:street": "Glash\u00fcttenstra\u00dfe", "amenity": "cinema", "name": "Kino in der Glash\u00fctte", "wheelchair": "limited"}}, {"type": "node", "id": 2490768695, "lat": 50.8976725, "lon": 7.0628624}, {"type": "node", "id": 2490768697, "lat": 50.8977617, "lon": 7.0628638}, {"type": "node", "id": 2490768698, "lat": 50.8977605, "lon": 7.0627522}, {"type": "node", "id": 2490768699, "lat": 50.8978788, "lon": 7.0628927}, {"type": "node", "id": 2490768700, "lat": 50.8979492, "lon": 7.0628938}, {"type": "node", "id": 2514954628, "lat": 50.9556593, "lon": 6.9017256, "tags": {"amenity": "arts_centre"}}, {"type": "node", "id": 2535012689, "lat": 50.9193534, "lon": 6.9590864}, {"type": "node", "id": 2536089905, "lat": 50.9173784, "lon": 6.9652868, "tags": {"addr:city": "K\u00f6ln", "addr:country": "DE", "addr:housenumber": "71", "addr:postcode": "50678", "addr:street": "Mainzer Stra\u00dfe", "amenity": "theatre", "name": "Helios Figurentheater"}}, {"type": "node", "id": 2536805874, "lat": 50.8978914, "lon": 7.0627542}, {"type": "node", "id": 2537507824, "lat": 50.9521368, "lon": 6.9073256}, {"type": "node", "id": 2537507827, "lat": 50.9522205, "lon": 6.9074016}, {"type": "node", "id": 2537507829, "lat": 50.9523233, "lon": 6.9074871}, {"type": "node", "id": 2540260992, "lat": 50.9497643, "lon": 7.0057468}, {"type": "node", "id": 2540260999, "lat": 50.9498363, "lon": 7.005841}, {"type": "node", "id": 2540261002, "lat": 50.9498411, "lon": 7.0058298}, {"type": "node", "id": 2540261005, "lat": 50.9499182, "lon": 7.0059202}, {"type": "node", "id": 2540261008, "lat": 50.9499509, "lon": 7.0056821}, {"type": "node", "id": 2540261011, "lat": 50.9499672, "lon": 7.0058042}, {"type": "node", "id": 2546239716, "lat": 50.8858909, "lon": 7.0597355}, {"type": "node", "id": 2546239721, "lat": 50.8860281, "lon": 7.0601015}, {"type": "node", "id": 2546239723, "lat": 50.8860715, "lon": 7.0600738}, {"type": "node", "id": 2563010519, "lat": 50.9559846, "lon": 6.9915563}, {"type": "node", "id": 2563010525, "lat": 50.9560224, "lon": 6.9914657}, {"type": "node", "id": 2563010527, "lat": 50.9560338, "lon": 6.9916789}, {"type": "node", "id": 2563010529, "lat": 50.9560472, "lon": 6.9916929}, {"type": "node", "id": 2563010532, "lat": 50.9560543, "lon": 6.9916297}, {"type": "node", "id": 2563010538, "lat": 50.9561079, "lon": 6.9915469}, {"type": "node", "id": 2567241167, "lat": 50.9518936, "lon": 6.9542729}, {"type": "node", "id": 2567241228, "lat": 50.9520104, "lon": 6.9542049}, {"type": "node", "id": 2567241247, "lat": 50.9520455, "lon": 6.954185}, {"type": "node", "id": 2569080812, "lat": 50.9570616, "lon": 6.9003367, "tags": {"amenity": "nightclub", "name": "e-feld"}}, {"type": "node", "id": 2578762351, "lat": 50.9383976, "lon": 6.9383125, "tags": {"addr:city": "K\u00f6ln", "addr:housenumber": "6/8", "addr:postcode": "50672", "addr:street": "Maastrichter Stra\u00dfe", "amenity": "stripclub", "email": "info@stardust-koeln.de", "name": "Stardust - Table Dance", "opening_hours": "Mo-Th 21:00-05:00, Fr,Sa 21:00-06:00, Su 21:00-03:00", "phone": "+49-221-4740636", "website": "http://www.stardust-koeln.de"}}, {"type": "node", "id": 2580629382, "lat": 50.9429123, "lon": 6.9285369}, {"type": "node", "id": 2580629393, "lat": 50.9429711, "lon": 6.928579}, {"type": "node", "id": 2580629395, "lat": 50.942973, "lon": 6.9285729}, {"type": "node", "id": 2580629399, "lat": 50.9429803, "lon": 6.9287254}, {"type": "node", "id": 2580629403, "lat": 50.942985, "lon": 6.9282964}, {"type": "node", "id": 2580629407, "lat": 50.9430047, "lon": 6.9286443}, {"type": "node", "id": 2580629411, "lat": 50.9430087, "lon": 6.9286474}, {"type": "node", "id": 2580629414, "lat": 50.9430204, "lon": 6.9286086}, {"type": "node", "id": 2580629417, "lat": 50.9430363, "lon": 6.9287675}, {"type": "node", "id": 2580629418, "lat": 50.9430412, "lon": 6.9287514}, {"type": "node", "id": 2580629425, "lat": 50.9430567, "lon": 6.928783}, {"type": "node", "id": 2580629427, "lat": 50.9430615, "lon": 6.9287667}, {"type": "node", "id": 2580629435, "lat": 50.9430979, "lon": 6.9286612}, {"type": "node", "id": 2580629439, "lat": 50.943108, "lon": 6.9288216}, {"type": "node", "id": 2580629443, "lat": 50.943113, "lon": 6.9288054}, {"type": "node", "id": 2580629447, "lat": 50.9431322, "lon": 6.9288398}, {"type": "node", "id": 2580629452, "lat": 50.9431371, "lon": 6.9288237}, {"type": "node", "id": 2580629454, "lat": 50.9431417, "lon": 6.9285059}, {"type": "node", "id": 2580629456, "lat": 50.943144, "lon": 6.9285079}, {"type": "node", "id": 2580629458, "lat": 50.9431635, "lon": 6.9284328}, {"type": "node", "id": 2580629462, "lat": 50.9431829, "lon": 6.928878}, {"type": "node", "id": 2580629464, "lat": 50.9431878, "lon": 6.9288618}, {"type": "node", "id": 2580629467, "lat": 50.9432048, "lon": 6.9288946}, {"type": "node", "id": 2580629468, "lat": 50.9432098, "lon": 6.9288783}, {"type": "node", "id": 2580629469, "lat": 50.9432169, "lon": 6.9287547}, {"type": "node", "id": 2580629470, "lat": 50.9432227, "lon": 6.9282363}, {"type": "node", "id": 2580629471, "lat": 50.9432584, "lon": 6.9289349}, {"type": "node", "id": 2580629473, "lat": 50.9432639, "lon": 6.9285981}, {"type": "node", "id": 2580629475, "lat": 50.9432655, "lon": 6.9285993}, {"type": "node", "id": 2580629479, "lat": 50.9432865, "lon": 6.9285301}, {"type": "node", "id": 2580629485, "lat": 50.94332, "lon": 6.9285555}, {"type": "node", "id": 2580629486, "lat": 50.9433256, "lon": 6.9285373}, {"type": "node", "id": 2580629490, "lat": 50.9433467, "lon": 6.9283295}, {"type": "node", "id": 2580629492, "lat": 50.9433686, "lon": 6.9285698}, {"type": "node", "id": 2583505814, "lat": 50.939985, "lon": 6.940297}, {"type": "node", "id": 2583505815, "lat": 50.9400038, "lon": 6.9401152}, {"type": "node", "id": 2583505820, "lat": 50.9400834, "lon": 6.9403224}, {"type": "node", "id": 2583505821, "lat": 50.9401022, "lon": 6.9401406}, {"type": "node", "id": 2583505835, "lat": 50.9394289, "lon": 6.9399663, "tags": {"amenity": "theatre", "entrance": "yes", "name": "Scala-Theater", "phone": "+49 221 4207593", "website": "http://www.scala-koeln.de/"}}, {"type": "node", "id": 2583505836, "lat": 50.9392731, "lon": 6.9399278, "tags": {"amenity": "gambling", "entrance": "yes", "name": "Spielsalon Fair Play"}}, {"type": "node", "id": 2583505838, "lat": 50.9400526, "lon": 6.9401278, "tags": {"entrance": "yes"}}, {"type": "node", "id": 2583999489, "lat": 50.9473499, "lon": 6.9451102}, {"type": "node", "id": 2583999492, "lat": 50.9478503, "lon": 6.9447269}, {"type": "node", "id": 2583999493, "lat": 50.9478553, "lon": 6.944649}, {"type": "node", "id": 2583999495, "lat": 50.9478572, "lon": 6.9447281, "tags": {"entrance": "yes"}}, {"type": "node", "id": 2583999497, "lat": 50.9478709, "lon": 6.9447362}, {"type": "node", "id": 2583999498, "lat": 50.9479088, "lon": 6.9466069}, {"type": "node", "id": 2583999501, "lat": 50.9479332, "lon": 6.9447865}, {"type": "node", "id": 2583999512, "lat": 50.9480561, "lon": 6.9460111}, {"type": "node", "id": 2583999514, "lat": 50.9480599, "lon": 6.9461088}, {"type": "node", "id": 2583999516, "lat": 50.9480853, "lon": 6.9465129}, {"type": "node", "id": 2583999744, "lat": 50.9487808, "lon": 6.9490146}, {"type": "node", "id": 2583999746, "lat": 50.9487933, "lon": 6.9490505}, {"type": "node", "id": 2583999747, "lat": 50.9487941, "lon": 6.9490497}, {"type": "node", "id": 2583999750, "lat": 50.9488129, "lon": 6.9491009}, {"type": "node", "id": 2583999770, "lat": 50.9489246, "lon": 6.9489922}, {"type": "node", "id": 2586915737, "lat": 50.9473941, "lon": 6.9133147}, {"type": "node", "id": 2586915742, "lat": 50.9474619, "lon": 6.9131229}, {"type": "node", "id": 2586915748, "lat": 50.9475622, "lon": 6.9133071, "tags": {"entrance": "yes"}}, {"type": "node", "id": 2586915752, "lat": 50.9475877, "lon": 6.9132348}, {"type": "node", "id": 2587001823, "lat": 50.9225436, "lon": 6.9577475}, {"type": "node", "id": 2587001825, "lat": 50.9225454, "lon": 6.9577063}, {"type": "node", "id": 2587001827, "lat": 50.9225468, "lon": 6.9577563}, {"type": "node", "id": 2587001829, "lat": 50.9225492, "lon": 6.9578559}, {"type": "node", "id": 2587001831, "lat": 50.9225498, "lon": 6.9578561}, {"type": "node", "id": 2587001833, "lat": 50.9225508, "lon": 6.9577002}, {"type": "node", "id": 2587001837, "lat": 50.922553, "lon": 6.9576481}, {"type": "node", "id": 2587001839, "lat": 50.9225531, "lon": 6.9577571}, {"type": "node", "id": 2587001851, "lat": 50.9225618, "lon": 6.9575653}, {"type": "node", "id": 2587001888, "lat": 50.9226812, "lon": 6.957869}, {"type": "node", "id": 2587001889, "lat": 50.9226816, "lon": 6.9578969}, {"type": "node", "id": 2587001900, "lat": 50.9226978, "lon": 6.9578669}, {"type": "node", "id": 2587001901, "lat": 50.9226989, "lon": 6.9578673}, {"type": "node", "id": 2587001902, "lat": 50.922699, "lon": 6.9578373}, {"type": "node", "id": 2587001903, "lat": 50.9226999, "lon": 6.9578961}, {"type": "node", "id": 2587001906, "lat": 50.9227017, "lon": 6.957768}, {"type": "node", "id": 2587001907, "lat": 50.9227026, "lon": 6.957742}, {"type": "node", "id": 2587001908, "lat": 50.9227033, "lon": 6.957742}, {"type": "node", "id": 2587001910, "lat": 50.9227046, "lon": 6.9576863}, {"type": "node", "id": 2587001911, "lat": 50.9227054, "lon": 6.9576867}, {"type": "node", "id": 2587001912, "lat": 50.922707, "lon": 6.9576612}, {"type": "node", "id": 2587001914, "lat": 50.9227127, "lon": 6.9576023}, {"type": "node", "id": 2587213069, "lat": 50.9250706, "lon": 6.9641478}, {"type": "node", "id": 2587213070, "lat": 50.9250886, "lon": 6.9642383}, {"type": "node", "id": 2587213071, "lat": 50.9250952, "lon": 6.9642351}, {"type": "node", "id": 2587213072, "lat": 50.9251248, "lon": 6.9641207}, {"type": "node", "id": 2587213073, "lat": 50.9251268, "lon": 6.9641305}, {"type": "node", "id": 2587213074, "lat": 50.9252308, "lon": 6.9649195}, {"type": "node", "id": 2587213075, "lat": 50.9252412, "lon": 6.9640627}, {"type": "node", "id": 2587213076, "lat": 50.925243, "lon": 6.964072}, {"type": "node", "id": 2587213077, "lat": 50.9252796, "lon": 6.9648951}, {"type": "node", "id": 2587213078, "lat": 50.9252956, "lon": 6.9640351}, {"type": "node", "id": 2587213079, "lat": 50.9252986, "lon": 6.9649869}, {"type": "node", "id": 2587213080, "lat": 50.9253054, "lon": 6.9641279}, {"type": "node", "id": 2587213081, "lat": 50.9253135, "lon": 6.9641238}, {"type": "node", "id": 2587213082, "lat": 50.9253164, "lon": 6.9648765}, {"type": "node", "id": 2587213083, "lat": 50.9253352, "lon": 6.9649679}, {"type": "node", "id": 2587213084, "lat": 50.9254435, "lon": 6.9648119}, {"type": "node", "id": 2599406425, "lat": 50.934144, "lon": 6.9256918, "tags": {"camera:angle": "0", "camera:direction": "350", "camera:mount": "wall", "camera:type": "fixed", "height": "4", "man_made": "surveillance", "operator": "Japanisches Kulturinstitut", "surveillance": "public", "surveillance:type": "camera"}}, {"type": "node", "id": 2599406426, "lat": 50.9341465, "lon": 6.9259643, "tags": {"camera:angle": "40", "camera:direction": "230", "camera:mount": "wall", "camera:type": "fixed", "height": "4", "man_made": "surveillance", "operator": "Japanisches Kulturinstitut", "surveillance": "public", "surveillance:type": "camera"}}, {"type": "node", "id": 2599406474, "lat": 50.9342708, "lon": 6.9255549}, {"type": "node", "id": 2599406477, "lat": 50.9342733, "lon": 6.9256886}, {"type": "node", "id": 2599406482, "lat": 50.9342793, "lon": 6.9259613}, {"type": "node", "id": 2599406483, "lat": 50.9342821, "lon": 6.926042}, {"type": "node", "id": 2599406516, "lat": 50.9345801, "lon": 6.9255403}, {"type": "node", "id": 2599406517, "lat": 50.9345828, "lon": 6.925683, "tags": {"entrance": "main"}}, {"type": "node", "id": 2599406520, "lat": 50.9345892, "lon": 6.9260279}, {"type": "node", "id": 2606202169, "lat": 50.8865143, "lon": 6.9247295}, {"type": "node", "id": 2623226432, "lat": 50.9400844, "lon": 6.940136, "tags": {"access": "private", "entrance": "yes"}}, {"type": "node", "id": 2629419509, "lat": 50.9369665, "lon": 6.9440601, "tags": {"addr:city": "K\u00f6ln", "addr:housenumber": "12", "addr:postcode": "50672", "addr:street": "Mittelstra\u00dfe", "amenity": "nightclub", "contact:phone": "+49 163 4861990", "name": "Tru Club", "opening_hours": "Sa 23:00+"}}, {"type": "node", "id": 2630138568, "lat": 50.9588392, "lon": 6.9174146}, {"type": "node", "id": 2630138573, "lat": 50.9588701, "lon": 6.9174583}, {"type": "node", "id": 2630138574, "lat": 50.9588704, "lon": 6.917459}, {"type": "node", "id": 2630138579, "lat": 50.9589164, "lon": 6.9175182}, {"type": "node", "id": 2630138580, "lat": 50.9589188, "lon": 6.9175134}, {"type": "node", "id": 2630138581, "lat": 50.9589206, "lon": 6.9172436}, {"type": "node", "id": 2630138589, "lat": 50.958998, "lon": 6.9173408}, {"type": "node", "id": 2638882039, "lat": 50.9244985, "lon": 6.9310183}, {"type": "node", "id": 2641373248, "lat": 50.9242937, "lon": 6.9311489}, {"type": "node", "id": 2641373257, "lat": 50.9243475, "lon": 6.9313476}, {"type": "node", "id": 2647274523, "lat": 50.9166537, "lon": 6.9291742}, {"type": "node", "id": 2647274534, "lat": 50.9167621, "lon": 6.9289167}, {"type": "node", "id": 2647274539, "lat": 50.9167802, "lon": 6.9293057}, {"type": "node", "id": 2647274541, "lat": 50.9167904, "lon": 6.9292815}, {"type": "node", "id": 2647274553, "lat": 50.9168526, "lon": 6.9293459}, {"type": "node", "id": 2647274557, "lat": 50.916885, "lon": 6.9290534}, {"type": "node", "id": 2647274558, "lat": 50.916887, "lon": 6.929048}, {"type": "node", "id": 2647274565, "lat": 50.9169451, "lon": 6.9291272}, {"type": "node", "id": 2647274566, "lat": 50.9169484, "lon": 6.929119}, {"type": "node", "id": 2648793674, "lat": 50.9486053, "lon": 6.95416}, {"type": "node", "id": 2648793699, "lat": 50.9486326, "lon": 6.9542323}, {"type": "node", "id": 2648793724, "lat": 50.9486414, "lon": 6.9541236}, {"type": "node", "id": 2648793764, "lat": 50.9486651, "lon": 6.9542049}, {"type": "node", "id": 2660974668, "lat": 50.9873076, "lon": 6.9133534}, {"type": "node", "id": 2660974676, "lat": 50.9873761, "lon": 6.9135005}, {"type": "node", "id": 2660974682, "lat": 50.9874096, "lon": 6.9134615}, {"type": "node", "id": 2660974683, "lat": 50.9874166, "lon": 6.9134764}, {"type": "node", "id": 2660974690, "lat": 50.9874442, "lon": 6.913195}, {"type": "node", "id": 2660974695, "lat": 50.9874792, "lon": 6.9133803}, {"type": "node", "id": 2660974697, "lat": 50.9874861, "lon": 6.9133952}, {"type": "node", "id": 2660974701, "lat": 50.9875126, "lon": 6.9133413}, {"type": "node", "id": 2667443641, "lat": 50.8995539, "lon": 6.9445896}, {"type": "node", "id": 2667443642, "lat": 50.899558, "lon": 6.9444631}, {"type": "node", "id": 2667443643, "lat": 50.8997208, "lon": 6.9444763}, {"type": "node", "id": 2667443644, "lat": 50.8997229, "lon": 6.9444125}, {"type": "node", "id": 2667443645, "lat": 50.899765, "lon": 6.9446068}, {"type": "node", "id": 2667443646, "lat": 50.8997659, "lon": 6.9445824}, {"type": "node", "id": 2667443647, "lat": 50.8997708, "lon": 6.9444317}, {"type": "node", "id": 2667443648, "lat": 50.8997711, "lon": 6.9444183}, {"type": "node", "id": 2667443649, "lat": 50.8999088, "lon": 6.9445942}, {"type": "node", "id": 2667443650, "lat": 50.8999138, "lon": 6.9444435}, {"type": "node", "id": 2669270834, "lat": 50.9017608, "lon": 7.0762139}, {"type": "node", "id": 2670478047, "lat": 50.9084637, "lon": 6.9450104}, {"type": "node", "id": 2670478048, "lat": 50.9084648, "lon": 6.9449321}, {"type": "node", "id": 2670478049, "lat": 50.9084705, "lon": 6.9445316}, {"type": "node", "id": 2670478050, "lat": 50.908476, "lon": 6.9445319}, {"type": "node", "id": 2670478069, "lat": 50.9085453, "lon": 6.9445343}, {"type": "node", "id": 2670478071, "lat": 50.9085465, "lon": 6.9444392}, {"type": "node", "id": 2670478078, "lat": 50.9085807, "lon": 6.9444402}, {"type": "node", "id": 2670478094, "lat": 50.908627, "lon": 6.9450125}, {"type": "node", "id": 2670478096, "lat": 50.9086337, "lon": 6.9444417}, {"type": "node", "id": 2688952483, "lat": 50.9246946, "lon": 6.9662143}, {"type": "node", "id": 2688952488, "lat": 50.9247492, "lon": 6.9663639}, {"type": "node", "id": 2688952502, "lat": 50.9248895, "lon": 6.9660333}, {"type": "node", "id": 2688952503, "lat": 50.9248918, "lon": 6.966039}, {"type": "node", "id": 2688952504, "lat": 50.9248922, "lon": 6.9660386}, {"type": "node", "id": 2688952513, "lat": 50.924942, "lon": 6.9661775}, {"type": "node", "id": 2688952514, "lat": 50.924943, "lon": 6.9661766}, {"type": "node", "id": 2688952515, "lat": 50.9249441, "lon": 6.9661831}, {"type": "node", "id": 2697806614, "lat": 50.9401453, "lon": 7.0239384, "tags": {"amenity": "social_centre", "name": "Interkulturelles Zentrum - HAMIAM, help a minorrity in a minority e.V.", "opening_hours": "Mo 10:00-16:00", "source": "survey", "website": "www.hamiam.de"}}, {"type": "node", "id": 2697806621, "lat": 50.9401454, "lon": 7.0210785, "tags": {"amenity": "gambling"}}, {"type": "node", "id": 2697806629, "lat": 50.9401505, "lon": 7.0235099, "tags": {"amenity": "social_centre", "name": "Sozialdienst f\u00fcr Italiener - Patronato SiaS", "name:it": "Servizio Italiano Assistenza Sociale", "source": "survey"}}, {"type": "node", "id": 2697806631, "lat": 50.9401312, "lon": 7.0236939, "tags": {"amenity": "gambling", "name": "Spielsalon", "opening_hours": "Mo-Su 06:00-00:30", "source": "survey"}}, {"type": "node", "id": 2704395547, "lat": 50.9299219, "lon": 7.041066, "tags": {"amenity": "public_bookcase", "description": "Unter dem Vordach der Sparkasse; Sonst im Sparkassenvorraum", "name": "Offener B\u00fccherschrank", "operator": "SparkasseK\u00f6lnBonn", "public_bookcase:type": "movable_cabinet", "wheelchair": "yes"}}, {"type": "node", "id": 2759261374, "lat": 50.8740796, "lon": 6.9921294}, {"type": "node", "id": 2759261375, "lat": 50.874162, "lon": 6.9919555}, {"type": "node", "id": 2759261385, "lat": 50.8742268, "lon": 6.9922085}, {"type": "node", "id": 2759261387, "lat": 50.8742357, "lon": 6.9921672}, {"type": "node", "id": 2759261392, "lat": 50.874257, "lon": 6.9921786}, {"type": "node", "id": 2759261394, "lat": 50.8742601, "lon": 6.9920545}, {"type": "node", "id": 2759261395, "lat": 50.874269, "lon": 6.9920134}, {"type": "node", "id": 2759261397, "lat": 50.8742811, "lon": 6.9920658}, {"type": "node", "id": 2768721773, "lat": 50.858194, "lon": 7.0858853}, {"type": "node", "id": 2768721799, "lat": 50.8582385, "lon": 7.0860995}, {"type": "node", "id": 2768721827, "lat": 50.8582923, "lon": 7.0860714}, {"type": "node", "id": 2768721831, "lat": 50.8582967, "lon": 7.0858316}, {"type": "node", "id": 2768721883, "lat": 50.8583456, "lon": 7.0858061}, {"type": "node", "id": 2768721921, "lat": 50.8583861, "lon": 7.085785}, {"type": "node", "id": 2768722224, "lat": 50.8584306, "lon": 7.0859992}, {"type": "node", "id": 2771168564, "lat": 50.8568508, "lon": 7.0833823}, {"type": "node", "id": 2771168565, "lat": 50.8569054, "lon": 7.0833657}, {"type": "node", "id": 2782230457, "lat": 50.9000314, "lon": 7.0205045}, {"type": "node", "id": 2815053901, "lat": 50.9556011, "lon": 6.910391, "tags": {"addr:city": "K\u00f6ln", "addr:housenumber": "2", "addr:postcode": "50825", "addr:street": "Hackl\u00e4nderstra\u00dfe", "alt_name": "Wikipedia:Lokal K", "amenity": "community_centre", "internet_access": "wlan", "internet_access:fee": "no", "internet_access:operator": "Freifunk", "name": "Lokal K", "opening_hours": "Th 16:00-22:00 || \"siehe https://de.wikipedia.org/wiki/Wikipedia:Lokal_K/Kalender\"", "operator": "Wikimedia Deutschland e.V.", "phone": "+49 221 50608320", "toilets:wheelchair": "no", "wheelchair": "limited", "wikidata": "Q17285924", "wikipedia": "de:Wikipedia:Lokal K"}}, {"type": "node", "id": 2850274449, "lat": 50.9118804, "lon": 6.9924804}, {"type": "node", "id": 2850274469, "lat": 50.9119004, "lon": 6.9927677}, {"type": "node", "id": 2850274602, "lat": 50.9119468, "lon": 6.9924687}, {"type": "node", "id": 2850274603, "lat": 50.9119487, "lon": 6.9924939}, {"type": "node", "id": 2850274611, "lat": 50.9119645, "lon": 6.9927195}, {"type": "node", "id": 2850274613, "lat": 50.9119669, "lon": 6.992756}, {"type": "node", "id": 2858944134, "lat": 50.9486079, "lon": 6.9541675}, {"type": "node", "id": 2863601785, "lat": 50.9364466, "lon": 6.9452321}, {"type": "node", "id": 2863601786, "lat": 50.9364551, "lon": 6.9452175}, {"type": "node", "id": 2863774914, "lat": 50.9465857, "lon": 6.9534421}, {"type": "node", "id": 2863774916, "lat": 50.9466063, "lon": 6.9535021}, {"type": "node", "id": 2863774923, "lat": 50.9466636, "lon": 6.953375}, {"type": "node", "id": 2863774924, "lat": 50.9466641, "lon": 6.9533744}, {"type": "node", "id": 2863774926, "lat": 50.9466651, "lon": 6.9534143}, {"type": "node", "id": 2863774927, "lat": 50.9466746, "lon": 6.9534399}, {"type": "node", "id": 2863774928, "lat": 50.9466803, "lon": 6.9533589}, {"type": "node", "id": 2863774933, "lat": 50.9466919, "lon": 6.9533885}, {"type": "node", "id": 2865956563, "lat": 50.9464625, "lon": 6.9583012, "tags": {"FIXME": "bitte pr\u00fcfen, ob Salsa gemeint oder anderes Objekt", "addr:city": "K\u00f6ln", "addr:country": "DE", "addr:housenumber": "28", "addr:postcode": "50668", "addr:street": "Machab\u00e4erstra\u00dfe", "amenity": "theatre", "name": "Mobile, Bewegungstheater"}}, {"type": "node", "id": 2866834259, "lat": 50.9446157, "lon": 6.9457719}, {"type": "node", "id": 2866834268, "lat": 50.9446437, "lon": 6.9456415}, {"type": "node", "id": 2866834271, "lat": 50.9446447, "lon": 6.9456379}, {"type": "node", "id": 2866834282, "lat": 50.9446661, "lon": 6.9458006}, {"type": "node", "id": 2866834283, "lat": 50.944667, "lon": 6.9456505}, {"type": "node", "id": 2866834286, "lat": 50.9446964, "lon": 6.9456675}, {"type": "node", "id": 2879708587, "lat": 50.9710361, "lon": 6.8569997}, {"type": "node", "id": 2879708588, "lat": 50.971085, "lon": 6.8576813}, {"type": "node", "id": 2879708593, "lat": 50.9716523, "lon": 6.8568892}, {"type": "node", "id": 2879708595, "lat": 50.9716978, "lon": 6.8575376}, {"type": "node", "id": 2879708596, "lat": 50.9717001, "lon": 6.857571}, {"type": "node", "id": 2880119527, "lat": 50.923486, "lon": 6.9820736}, {"type": "node", "id": 2880119552, "lat": 50.9236258, "lon": 6.9822742}, {"type": "node", "id": 2880119568, "lat": 50.9237275, "lon": 6.9816498}, {"type": "node", "id": 2880119593, "lat": 50.9238674, "lon": 6.9818504}, {"type": "node", "id": 2882785357, "lat": 50.9366304, "lon": 6.9349836, "tags": {"addr:city": "K\u00f6ln", "addr:housenumber": "50", "addr:postcode": "50674", "addr:street": "Aachener Stra\u00dfe", "amenity": "nightclub", "name": "Reineke Fuchs", "smoking": "no", "website": "http://www.reineke-fuchs.com/"}}, {"type": "node", "id": 2882849837, "lat": 50.9690506, "lon": 7.0411352}, {"type": "node", "id": 2882849838, "lat": 50.9690514, "lon": 7.0411479}, {"type": "node", "id": 2882849839, "lat": 50.969052, "lon": 7.0410744}, {"type": "node", "id": 2882849840, "lat": 50.9690556, "lon": 7.0411342}, {"type": "node", "id": 2882849841, "lat": 50.9690557, "lon": 7.0411472}, {"type": "node", "id": 2882849842, "lat": 50.9690566, "lon": 7.0411602}, {"type": "node", "id": 2882849843, "lat": 50.9690625, "lon": 7.0411595}, {"type": "node", "id": 2882849844, "lat": 50.9690714, "lon": 7.041311}, {"type": "node", "id": 2882849845, "lat": 50.9691279, "lon": 7.0413026}, {"type": "node", "id": 2882849846, "lat": 50.9691313, "lon": 7.0413578}, {"type": "node", "id": 2882849848, "lat": 50.9692968, "lon": 7.0413319}, {"type": "node", "id": 2882849849, "lat": 50.9692974, "lon": 7.0413417}, {"type": "node", "id": 2882849850, "lat": 50.9693029, "lon": 7.0413309}, {"type": "node", "id": 2882849851, "lat": 50.9693034, "lon": 7.0413407}, {"type": "node", "id": 2882849852, "lat": 50.9693902, "lon": 7.0410274}, {"type": "node", "id": 2882849853, "lat": 50.9693954, "lon": 7.0411117}, {"type": "node", "id": 2882849854, "lat": 50.9694068, "lon": 7.0411103}, {"type": "node", "id": 2882849855, "lat": 50.9694194, "lon": 7.0413137}, {"type": "node", "id": 2906872311, "lat": 50.921618, "lon": 7.0955732}, {"type": "node", "id": 2906872973, "lat": 50.9214934, "lon": 7.095544}, {"type": "node", "id": 2906873005, "lat": 50.9215352, "lon": 7.0957181}, {"type": "node", "id": 2906873015, "lat": 50.9215473, "lon": 7.095708}, {"type": "node", "id": 2906873033, "lat": 50.9215632, "lon": 7.0958029}, {"type": "node", "id": 2906873059, "lat": 50.9216262, "lon": 7.0957507}, {"type": "node", "id": 2906873064, "lat": 50.9216339, "lon": 7.0954285}, {"type": "node", "id": 2906873065, "lat": 50.9216361, "lon": 7.0957943}, {"type": "node", "id": 2906873090, "lat": 50.9216635, "lon": 7.095712}, {"type": "node", "id": 2906873093, "lat": 50.9216681, "lon": 7.0955321}, {"type": "node", "id": 2906873095, "lat": 50.9216706, "lon": 7.0957059}, {"type": "node", "id": 2906873108, "lat": 50.9216863, "lon": 7.0957528}, {"type": "node", "id": 2951304982, "lat": 50.968759, "lon": 7.0064511}, {"type": "node", "id": 2951304995, "lat": 50.968788, "lon": 7.0063513}, {"type": "node", "id": 2951305029, "lat": 50.9689049, "lon": 7.0064843}, {"type": "node", "id": 2951305038, "lat": 50.9689398, "lon": 7.0063827}, {"type": "node", "id": 2981740559, "lat": 51.0108774, "lon": 6.853857}, {"type": "node", "id": 2981740564, "lat": 51.0108884, "lon": 6.8540918}, {"type": "node", "id": 2981740620, "lat": 51.0110526, "lon": 6.8538361}, {"type": "node", "id": 2981740621, "lat": 51.0110552, "lon": 6.8538939}, {"type": "node", "id": 2981740623, "lat": 51.01106, "lon": 6.8540012}, {"type": "node", "id": 2981740624, "lat": 51.0110632, "lon": 6.8540713}, {"type": "node", "id": 2981740628, "lat": 51.0110766, "lon": 6.8538915}, {"type": "node", "id": 2981740629, "lat": 51.011078, "lon": 6.8539208}, {"type": "node", "id": 2981740632, "lat": 51.0110901, "lon": 6.8539194}, {"type": "node", "id": 2981740636, "lat": 51.0110937, "lon": 6.8539974}, {"type": "node", "id": 3003241300, "lat": 51.0370859, "lon": 6.8858886}, {"type": "node", "id": 3003241303, "lat": 51.0370951, "lon": 6.8855149}, {"type": "node", "id": 3003241322, "lat": 51.0371879, "lon": 6.8857862}, {"type": "node", "id": 3003241324, "lat": 51.0371918, "lon": 6.8856062}, {"type": "node", "id": 3003241326, "lat": 51.0371935, "lon": 6.8855211}, {"type": "node", "id": 3003241334, "lat": 51.0372203, "lon": 6.8855226}, {"type": "node", "id": 3003241337, "lat": 51.0372222, "lon": 6.8854484}, {"type": "node", "id": 3003241345, "lat": 51.0372452, "lon": 6.8856096}, {"type": "node", "id": 3003241346, "lat": 51.0372456, "lon": 6.88579}, {"type": "node", "id": 3003241347, "lat": 51.0372483, "lon": 6.8855579}, {"type": "node", "id": 3003241348, "lat": 51.0372493, "lon": 6.8858449}, {"type": "node", "id": 3003241349, "lat": 51.0372508, "lon": 6.8855246}, {"type": "node", "id": 3003241352, "lat": 51.0372541, "lon": 6.885899}, {"type": "node", "id": 3003241354, "lat": 51.0372577, "lon": 6.8854567}, {"type": "node", "id": 3003241356, "lat": 51.0372584, "lon": 6.8854506}, {"type": "node", "id": 3003241389, "lat": 51.0373651, "lon": 6.8854752}, {"type": "node", "id": 3003241392, "lat": 51.0373658, "lon": 6.8855759}, {"type": "node", "id": 3003241406, "lat": 51.037379, "lon": 6.8855912}, {"type": "node", "id": 3003241407, "lat": 51.0373792, "lon": 6.885577}, {"type": "node", "id": 3003241410, "lat": 51.0373819, "lon": 6.8854766}, {"type": "node", "id": 3003241411, "lat": 51.0373823, "lon": 6.8854625}, {"type": "node", "id": 3003241415, "lat": 51.0374199, "lon": 6.8855938}, {"type": "node", "id": 3003241416, "lat": 51.0374231, "lon": 6.885465}, {"type": "node", "id": 3046323501, "lat": 51.0218959, "lon": 6.8989422}, {"type": "node", "id": 3046323503, "lat": 51.0218998, "lon": 6.898993}, {"type": "node", "id": 3046323508, "lat": 51.0219393, "lon": 6.8990417}, {"type": "node", "id": 3046323510, "lat": 51.02196, "lon": 6.898811}, {"type": "node", "id": 3046323511, "lat": 51.0219652, "lon": 6.8990734}, {"type": "node", "id": 3046323512, "lat": 51.0219691, "lon": 6.8988091}, {"type": "node", "id": 3046323515, "lat": 51.0219968, "lon": 6.8990673}, {"type": "node", "id": 3046323518, "lat": 51.0220036, "lon": 6.8988515}, {"type": "node", "id": 3046323519, "lat": 51.0220057, "lon": 6.899049}, {"type": "node", "id": 3046323523, "lat": 51.0220184, "lon": 6.8988211}, {"type": "node", "id": 3046323524, "lat": 51.0220204, "lon": 6.8988234}, {"type": "node", "id": 3046323525, "lat": 51.0220314, "lon": 6.8988009}, {"type": "node", "id": 3046323527, "lat": 51.0220506, "lon": 6.8988243}, {"type": "node", "id": 3046323528, "lat": 51.022067, "lon": 6.8988208}, {"type": "node", "id": 3046323529, "lat": 51.0220689, "lon": 6.8988173}, {"type": "node", "id": 3046323735, "lat": 51.0222457, "lon": 6.8990708}, {"type": "node", "id": 3046323736, "lat": 51.022255, "lon": 6.8991171}, {"type": "node", "id": 3046323737, "lat": 51.0222567, "lon": 6.8990482}, {"type": "node", "id": 3046323738, "lat": 51.0222586, "lon": 6.8990865}, {"type": "node", "id": 3046323739, "lat": 51.0222602, "lon": 6.8991063}, {"type": "node", "id": 3046323747, "lat": 51.0222878, "lon": 6.8997686}, {"type": "node", "id": 3046323748, "lat": 51.0223077, "lon": 6.8997922}, {"type": "node", "id": 3046323751, "lat": 51.0223084, "lon": 6.8997261}, {"type": "node", "id": 3046323753, "lat": 51.0222609, "lon": 6.8996654}, {"type": "node", "id": 3046323761, "lat": 51.0223698, "lon": 6.899257}, {"type": "node", "id": 3046323764, "lat": 51.022375, "lon": 6.8992463}, {"type": "node", "id": 3046323769, "lat": 51.0223872, "lon": 6.8992433}, {"type": "node", "id": 3046323772, "lat": 51.0224042, "lon": 6.8992935}, {"type": "node", "id": 3046323773, "lat": 51.0224063, "lon": 6.8992668}, {"type": "node", "id": 3046323774, "lat": 51.0224075, "lon": 6.8992869}, {"type": "node", "id": 3046323783, "lat": 51.0224886, "lon": 6.8993971}, {"type": "node", "id": 3046323784, "lat": 51.0224934, "lon": 6.8993875}, {"type": "node", "id": 3046323790, "lat": 51.0225446, "lon": 6.8993775}, {"type": "node", "id": 3046323792, "lat": 51.022599, "lon": 6.8998226}, {"type": "node", "id": 3046323793, "lat": 51.0226157, "lon": 6.8998192}, {"type": "node", "id": 3046323794, "lat": 51.0226217, "lon": 6.8998069}, {"type": "node", "id": 3046323795, "lat": 51.0226307, "lon": 6.8998751}, {"type": "node", "id": 3046323796, "lat": 51.0226314, "lon": 6.8998941}, {"type": "node", "id": 3046323798, "lat": 51.0226477, "lon": 6.8998389}, {"type": "node", "id": 3046323799, "lat": 51.0226519, "lon": 6.8999163}, {"type": "node", "id": 3046323800, "lat": 51.0226627, "lon": 6.899914}, {"type": "node", "id": 3046323801, "lat": 51.0226649, "lon": 6.8995248}, {"type": "node", "id": 3046323802, "lat": 51.022668, "lon": 6.8996169}, {"type": "node", "id": 3046323803, "lat": 51.022673, "lon": 6.8996068}, {"type": "node", "id": 3046323804, "lat": 51.0226787, "lon": 6.8998817}, {"type": "node", "id": 3046323805, "lat": 51.0227078, "lon": 6.8999175}, {"type": "node", "id": 3046323806, "lat": 51.02271, "lon": 6.8999131}, {"type": "node", "id": 3046323807, "lat": 51.0227833, "lon": 6.8997582}, {"type": "node", "id": 3046323808, "lat": 51.0227995, "lon": 6.9000235}, {"type": "node", "id": 3046323809, "lat": 51.0228334, "lon": 6.8997495}, {"type": "node", "id": 3046323810, "lat": 51.0228655, "lon": 6.899791}, {"type": "node", "id": 3046323811, "lat": 51.0228739, "lon": 6.8998758}, {"type": "node", "id": 3051898373, "lat": 50.9364981, "lon": 7.0233799}, {"type": "node", "id": 3051898385, "lat": 50.9365528, "lon": 7.0234401}, {"type": "node", "id": 3051898386, "lat": 50.9365598, "lon": 7.0234242}, {"type": "node", "id": 3051898390, "lat": 50.9365825, "lon": 7.0234447}, {"type": "node", "id": 3051898392, "lat": 50.9365889, "lon": 7.0231732}, {"type": "node", "id": 3051898400, "lat": 50.9366365, "lon": 7.0232281}, {"type": "node", "id": 3051898401, "lat": 50.9366458, "lon": 7.0232078}, {"type": "node", "id": 3051898406, "lat": 50.9366735, "lon": 7.0232395}, {"type": "node", "id": 3076239702, "lat": 50.9337817, "lon": 7.0420603}, {"type": "node", "id": 3076239726, "lat": 50.9338323, "lon": 7.0416994}, {"type": "node", "id": 3076239910, "lat": 50.933723, "lon": 7.0420079}, {"type": "node", "id": 3076240086, "lat": 50.9338907, "lon": 7.0417517}, {"type": "node", "id": 3097102245, "lat": 50.9464435, "lon": 6.9089843}, {"type": "node", "id": 3097185175, "lat": 50.9367275, "lon": 6.8378153, "tags": {"amenity": "community_centre", "name": "Pfarrheim"}}, {"type": "node", "id": 3128318915, "lat": 50.9428752, "lon": 6.9468548, "tags": {"access": "yes", "amenity": "public_bookcase", "fee": "no", "name": "Offener B\u00fccherschrank", "operator": "Eselsohr", "public_bookcase:type": "glass_cabinet", "website": "https://www.buergerstiftung-koeln.de/projekte/104-eselsohr", "wheelchair": "yes"}}, {"type": "node", "id": 3131395128, "lat": 50.932453, "lon": 6.9529605, "tags": {"amenity": "arts_centre", "email": "info@literaturhaus-koeln.de", "name": "Literaturhaus K\u00f6ln", "phone": "+49 221 995558 0", "website": "http://www.literaturhaus-koeln.de/"}}, {"type": "node", "id": 3140854418, "lat": 50.944359, "lon": 6.9429787, "tags": {"addr:city": "K\u00f6ln", "addr:country": "DE", "addr:housenumber": "41", "addr:postcode": "50670", "addr:street": "Christophstra\u00dfe", "amenity": "brothel", "brothel:apartment": "yes", "brothel:escort_services": "yes", "name": "Massage Erotik", "opening_hours": "Mo-Su 11:00-21:00", "phone": "+49 221 1395286", "website": "https://www.6today.de/koeln/massage-erotik", "wheelchair": "no"}}, {"type": "node", "id": 3197244862, "lat": 50.9385846, "lon": 6.9830722, "tags": {"addr:city": "K\u00f6ln", "addr:housenumber": "3", "addr:postcode": "50679", "addr:street": "Willy-Brandt-Platz", "amenity": "community_centre", "name": "LANXESS arena", "phone": "+49 221 8021", "toilets:wheelchair": "yes", "website": "http://www.lanxess-arena.de", "wheelchair": "yes", "wikidata": "Q310525", "wikipedia": "de:Lanxess Arena"}}, {"type": "node", "id": 3212905708, "lat": 50.9618216, "lon": 6.9520598}, {"type": "node", "id": 3212905718, "lat": 50.9618759, "lon": 6.9521567}, {"type": "node", "id": 3212905722, "lat": 50.9618874, "lon": 6.9519674}, {"type": "node", "id": 3212905726, "lat": 50.9619037, "lon": 6.9521177}, {"type": "node", "id": 3212905729, "lat": 50.9619208, "lon": 6.9519689}, {"type": "node", "id": 3212905733, "lat": 50.961931, "lon": 6.9521133}, {"type": "node", "id": 3224171453, "lat": 50.968505, "lon": 6.9487129, "tags": {"addr:city": "K\u00f6ln", "addr:country": "DE", "addr:housenumber": "92", "addr:postcode": "50733", "addr:street": "Mauenheimer Stra\u00dfe", "amenity": "community_centre", "name": "B\u00fcrgerzentrum Nippes / Altenberger Hof", "phone": "+49 221 9765870", "toilets:wheelchair": "yes", "website": "https://www.buergerzentrum-nippes.de/", "wheelchair": "yes"}}, {"type": "node", "id": 3254824883, "lat": 50.9618084, "lon": 6.9834567}, {"type": "node", "id": 3254824884, "lat": 50.9619954, "lon": 6.9826758}, {"type": "node", "id": 3254824885, "lat": 50.9620446, "lon": 6.9826824}, {"type": "node", "id": 3254824886, "lat": 50.962322, "lon": 6.9836809}, {"type": "node", "id": 3254824888, "lat": 50.9623758, "lon": 6.9834241}, {"type": "node", "id": 3254824906, "lat": 50.9625742, "lon": 6.9835174}, {"type": "node", "id": 3254824907, "lat": 50.962594, "lon": 6.9831152}, {"type": "node", "id": 3254824908, "lat": 50.9626088, "lon": 6.9830171}, {"type": "node", "id": 3254824909, "lat": 50.9626545, "lon": 6.9831628}, {"type": "node", "id": 3293099944, "lat": 50.9236593, "lon": 6.9614085, "tags": {"addr:city": "K\u00f6ln", "addr:housenumber": "27-33", "addr:postcode": "50678", "addr:street": "Annostra\u00dfe", "amenity": "arts_centre", "name": "Weltmusik, Klezmer und \u00c4sthetik Akademie, Integration- und Begegnungszentrum e.V.", "phone": "+49 221 93119010", "website": "http://www.klezmerakademie.org/"}}, {"type": "node", "id": 3301107214, "lat": 51.0373981, "lon": 6.8854632}, {"type": "node", "id": 3301107215, "lat": 51.0373954, "lon": 6.8855922}, {"type": "node", "id": 3322685027, "lat": 50.956198, "lon": 7.0078994}, {"type": "node", "id": 3322685028, "lat": 50.9562652, "lon": 7.008008}, {"type": "node", "id": 3322685029, "lat": 50.9562691, "lon": 7.00801}, {"type": "node", "id": 3322685031, "lat": 50.9563203, "lon": 7.0079427}, {"type": "node", "id": 3338567650, "lat": 50.9523085, "lon": 6.9066781}, {"type": "node", "id": 3338567655, "lat": 50.95245, "lon": 6.9071259}, {"type": "node", "id": 3338567656, "lat": 50.9524661, "lon": 6.9065549}, {"type": "node", "id": 3338567660, "lat": 50.9524877, "lon": 6.9065746}, {"type": "node", "id": 3338567669, "lat": 50.9525502, "lon": 6.907161}, {"type": "node", "id": 3338567676, "lat": 50.9526227, "lon": 6.906466}, {"type": "node", "id": 3338567684, "lat": 50.9527013, "lon": 6.9067127}, {"type": "node", "id": 3342877174, "lat": 50.9510638, "lon": 6.911577}, {"type": "node", "id": 3342877208, "lat": 50.9512013, "lon": 6.9117964}, {"type": "node", "id": 3342877231, "lat": 50.9512438, "lon": 6.9112079}, {"type": "node", "id": 3342877248, "lat": 50.9512735, "lon": 6.9112568}, {"type": "node", "id": 3342877340, "lat": 50.9514289, "lon": 6.9114459, "tags": {"entrance": "main"}}, {"type": "node", "id": 3342877384, "lat": 50.9515414, "lon": 6.9107494}, {"type": "node", "id": 3342877448, "lat": 50.9517047, "lon": 6.9110213}, {"type": "node", "id": 3353073107, "lat": 50.9403693, "lon": 6.9446151}, {"type": "node", "id": 3353073135, "lat": 50.9404292, "lon": 6.9447861, "tags": {"entrance": "yes"}}, {"type": "node", "id": 3353073137, "lat": 50.9404343, "lon": 6.9445776}, {"type": "node", "id": 3353073140, "lat": 50.9404372, "lon": 6.9448089}, {"type": "node", "id": 3353073141, "lat": 50.9404393, "lon": 6.9448083}, {"type": "node", "id": 3353073160, "lat": 50.9404756, "lon": 6.9447081}, {"type": "node", "id": 3353073170, "lat": 50.940493, "lon": 6.9446998}, {"type": "node", "id": 3353073187, "lat": 50.940508, "lon": 6.9447784}, {"type": "node", "id": 3353673762, "lat": 50.9395586, "lon": 6.9546041}, {"type": "node", "id": 3353673766, "lat": 50.9396096, "lon": 6.9550137}, {"type": "node", "id": 3353673767, "lat": 50.9396105, "lon": 6.9550016}, {"type": "node", "id": 3353673769, "lat": 50.9396155, "lon": 6.9550147}, {"type": "node", "id": 3353673770, "lat": 50.9396164, "lon": 6.9550029}, {"type": "node", "id": 3353673776, "lat": 50.9397539, "lon": 6.955257}, {"type": "node", "id": 3353673781, "lat": 50.940045, "lon": 6.9547239}, {"type": "node", "id": 3353673782, "lat": 50.9400452, "lon": 6.9546938}, {"type": "node", "id": 3353673783, "lat": 50.9400459, "lon": 6.9546833}, {"type": "node", "id": 3353673785, "lat": 50.9400471, "lon": 6.9546944}, {"type": "node", "id": 3353673786, "lat": 50.9400479, "lon": 6.9546843}, {"type": "node", "id": 3353673787, "lat": 50.9400481, "lon": 6.9546536}, {"type": "node", "id": 3353673788, "lat": 50.940049, "lon": 6.9546449}, {"type": "node", "id": 3353673789, "lat": 50.9400507, "lon": 6.9546542}, {"type": "node", "id": 3353673790, "lat": 50.940051, "lon": 6.9546152}, {"type": "node", "id": 3353673815, "lat": 50.9394582, "lon": 6.955058}, {"type": "node", "id": 3353673816, "lat": 50.9394595, "lon": 6.9550385}, {"type": "node", "id": 3353673834, "lat": 50.939506, "lon": 6.9552142}, {"type": "node", "id": 3353673836, "lat": 50.939506, "lon": 6.9543864}, {"type": "node", "id": 3353673839, "lat": 50.9395172, "lon": 6.9550686}, {"type": "node", "id": 3353673842, "lat": 50.9395285, "lon": 6.9549989}, {"type": "node", "id": 3353673844, "lat": 50.9395506, "lon": 6.9543943}, {"type": "node", "id": 3353673845, "lat": 50.939551, "lon": 6.95439}, {"type": "node", "id": 3353673846, "lat": 50.9395544, "lon": 6.9543906}, {"type": "node", "id": 3353673848, "lat": 50.9395549, "lon": 6.9543841}, {"type": "node", "id": 3353673854, "lat": 50.9396385, "lon": 6.9546281}, {"type": "node", "id": 3353673856, "lat": 50.9396391, "lon": 6.95462}, {"type": "node", "id": 3353673859, "lat": 50.9396445, "lon": 6.9546296}, {"type": "node", "id": 3353673860, "lat": 50.9396452, "lon": 6.9546213}, {"type": "node", "id": 3353673862, "lat": 50.939656, "lon": 6.9544041}, {"type": "node", "id": 3353673867, "lat": 50.9396909, "lon": 6.9550286}, {"type": "node", "id": 3353673869, "lat": 50.9396918, "lon": 6.9550168}, {"type": "node", "id": 3353673871, "lat": 50.9396971, "lon": 6.9550296}, {"type": "node", "id": 3353673872, "lat": 50.939698, "lon": 6.955018}, {"type": "node", "id": 3353673881, "lat": 50.9399995, "lon": 6.9553049}, {"type": "node", "id": 3353673882, "lat": 50.9400002, "lon": 6.9552956}, {"type": "node", "id": 3353673888, "lat": 50.9400012, "lon": 6.9552867}, {"type": "node", "id": 3353673889, "lat": 50.9400034, "lon": 6.9552566}, {"type": "node", "id": 3353673890, "lat": 50.9400037, "lon": 6.9552959}, {"type": "node", "id": 3353673891, "lat": 50.9400042, "lon": 6.9552457}, {"type": "node", "id": 3353673892, "lat": 50.9400043, "lon": 6.9552879}, {"type": "node", "id": 3353673895, "lat": 50.9397193, "lon": 6.9546446}, {"type": "node", "id": 3353673897, "lat": 50.93972, "lon": 6.9546356}, {"type": "node", "id": 3353673898, "lat": 50.9397251, "lon": 6.9546457}, {"type": "node", "id": 3353673899, "lat": 50.9397258, "lon": 6.9546368}, {"type": "node", "id": 3353673908, "lat": 50.9397703, "lon": 6.9550443}, {"type": "node", "id": 3353673916, "lat": 50.9398011, "lon": 6.9546505}, {"type": "node", "id": 3353673993, "lat": 50.9400065, "lon": 6.9552162}, {"type": "node", "id": 3353673994, "lat": 50.9400065, "lon": 6.955257}, {"type": "node", "id": 3353673995, "lat": 50.9400073, "lon": 6.9552048}, {"type": "node", "id": 3353673996, "lat": 50.9400073, "lon": 6.9552469}, {"type": "node", "id": 3353673997, "lat": 50.9400095, "lon": 6.9551754}, {"type": "node", "id": 3353673998, "lat": 50.9400095, "lon": 6.9552167}, {"type": "node", "id": 3353673999, "lat": 50.9400102, "lon": 6.955165}, {"type": "node", "id": 3353674000, "lat": 50.9400103, "lon": 6.9552056}, {"type": "node", "id": 3353674001, "lat": 50.9400123, "lon": 6.9551361}, {"type": "node", "id": 3353674002, "lat": 50.9400124, "lon": 6.9551754}, {"type": "node", "id": 3353674003, "lat": 50.9400131, "lon": 6.9551255}, {"type": "node", "id": 3353674004, "lat": 50.9400132, "lon": 6.9551661}, {"type": "node", "id": 3353674005, "lat": 50.9400151, "lon": 6.9550984}, {"type": "node", "id": 3353674006, "lat": 50.9400153, "lon": 6.9551366}, {"type": "node", "id": 3353674007, "lat": 50.940016, "lon": 6.9550863}, {"type": "node", "id": 3353674008, "lat": 50.940016, "lon": 6.9551267}, {"type": "node", "id": 3353674009, "lat": 50.940018, "lon": 6.9550981}, {"type": "node", "id": 3353674010, "lat": 50.9400182, "lon": 6.9550576}, {"type": "node", "id": 3353674011, "lat": 50.9400187, "lon": 6.9550875}, {"type": "node", "id": 3353674012, "lat": 50.9400191, "lon": 6.9550455}, {"type": "node", "id": 3353674013, "lat": 50.940021, "lon": 6.9550569}, {"type": "node", "id": 3353674014, "lat": 50.9400212, "lon": 6.9550169}, {"type": "node", "id": 3353674015, "lat": 50.9400218, "lon": 6.9550466}, {"type": "node", "id": 3353674016, "lat": 50.9400221, "lon": 6.9550042}, {"type": "node", "id": 3353674017, "lat": 50.9400239, "lon": 6.9550163}, {"type": "node", "id": 3353674018, "lat": 50.940024, "lon": 6.954978}, {"type": "node", "id": 3353674020, "lat": 50.9400247, "lon": 6.9550054}, {"type": "node", "id": 3353674021, "lat": 50.9400249, "lon": 6.9549671}, {"type": "node", "id": 3353674022, "lat": 50.9400268, "lon": 6.9549776}, {"type": "node", "id": 3353674023, "lat": 50.9400271, "lon": 6.9549366}, {"type": "node", "id": 3353674024, "lat": 50.9400273, "lon": 6.9549684}, {"type": "node", "id": 3353674025, "lat": 50.9400279, "lon": 6.9549263}, {"type": "node", "id": 3353674027, "lat": 50.9400297, "lon": 6.954936}, {"type": "node", "id": 3353674028, "lat": 50.9400301, "lon": 6.9548963}, {"type": "node", "id": 3353674029, "lat": 50.9400304, "lon": 6.954927}, {"type": "node", "id": 3353674030, "lat": 50.9400309, "lon": 6.954885}, {"type": "node", "id": 3353674031, "lat": 50.9400325, "lon": 6.9548963}, {"type": "node", "id": 3353674032, "lat": 50.9400332, "lon": 6.9548547}, {"type": "node", "id": 3353674033, "lat": 50.9400333, "lon": 6.9548863}, {"type": "node", "id": 3353674034, "lat": 50.9400339, "lon": 6.9548453}, {"type": "node", "id": 3353674036, "lat": 50.9400355, "lon": 6.9548551}, {"type": "node", "id": 3353674037, "lat": 50.9400362, "lon": 6.9548465}, {"type": "node", "id": 3353674039, "lat": 50.9400363, "lon": 6.9548135}, {"type": "node", "id": 3353674040, "lat": 50.9400371, "lon": 6.954803}, {"type": "node", "id": 3353674041, "lat": 50.9400385, "lon": 6.9548139}, {"type": "node", "id": 3353674042, "lat": 50.9400392, "lon": 6.9547744}, {"type": "node", "id": 3353674043, "lat": 50.9400392, "lon": 6.9548043}, {"type": "node", "id": 3353674044, "lat": 50.94004, "lon": 6.9547631}, {"type": "node", "id": 3353674045, "lat": 50.9400415, "lon": 6.9547733}, {"type": "node", "id": 3353674046, "lat": 50.9400421, "lon": 6.9547641}, {"type": "node", "id": 3353674047, "lat": 50.9400422, "lon": 6.954733}, {"type": "node", "id": 3353674048, "lat": 50.9400429, "lon": 6.9547225}, {"type": "node", "id": 3353674049, "lat": 50.9400444, "lon": 6.9547326}, {"type": "node", "id": 3353674050, "lat": 50.9400567, "lon": 6.9545741}, {"type": "node", "id": 3353674051, "lat": 50.9400572, "lon": 6.9545242}, {"type": "node", "id": 3353674052, "lat": 50.9400573, "lon": 6.9545659}, {"type": "node", "id": 3353674053, "lat": 50.9400599, "lon": 6.9544915}, {"type": "node", "id": 3353674054, "lat": 50.9400597, "lon": 6.9545331}, {"type": "node", "id": 3353674055, "lat": 50.9400603, "lon": 6.9545247}, {"type": "node", "id": 3353674056, "lat": 50.9400632, "lon": 6.9544921}, {"type": "node", "id": 3353674057, "lat": 50.9400638, "lon": 6.9544833}, {"type": "node", "id": 3353674093, "lat": 50.9400517, "lon": 6.9546043}, {"type": "node", "id": 3353674094, "lat": 50.9400517, "lon": 6.9546454}, {"type": "node", "id": 3353674096, "lat": 50.9400538, "lon": 6.9545736}, {"type": "node", "id": 3353674097, "lat": 50.9400538, "lon": 6.9546148}, {"type": "node", "id": 3353674098, "lat": 50.9400544, "lon": 6.9545648}, {"type": "node", "id": 3353674099, "lat": 50.9400545, "lon": 6.9546053}, {"type": "node", "id": 3353674100, "lat": 50.9400566, "lon": 6.9545326}, {"type": "node", "id": 3354691743, "lat": 50.9203234, "lon": 6.9402665, "tags": {"amenity": "cinema", "designation": "Pornokino", "email": "info@kino-hole.de", "gay": "welcome", "min_age": "18", "name": "Kino-Hole", "opening_hours": "Su-Th 12:00-24:00; Fr-Sa 12:00-01:00", "phone": "+49 221 369134", "website": "http://www.kino-hole.de/"}}, {"type": "node", "id": 3354691744, "lat": 50.9204292, "lon": 6.9402691, "tags": {"amenity": "swingerclub", "min_age": "18", "name": "Swingertreff 18", "phone": "+49 221 369134", "website": "http://www.swingertreff-18.de/"}}, {"type": "node", "id": 3356639410, "lat": 50.9739654, "lon": 7.0015352}, {"type": "node", "id": 3356639413, "lat": 50.9739756, "lon": 7.0016719}, {"type": "node", "id": 3356652625, "lat": 50.9740569, "lon": 7.0015286}, {"type": "node", "id": 3356652626, "lat": 50.9740574, "lon": 7.0015343}, {"type": "node", "id": 3356652790, "lat": 50.9739032, "lon": 7.0015481}, {"type": "node", "id": 3356652982, "lat": 50.9739112, "lon": 7.0018767}, {"type": "node", "id": 3356653041, "lat": 50.9741369, "lon": 7.0015193}, {"type": "node", "id": 3356653048, "lat": 50.9741457, "lon": 7.0016418}, {"type": "node", "id": 3356653049, "lat": 50.9741467, "lon": 7.0017406}, {"type": "node", "id": 3356653210, "lat": 50.9740052, "lon": 7.001856}, {"type": "node", "id": 3356653401, "lat": 50.9740314, "lon": 7.0017676}, {"type": "node", "id": 3356653402, "lat": 50.9740356, "lon": 7.0015325}, {"type": "node", "id": 3356653404, "lat": 50.9740386, "lon": 7.0018509}, {"type": "node", "id": 3356653406, "lat": 50.9740452, "lon": 7.0016591}, {"type": "node", "id": 3356653608, "lat": 50.9741526, "lon": 7.0016408}, {"type": "node", "id": 3356653614, "lat": 50.9741597, "lon": 7.0017036}, {"type": "node", "id": 3356989783, "lat": 50.9372078, "lon": 6.9524313}, {"type": "node", "id": 3356989787, "lat": 50.9372428, "lon": 6.9519011}, {"type": "node", "id": 3356989789, "lat": 50.9372534, "lon": 6.9524808}, {"type": "node", "id": 3356989790, "lat": 50.9372562, "lon": 6.9524394}, {"type": "node", "id": 3356990602, "lat": 50.9373336, "lon": 6.9524941}, {"type": "node", "id": 3356990603, "lat": 50.9373315, "lon": 6.9525267}, {"type": "node", "id": 3356990624, "lat": 50.9374507, "lon": 6.9524184}, {"type": "node", "id": 3356990630, "lat": 50.93746, "lon": 6.9524199}, {"type": "node", "id": 3356990697, "lat": 50.9376112, "lon": 6.95146}, {"type": "node", "id": 3356990710, "lat": 50.9376413, "lon": 6.9519701}, {"type": "node", "id": 3356990718, "lat": 50.937687, "lon": 6.9503635}, {"type": "node", "id": 3366663636, "lat": 50.8844851, "lon": 7.0580061, "tags": {"amenity": "public_bookcase"}}, {"type": "node", "id": 3373426078, "lat": 50.9535075, "lon": 6.915506}, {"type": "node", "id": 3373426079, "lat": 50.9535128, "lon": 6.9155119}, {"type": "node", "id": 3375324495, "lat": 50.8862751, "lon": 6.924721}, {"type": "node", "id": 3375324496, "lat": 50.8863927, "lon": 6.9247803}, {"type": "node", "id": 3375324497, "lat": 50.8864155, "lon": 6.9246955}, {"type": "node", "id": 3375324498, "lat": 50.8870052, "lon": 6.9244539}, {"type": "node", "id": 3375324499, "lat": 50.8870139, "lon": 6.9245203}, {"type": "node", "id": 3411732033, "lat": 50.9366649, "lon": 6.9580377}, {"type": "node", "id": 3411732034, "lat": 50.9366653, "lon": 6.9580573}, {"type": "node", "id": 3411732038, "lat": 50.9366818, "lon": 6.9587914}, {"type": "node", "id": 3411732039, "lat": 50.9366829, "lon": 6.9588129}, {"type": "node", "id": 3411732052, "lat": 50.9368117, "lon": 6.9582376}, {"type": "node", "id": 3411732053, "lat": 50.9368125, "lon": 6.9582544}, {"type": "node", "id": 3411732058, "lat": 50.9368181, "lon": 6.9582366}, {"type": "node", "id": 3411732059, "lat": 50.9368184, "lon": 6.9580484}, {"type": "node", "id": 3411732060, "lat": 50.9368189, "lon": 6.9582539}, {"type": "node", "id": 3411732063, "lat": 50.9368195, "lon": 6.9583767}, {"type": "node", "id": 3411732070, "lat": 50.9368431, "lon": 6.958467}, {"type": "node", "id": 3411732071, "lat": 50.9368441, "lon": 6.9583804}, {"type": "node", "id": 3411732073, "lat": 50.9368464, "lon": 6.9584811}, {"type": "node", "id": 3411732075, "lat": 50.9368529, "lon": 6.9584921}, {"type": "node", "id": 3411732078, "lat": 50.9368616, "lon": 6.9584982}, {"type": "node", "id": 3411732084, "lat": 50.9368711, "lon": 6.9584985}, {"type": "node", "id": 3411732086, "lat": 50.93688, "lon": 6.958493}, {"type": "node", "id": 3411732087, "lat": 50.9368867, "lon": 6.9584824}, {"type": "node", "id": 3411732088, "lat": 50.9368904, "lon": 6.9584685}, {"type": "node", "id": 3411732090, "lat": 50.9369091, "lon": 6.958496}, {"type": "node", "id": 3411732200, "lat": 50.9369372, "lon": 6.9584955}, {"type": "node", "id": 3411732202, "lat": 50.9369521, "lon": 6.9584788}, {"type": "node", "id": 3411732204, "lat": 50.936954, "lon": 6.9584868}, {"type": "node", "id": 3411732205, "lat": 50.9369573, "lon": 6.9584927}, {"type": "node", "id": 3411732208, "lat": 50.9369649, "lon": 6.9584979}, {"type": "node", "id": 3411732210, "lat": 50.936973, "lon": 6.958494}, {"type": "node", "id": 3411732213, "lat": 50.9369772, "lon": 6.9584864}, {"type": "node", "id": 3411732224, "lat": 50.9370218, "lon": 6.9584811}, {"type": "node", "id": 3411732225, "lat": 50.9370227, "lon": 6.958496}, {"type": "node", "id": 3411732227, "lat": 50.9370285, "lon": 6.9584963}, {"type": "node", "id": 3411732228, "lat": 50.9370294, "lon": 6.9587773}, {"type": "node", "id": 3411732448, "lat": 50.9364522, "lon": 6.9581566}, {"type": "node", "id": 3411732449, "lat": 50.936453, "lon": 6.9581916}, {"type": "node", "id": 3411884481, "lat": 50.9369748, "lon": 6.961865, "tags": {"addr:city": "K\u00f6ln", "addr:country": "DE", "addr:housenumber": "2", "addr:postcode": "50667", "addr:street": "Eisenmarkt", "amenity": "theatre", "email": "haenneschen@stadt-koeln.de", "entrance": "yes", "name": "H\u00e4nnesche Puppenspiele", "phone": "+49 221 22123283", "website": "https://www.haenneschen.de/"}}, {"type": "node", "id": 3423048666, "lat": 50.9337361, "lon": 7.0440485}, {"type": "node", "id": 3423048673, "lat": 50.9337451, "lon": 7.0439007}, {"type": "node", "id": 3423048679, "lat": 50.9337619, "lon": 7.0441161}, {"type": "node", "id": 3423048684, "lat": 50.9337818, "lon": 7.044096}, {"type": "node", "id": 3423048687, "lat": 50.9337838, "lon": 7.0439567}, {"type": "node", "id": 3423048692, "lat": 50.9338031, "lon": 7.0439377}, {"type": "node", "id": 3423049046, "lat": 50.9336764, "lon": 7.043968}, {"type": "node", "id": 3423049058, "lat": 50.9337161, "lon": 7.0440689}, {"type": "node", "id": 3423049072, "lat": 50.9340208, "lon": 7.0440375}, {"type": "node", "id": 3423049091, "lat": 50.934075, "lon": 7.0441749}, {"type": "node", "id": 3423049095, "lat": 50.9338072, "lon": 7.0441634}, {"type": "node", "id": 3423049106, "lat": 50.9338271, "lon": 7.0441433}, {"type": "node", "id": 3423049113, "lat": 50.933852, "lon": 7.044211}, {"type": "node", "id": 3423049116, "lat": 50.9338711, "lon": 7.0441911}, {"type": "node", "id": 3423049134, "lat": 50.9339211, "lon": 7.0443345}, {"type": "node", "id": 3423049135, "lat": 50.933922, "lon": 7.0441115}, {"type": "node", "id": 3423049137, "lat": 50.9339315, "lon": 7.0441267}, {"type": "node", "id": 3447347256, "lat": 50.9746545, "lon": 6.9749977}, {"type": "node", "id": 3447347257, "lat": 50.9746586, "lon": 6.9751846}, {"type": "node", "id": 3447347258, "lat": 50.9747135, "lon": 6.9751592}, {"type": "node", "id": 3447347259, "lat": 50.9747139, "lon": 6.9751819}, {"type": "node", "id": 3447347260, "lat": 50.9747617, "lon": 6.9749917}, {"type": "node", "id": 3447347261, "lat": 50.9747626, "lon": 6.9750396}, {"type": "node", "id": 3447347262, "lat": 50.9748732, "lon": 6.9750335}, {"type": "node", "id": 3447347263, "lat": 50.9748776, "lon": 6.9751507}, {"type": "node", "id": 3450991099, "lat": 50.9367376, "lon": 6.9587891, "tags": {"entrance": "main"}}, {"type": "node", "id": 3450991100, "lat": 50.9366789, "lon": 6.9580565, "tags": {"access": "no", "entrance": "yes"}}, {"type": "node", "id": 3453594688, "lat": 50.9114329, "lon": 6.9386587, "tags": {"addr:city": "K\u00f6ln", "addr:housenumber": "79", "addr:postcode": "50969", "addr:street": "Gottesweg", "amenity": "arts_centre", "name": "Halle Zollstock", "website": "http://www.halle-zollstock.de/", "wheelchair": "yes"}}, {"type": "node", "id": 3454715260, "lat": 50.9501491, "lon": 6.92119}, {"type": "node", "id": 3454715263, "lat": 50.9501532, "lon": 6.9211938}, {"type": "node", "id": 3454715298, "lat": 50.9502849, "lon": 6.9213177}, {"type": "node", "id": 3458275817, "lat": 50.9472622, "lon": 6.9133994}, {"type": "node", "id": 3458275832, "lat": 50.9473165, "lon": 6.9132456}, {"type": "node", "id": 3458275889, "lat": 50.9474656, "lon": 6.9135805}, {"type": "node", "id": 3460336268, "lat": 50.9532885, "lon": 6.9184075}, {"type": "node", "id": 3460336272, "lat": 50.9533236, "lon": 6.9183244}, {"type": "node", "id": 3461537972, "lat": 50.932295, "lon": 6.8568659, "tags": {"amenity": "public_bookcase", "public_bookcase:type": "metal_cabinet"}}, {"type": "node", "id": 3465130071, "lat": 50.9422369, "lon": 6.94071, "tags": {"addr:city": "K\u00f6ln", "addr:housenumber": "92", "addr:postcode": "50672", "addr:street": "Hohenzollernring", "amenity": "nightclub", "email": "mail@tomorrows-club.de", "name": "Tomorrows", "phone": "+49 221 13978000", "smoking": "no", "toilets:wheelchair": "no", "wheelchair": "limited"}}, {"type": "node", "id": 3469981820, "lat": 50.9505141, "lon": 6.9135669, "tags": {"alt_name": "ZAMUS", "amenity": "theatre", "name": "Zentrum f\u00fcr Alte Musik K\u00f6ln", "website": "https://www.zamus.de/"}}, {"type": "node", "id": 3508683531, "lat": 50.9425647, "lon": 6.9620739}, {"type": "node", "id": 3508683532, "lat": 50.9427032, "lon": 6.9622479}, {"type": "node", "id": 3508683533, "lat": 50.9427493, "lon": 6.9622684}, {"type": "node", "id": 3508683534, "lat": 50.9428543, "lon": 6.962242}, {"type": "node", "id": 3508683535, "lat": 50.9428985, "lon": 6.9622434}, {"type": "node", "id": 3508683538, "lat": 50.9431049, "lon": 6.9616693}, {"type": "node", "id": 3508683539, "lat": 50.9431195, "lon": 6.961596}, {"type": "node", "id": 3516845103, "lat": 50.9551102, "lon": 6.9395181}, {"type": "node", "id": 3516845104, "lat": 50.9551255, "lon": 6.9395723}, {"type": "node", "id": 3516845105, "lat": 50.9551542, "lon": 6.9395511}, {"type": "node", "id": 3516845106, "lat": 50.9552425, "lon": 6.939867}, {"type": "node", "id": 3516845107, "lat": 50.95527, "lon": 6.9394064}, {"type": "node", "id": 3516845108, "lat": 50.9552759, "lon": 6.9398431}, {"type": "node", "id": 3516845109, "lat": 50.9552822, "lon": 6.9394602}, {"type": "node", "id": 3516845110, "lat": 50.9552845, "lon": 6.9394586}, {"type": "node", "id": 3516845111, "lat": 50.9552847, "lon": 6.9398654}, {"type": "node", "id": 3516845112, "lat": 50.9553274, "lon": 6.9398211}, {"type": "node", "id": 3516845113, "lat": 50.9553353, "lon": 6.939841}, {"type": "node", "id": 3516845114, "lat": 50.9553417, "lon": 6.939673}, {"type": "node", "id": 3516845115, "lat": 50.9553458, "lon": 6.939802}, {"type": "node", "id": 3516845116, "lat": 50.955354, "lon": 6.939822}, {"type": "node", "id": 3516845117, "lat": 50.9553802, "lon": 6.9397662}, {"type": "node", "id": 3518180739, "lat": 50.9512502, "lon": 6.9159421, "tags": {"amenity": "gambling", "gambling": "slot_machines", "name": "Gamepoint"}}, {"type": "node", "id": 3534376488, "lat": 50.9552418, "lon": 6.9403027}, {"type": "node", "id": 3534376489, "lat": 50.9552522, "lon": 6.9403323}, {"type": "node", "id": 3534376490, "lat": 50.9552531, "lon": 6.9403314}, {"type": "node", "id": 3534376491, "lat": 50.955257, "lon": 6.9403445}, {"type": "node", "id": 3534376492, "lat": 50.9552579, "lon": 6.9403437}, {"type": "node", "id": 3534376493, "lat": 50.9552584, "lon": 6.9403943}, {"type": "node", "id": 3534376494, "lat": 50.9552677, "lon": 6.9404181}, {"type": "node", "id": 3534376495, "lat": 50.9552724, "lon": 6.9403805}, {"type": "node", "id": 3534376496, "lat": 50.9552818, "lon": 6.9404043}, {"type": "node", "id": 3534376497, "lat": 50.9553055, "lon": 6.9402385}, {"type": "node", "id": 3534376498, "lat": 50.9553058, "lon": 6.9402396}, {"type": "node", "id": 3534376499, "lat": 50.9553206, "lon": 6.9398281, "tags": {"entrance": "yes"}}, {"type": "node", "id": 3534376500, "lat": 50.9553534, "lon": 6.9405866}, {"type": "node", "id": 3534376501, "lat": 50.9553748, "lon": 6.9401636}, {"type": "node", "id": 3534376502, "lat": 50.9553766, "lon": 6.9401682}, {"type": "node", "id": 3534376503, "lat": 50.9554095, "lon": 6.9405308}, {"type": "node", "id": 3534376504, "lat": 50.9554188, "lon": 6.9405542}, {"type": "node", "id": 3534376505, "lat": 50.9554212, "lon": 6.9403461}, {"type": "node", "id": 3534376506, "lat": 50.9554246, "lon": 6.9405157}, {"type": "node", "id": 3534376507, "lat": 50.9554311, "lon": 6.9405096}, {"type": "node", "id": 3534376508, "lat": 50.955434, "lon": 6.9405394}, {"type": "node", "id": 3534376510, "lat": 50.9554474, "lon": 6.9403205}, {"type": "node", "id": 3534376511, "lat": 50.9554558, "lon": 6.9403416}, {"type": "node", "id": 3534376512, "lat": 50.9554705, "lon": 6.9404703}, {"type": "node", "id": 3534376513, "lat": 50.9555957, "lon": 6.9399442}, {"type": "node", "id": 3534376514, "lat": 50.9556061, "lon": 6.9399704}, {"type": "node", "id": 3534376515, "lat": 50.9556126, "lon": 6.9399641}, {"type": "node", "id": 3534376516, "lat": 50.9556145, "lon": 6.9399902}, {"type": "node", "id": 3534376517, "lat": 50.9556168, "lon": 6.9401816}, {"type": "node", "id": 3534376518, "lat": 50.9556204, "lon": 6.9399844}, {"type": "node", "id": 3534376519, "lat": 50.9556694, "lon": 6.9401291}, {"type": "node", "id": 3534376524, "lat": 50.9559117, "lon": 6.9396279}, {"type": "node", "id": 3534376525, "lat": 50.9559124, "lon": 6.9396299}, {"type": "node", "id": 3534376527, "lat": 50.9559179, "lon": 6.9396255}, {"type": "node", "id": 3534376529, "lat": 50.9560078, "lon": 6.9397653}, {"type": "node", "id": 3534376530, "lat": 50.9560159, "lon": 6.9397564}, {"type": "node", "id": 3534376531, "lat": 50.9560221, "lon": 6.9397655}, {"type": "node", "id": 3534376532, "lat": 50.9560707, "lon": 6.9397171}, {"type": "node", "id": 3534376534, "lat": 50.9561453, "lon": 6.9396423}, {"type": "node", "id": 3534376535, "lat": 50.9561664, "lon": 6.9393728}, {"type": "node", "id": 3534376539, "lat": 50.9562364, "lon": 6.9397786}, {"type": "node", "id": 3534376541, "lat": 50.956332, "lon": 6.9396205}, {"type": "node", "id": 3562083051, "lat": 50.965976, "lon": 7.0139066}, {"type": "node", "id": 3562083055, "lat": 50.9659948, "lon": 7.0139164}, {"type": "node", "id": 3562083056, "lat": 50.965995, "lon": 7.0139149}, {"type": "node", "id": 3562083064, "lat": 50.9660288, "lon": 7.0136032}, {"type": "node", "id": 3562083079, "lat": 50.9662563, "lon": 7.013703}, {"type": "node", "id": 3562083203, "lat": 50.9665186, "lon": 7.0121961}, {"type": "node", "id": 3562083209, "lat": 50.966589, "lon": 7.0141771}, {"type": "node", "id": 3562083210, "lat": 50.9665894, "lon": 7.0141753}, {"type": "node", "id": 3562083214, "lat": 50.9666117, "lon": 7.0138581}, {"type": "node", "id": 3562083215, "lat": 50.9666192, "lon": 7.0141884}, {"type": "node", "id": 3562083218, "lat": 50.9666593, "lon": 7.0135846}, {"type": "node", "id": 3562083222, "lat": 50.9666721, "lon": 7.0138846}, {"type": "node", "id": 3562083227, "lat": 50.9667205, "lon": 7.0136115}, {"type": "node", "id": 3562083243, "lat": 50.9668541, "lon": 7.0124809}, {"type": "node", "id": 3562083246, "lat": 50.9668763, "lon": 7.0123532}, {"type": "node", "id": 3562083251, "lat": 50.9669128, "lon": 7.0125067}, {"type": "node", "id": 3562083888, "lat": 50.9686585, "lon": 7.0167617}, {"type": "node", "id": 3562084016, "lat": 50.9687394, "lon": 7.0171638}, {"type": "node", "id": 3562084055, "lat": 50.9688965, "lon": 7.0170844}, {"type": "node", "id": 3562084074, "lat": 50.9690593, "lon": 7.0165593}, {"type": "node", "id": 3562084080, "lat": 50.9691034, "lon": 7.0165367}, {"type": "node", "id": 3562084100, "lat": 50.9692373, "lon": 7.0164671}, {"type": "node", "id": 3562084115, "lat": 50.9693056, "lon": 7.0168772}, {"type": "node", "id": 3562084118, "lat": 50.9693146, "lon": 7.0168508}, {"type": "node", "id": 3595046952, "lat": 50.9662679, "lon": 7.0136366, "tags": {"entrance": "main", "name": "Schauspiel"}}, {"type": "node", "id": 3642950542, "lat": 50.9474465, "lon": 6.9450181}, {"type": "node", "id": 3668362983, "lat": 50.9522017, "lon": 6.9069841}, {"type": "node", "id": 3682748277, "lat": 50.9456328, "lon": 6.9699499}, {"type": "node", "id": 3682775747, "lat": 50.946176, "lon": 6.9704511}, {"type": "node", "id": 3682775749, "lat": 50.9455316, "lon": 6.9698842}, {"type": "node", "id": 3736464863, "lat": 50.9191971, "lon": 6.964731, "tags": {"amenity": "public_bookcase", "fee": "no", "name": "B\u00fccherschrank", "source": "local knowledge"}}, {"type": "node", "id": 3736476689, "lat": 50.9078226, "lon": 6.9711709, "tags": {"amenity": "public_bookcase", "fee": "no"}}, {"type": "node", "id": 3736477218, "lat": 50.919779, "lon": 6.9540083, "tags": {"amenity": "public_bookcase", "fee": "no", "name": "B\u00fccherschrank"}}, {"type": "node", "id": 3754029325, "lat": 50.9346897, "lon": 6.9401972, "tags": {"addr:housenumber": "63", "addr:street": "Schaafenstra\u00dfe", "amenity": "brothel", "name": "Maryerotik", "phone": "+49 221 2408837", "website": "https://www.maryerotik.com/"}}, {"type": "node", "id": 3772087730, "lat": 50.9368466, "lon": 6.9386765, "tags": {"amenity": "gambling", "internet_access": "terminal", "leisure": "adult_gaming_centre", "name": "Giga Center K\u00f6ln", "phone": "+49 221 65026444", "website": "http://www.rudolfplatz.com/"}}, {"type": "node", "id": 3781928950, "lat": 50.8779873, "lon": 6.9157789}, {"type": "node", "id": 3781928951, "lat": 50.8780212, "lon": 6.9157288}, {"type": "node", "id": 3781928952, "lat": 50.8783675, "lon": 6.9164197}, {"type": "node", "id": 3781928953, "lat": 50.8784017, "lon": 6.9163725}, {"type": "node", "id": 3781928954, "lat": 50.8794926, "lon": 6.9182335}, {"type": "node", "id": 3781928955, "lat": 50.879565, "lon": 6.9184309}, {"type": "node", "id": 3781928956, "lat": 50.8799268, "lon": 6.9190336}, {"type": "node", "id": 3781973343, "lat": 50.8834504, "lon": 6.9227935}, {"type": "node", "id": 3781973344, "lat": 50.8835313, "lon": 6.9228991}, {"type": "node", "id": 3781973345, "lat": 50.8849829, "lon": 6.9238232}, {"type": "node", "id": 3781973346, "lat": 50.8851447, "lon": 6.923876}, {"type": "node", "id": 3781975357, "lat": 50.8800244, "lon": 6.9191217}, {"type": "node", "id": 3784595788, "lat": 50.9400468, "lon": 6.9546708, "tags": {"entrance": "main"}}, {"type": "node", "id": 3824289159, "lat": 50.9487691, "lon": 6.880129, "tags": {"amenity": "nightclub", "name": "Die Halle Tor 2", "toilets:wheelchair": "yes", "wheelchair": "limited"}}, {"type": "node", "id": 3898952193, "lat": 50.921735, "lon": 6.9979241, "tags": {"amenity": "nightclub", "name": "Electrum", "opening_hours": "23:00+", "website": "http://www.electrum-club.de/"}}, {"type": "node", "id": 3950345150, "lat": 50.9527497, "lon": 6.9797474}, {"type": "node", "id": 3950345152, "lat": 50.9528319, "lon": 6.9795801}, {"type": "node", "id": 3950345153, "lat": 50.952866, "lon": 6.9796146}, {"type": "node", "id": 3950345156, "lat": 50.9534967, "lon": 6.9798434}, {"type": "node", "id": 3950346357, "lat": 50.953582, "lon": 6.9796097}, {"type": "node", "id": 3950346358, "lat": 50.9535944, "lon": 6.9800353}, {"type": "node", "id": 3950346359, "lat": 50.9536114, "lon": 6.9799787}, {"type": "node", "id": 3950346360, "lat": 50.9536579, "lon": 6.9801017}, {"type": "node", "id": 3950346361, "lat": 50.9536765, "lon": 6.9802419}, {"type": "node", "id": 3950346362, "lat": 50.9537338, "lon": 6.9804166}, {"type": "node", "id": 3950346363, "lat": 50.9537803, "lon": 6.9808028}, {"type": "node", "id": 3950346364, "lat": 50.9538563, "lon": 6.9806749}, {"type": "node", "id": 3953518681, "lat": 51.0034024, "lon": 7.0262056}, {"type": "node", "id": 3953518686, "lat": 51.0039167, "lon": 7.0262592}, {"type": "node", "id": 3953518687, "lat": 51.0039401, "lon": 7.0259492}, {"type": "node", "id": 3953534594, "lat": 51.0028224, "lon": 6.9792812}, {"type": "node", "id": 3953534596, "lat": 51.0034122, "lon": 6.9790528}, {"type": "node", "id": 3953644307, "lat": 51.0034908, "lon": 6.8913215}, {"type": "node", "id": 3953644308, "lat": 51.0037522, "lon": 6.8920232}, {"type": "node", "id": 3953644309, "lat": 51.0037824, "lon": 6.891052}, {"type": "node", "id": 3953644310, "lat": 51.0039781, "lon": 6.891797}, {"type": "node", "id": 4026118732, "lat": 50.9473697, "lon": 6.9450885}, {"type": "node", "id": 4026118734, "lat": 50.9478982, "lon": 6.9447572}, {"type": "node", "id": 4103872535, "lat": 50.924147, "lon": 6.958584, "tags": {"amenity": "casino"}}, {"type": "node", "id": 4112354217, "lat": 50.9268865, "lon": 6.9577635, "tags": {"amenity": "casino", "name": "Spielothek"}}, {"type": "node", "id": 4162327098, "lat": 50.9273076, "lon": 6.9579056, "tags": {"amenity": "casino", "name": "Fun & Play"}}, {"type": "node", "id": 4179707475, "lat": 50.9517153, "lon": 6.9161618, "tags": {"addr:city": "K\u00f6ln", "addr:country": "DE", "addr:housenumber": "65-67", "addr:postcode": "50825", "addr:street": "Bartholom\u00e4us-Schink-Stra\u00dfe", "amenity": "nightclub", "name": "Yuca (Your Urban Club of Arts)", "toilets:wheelchair": "yes", "website": "https://yuca.club/", "wheelchair": "yes"}}, {"type": "node", "id": 4208442902, "lat": 50.9257838, "lon": 6.9656007, "tags": {"amenity": "cinema", "name": "Sion-Sommerkino", "open_air": "yes", "website": "https://www.openairkino.koeln/"}}, {"type": "node", "id": 4208490399, "lat": 50.9510755, "lon": 6.9112899, "tags": {"amenity": "cinema", "open_air": "yes", "toilets:wheelchair": "yes", "wheelchair": "limited"}}, {"type": "node", "id": 4360248282, "lat": 50.9719431, "lon": 7.0101551, "tags": {"amenity": "public_bookcase", "note": "exact position, further tags", "opening_hours": "24/7"}}, {"type": "node", "id": 4378934308, "lat": 50.9364507, "lon": 6.9580945, "tags": {"camera:angle": "45", "camera:direction": "130", "camera:mount": "wall", "camera:type": "fixed", "height": "6", "man_made": "surveillance", "operator": "G\u00fcrzenich", "surveillance": "outdoor", "surveillance:type": "camera", "surveillance:zone": "building"}}, {"type": "node", "id": 4426838101, "lat": 50.9404001, "lon": 6.8791107, "tags": {"addr:city": "K\u00f6ln", "addr:country": "DE", "addr:housenumber": "54", "addr:street": "Wendelinstra\u00dfe", "amenity": "public_bookcase", "name": "B\u00fccherschrank"}}, {"type": "node", "id": 4455976047, "lat": 50.9656375, "lon": 6.8959987, "tags": {"amenity": "public_bookcase", "capacity": "500"}}, {"type": "node", "id": 4456119577, "lat": 50.9406991, "lon": 6.9464094, "tags": {"addr:city": "K\u00f6ln", "addr:postcode": "50667", "addr:street": "St.-Apern-Stra\u00dfe", "amenity": "studio", "description": "Professionelles Tonstudio mitten in K\u00f6ln f\u00fcr Postproduktion, Sprachaufnahmen, Vertonung und Mastering.", "name": "tonmeisterkoeln.de", "phone": "+49 221 25904258", "studio": "audio", "website": "https://tonmeisterkoeln.de/", "wheelchair": "no"}}, {"type": "node", "id": 4459548652, "lat": 50.9416448, "lon": 6.9598764, "tags": {"addr:city": "K\u00f6ln", "addr:country": "DE", "addr:housenumber": "11", "addr:postcode": "50667", "addr:street": "Hohenzollernbr\u00fccke", "amenity": "nightclub", "name": "Klub Domhof", "website": "https://www.domhof.info/"}}, {"type": "node", "id": 4511038926, "lat": 50.9374424, "lon": 6.9525451}, {"type": "node", "id": 4565301489, "lat": 50.9502315, "lon": 6.9236769, "tags": {"amenity": "community_centre", "email": "info@allerweltshaus.de", "name": "AllerWeltsHaus K\u00f6ln", "operator": "Mo-Fr 10:00-16:00; Sa, Su, PH off", "phone": "+49 221 5103002", "website": "http://www.allerweltshaus.de/", "wheelchair": "no"}}, {"type": "node", "id": 4617886159, "lat": 50.9503221, "lon": 6.9134481, "tags": {"amenity": "nightclub", "name": "Helios 37", "wheelchair": "limited"}}, {"type": "node", "id": 4624194091, "lat": 50.969141, "lon": 7.0413337, "tags": {"addr:city": "K\u00f6ln", "addr:housenumber": "499-501", "addr:postcode": "51067", "addr:street": "Bergisch Gladbacher Stra\u00dfe", "amenity": "theatre", "name": "Cassiopeia Theater", "phone": "+49 221 9378787", "website": "http://www.cassiopeia-buehne.de/", "wheelchair": "yes"}}, {"type": "node", "id": 4624216791, "lat": 50.9697501, "lon": 7.0086335, "tags": {"addr:city": "K\u00f6ln", "addr:housenumber": "20", "addr:postcode": "51063", "addr:street": "Berliner Stra\u00dfe", "amenity": "arts_centre", "name": "Kulturbunker", "phone": "+49 221 616926", "toilets:wheelchair": "yes", "website": "http://kulturbunker-muelheim.de/", "wheelchair": "yes"}}, {"type": "node", "id": 4631444092, "lat": 50.9670362, "lon": 7.0005233, "tags": {"addr:city": "K\u00f6ln", "addr:housenumber": "1", "addr:postcode": "51063", "addr:street": "Krahnenstra\u00dfe", "amenity": "community_centre", "name": "August Bebel Haus", "opening_hours:signed": "no", "website": "https://www.awo-koeln.de/", "wheelchair": "limited"}}, {"type": "node", "id": 4677347876, "lat": 50.9442382, "lon": 6.8967866, "tags": {"addr:city": "K\u00f6ln", "addr:housenumber": "149-161", "addr:postcode": "50825", "addr:street": "Maarweg", "amenity": "studio", "contact:email": "info@maarwegstudio2.com", "contact:fax": "+49 221 9860229", "contact:phone": "+49 221 9860227", "name": "Maarwegstudio2", "studio": "audio"}}, {"type": "node", "id": 4689125210, "lat": 50.9404515, "lon": 6.9544043, "tags": {"amenity": "studio", "name": "WDR Fernseh-Studios"}}, {"type": "node", "id": 4691929090, "lat": 50.9141075, "lon": 6.9311246, "tags": {"amenity": "nightclub", "name": "ABS Club"}}, {"type": "node", "id": 4881500947, "lat": 50.9117985, "lon": 6.9924106, "tags": {"amenity": "public_bookcase"}}, {"type": "node", "id": 4888564944, "lat": 50.9696826, "lon": 7.0444426, "tags": {"amenity": "public_bookcase", "name": "\u00d6ffentlicher B\u00fccherschrank \"Eselsohr\"", "operator": "B\u00fcrgerstiftung K\u00f6ln", "website": "https://buergerstiftung-koeln.de/projekte/buecherschraenke/"}}, {"type": "node", "id": 5022778619, "lat": 50.9419852, "lon": 6.9414557, "tags": {"amenity": "nightclub", "name": "Nopti Albe"}}, {"type": "node", "id": 5022790018, "lat": 50.9417165, "lon": 6.9412155, "tags": {"alt_name": "IXOP", "amenity": "nightclub", "name": "\u0399\u03a7\u03a9\u03a1 Night Club"}}, {"type": "node", "id": 5156993121, "lat": 50.9875138, "lon": 6.8963165, "tags": {"addr:city": "K\u00f6ln", "addr:housenumber": "1", "addr:postcode": "50829", "addr:street": "Am Coloneum", "amenity": "studio", "name": "MMC Cologne", "studio": "television"}}, {"type": "node", "id": 5221829513, "lat": 50.9427551, "lon": 7.0016762, "tags": {"addr:city": "K\u00f6ln", "addr:housenumber": "130-132", "addr:postcode": "51103", "addr:street": "Kalk-M\u00fclheimer Stra\u00dfe", "amenity": "cinema", "name": "Lichtspiele Kalk", "survey:date": "2020-09-29", "website": "https://www.lichtspiele-kalk.de/", "wheelchair": "yes"}}, {"type": "node", "id": 5238289779, "lat": 50.9439064, "lon": 7.0042296, "tags": {"addr:city": "K\u00f6ln", "addr:housenumber": "13", "addr:postcode": "51103", "addr:street": "Manteuffelstra\u00dfe", "amenity": "community_centre", "community_centre": "youth_centre", "contact:email": "pavillon-kalk@netcologne.de", "name": "Pavillon Kalk", "note": "Offener Jugendtreff", "operator": "Pavillon e.V.- Verein f\u00fcr Jugendarbeit in K\u00f6ln-Kalk"}}, {"type": "node", "id": 5427856586, "lat": 50.8925723, "lon": 6.9935684, "tags": {"amenity": "public_bookcase", "fee": "no"}}, {"type": "node", "id": 5585119381, "lat": 50.9561007, "lon": 6.9394366, "tags": {"amenity": "atm"}}, {"type": "node", "id": 5585374457, "lat": 50.9549487, "lon": 6.9399883, "tags": {"addr:city": "K\u00f6ln", "addr:country": "DE", "addr:housenumber": "85", "addr:postcode": "50823", "addr:street": "Hornstra\u00dfe", "amenity": "nightclub", "contact:facebook": "https://www.facebook.com/pg/odonien/events/", "contact:phone": "+49 221 9727009", "contact:website": "https://www.odonien.de/", "name": "Odonien", "operator": "Odo Rumpf GmbH", "toilets:wheelchair": "no", "wheelchair": "yes"}}, {"type": "node", "id": 5591124358, "lat": 50.9560656, "lon": 6.9394737, "tags": {"entrance": "main"}}, {"type": "node", "id": 5624509121, "lat": 50.9272542, "lon": 6.939919, "tags": {"amenity": "nightclub", "name": "Veedel Club", "opening_hours": "Fr-Sa 23:00-05:00"}}, {"type": "node", "id": 5640274510, "lat": 50.9729846, "lon": 6.8659316, "tags": {"amenity": "public_bookcase", "location": "outdoor", "operator": "B\u00fcrgerverein K\u00f6ln-Bocklem\u00fcnd/Mengenich e.V.", "public_bookcase:type": "metal_cabinet"}}, {"type": "node", "id": 5742072621, "lat": 50.923579, "lon": 6.9606701, "tags": {"amenity": "community_centre", "name": "MACHADO Dt-Spanischer Kulturkreis e. V", "website": "http://spanischer-verein.com/"}}, {"type": "node", "id": 5793490673, "lat": 50.9532986, "lon": 6.9904091, "tags": {"amenity": "arts_centre", "name": "\"raum 13\" Deutzer Zentralwerk der sch\u00f6nen K\u00fcnste"}}, {"type": "node", "id": 5822410917, "lat": 50.9507001, "lon": 6.9156937, "tags": {"amenity": "gambling", "gambling": "slot_machines", "name": "Spielhalle"}}, {"type": "node", "id": 5893040144, "lat": 50.9556843, "lon": 7.013589, "tags": {"amenity": "casino", "name": "Rio", "opening_hours": "Mo-Su 06:00-01:00"}}, {"type": "node", "id": 5893064495, "lat": 50.9560743, "lon": 7.0135294, "tags": {"amenity": "casino", "name": "Spielhalle", "opening_hours": "Mo-Su 06:00-01:00"}}, {"type": "node", "id": 5897133100, "lat": 50.9813184, "lon": 6.8431685, "tags": {"amenity": "casino", "name": "Merkur-Spielothek", "opening_hours": "Mo-Sa 00:00-01:00,06:00-24:00; Su 00:00-01:00,11:00-24:00", "website": "https://www.spielothek.de/Standorte/Standortdetailseite.php?ID=7903001#start"}}, {"type": "node", "id": 5928291717, "lat": 50.9319886, "lon": 6.93475, "tags": {"amenity": "social_centre", "name": "B\u00fcrgerzentrum Rathenauplatz", "phone": "+49 221 24 83 01"}}, {"type": "node", "id": 5963805027, "lat": 50.9251577, "lon": 6.9641152, "tags": {"entrance": "yes"}}, {"type": "node", "id": 5963805034, "lat": 50.9251836, "lon": 6.9641022, "tags": {"entrance": "main"}}, {"type": "node", "id": 5996614285, "lat": 50.9390267, "lon": 6.9604134, "tags": {"amenity": "nightclub", "name": "Beim Pitter"}}, {"type": "node", "id": 5996616985, "lat": 50.934812, "lon": 6.9430774, "tags": {"amenity": "nightclub", "name": "Mariechen", "opening_hours:signed": "no"}}, {"type": "node", "id": 6066222327, "lat": 50.9496744, "lon": 6.9231596, "tags": {"amenity": "public_bookcase"}}, {"type": "node", "id": 6078794337, "lat": 50.9670254, "lon": 7.0022364, "tags": {"amenity": "community_centre", "name": "La Ranzeria"}}, {"type": "node", "id": 6139277412, "lat": 51.0224957, "lon": 6.8996915}, {"type": "node", "id": 6139277413, "lat": 51.0224661, "lon": 6.8997483}, {"type": "node", "id": 6139277414, "lat": 51.0224665, "lon": 6.899767}, {"type": "node", "id": 6139277415, "lat": 51.0224561, "lon": 6.8997873}, {"type": "node", "id": 6139277416, "lat": 51.0224454, "lon": 6.8997882}, {"type": "node", "id": 6139277417, "lat": 51.0224335, "lon": 6.8998125}, {"type": "node", "id": 6139277418, "lat": 51.0223449, "lon": 6.8998361}, {"type": "node", "id": 6139277419, "lat": 51.0223509, "lon": 6.8994815}, {"type": "node", "id": 6255591030, "lat": 50.937638, "lon": 6.9520223}, {"type": "node", "id": 6255591031, "lat": 50.9374885, "lon": 6.9519884}, {"type": "node", "id": 6255852020, "lat": 50.9639923, "lon": 6.9526659, "tags": {"amenity": "public_bookcase"}}, {"type": "node", "id": 6332099832, "lat": 50.9150447, "lon": 6.9264352, "tags": {"addr:housenumber": "264", "addr:street": "Luxemburger Stra\u00dfe", "amenity": "arts_centre", "name": "Kissfriend"}}, {"type": "node", "id": 6362576510, "lat": 50.951697, "lon": 6.9819528, "tags": {"addr:city": "K\u00f6ln", "addr:country": "DE", "addr:housenumber": "173", "addr:postcode": "51063", "addr:street": "Auenweg", "amenity": "nightclub", "contact:facebook": "https://www.facebook.com/clubbootshaus/events", "contact:phone": "+49 221 9140910", "contact:website": "http://bootshaus.tv", "name": "Bootshaus", "operator": "Bootshaus Cologne GmbH", "wikipedia": "de:Bootshaus (K\u00f6ln)"}}, {"type": "node", "id": 6373561503, "lat": 50.9456941, "lon": 6.9508449, "tags": {"amenity": "public_bookcase", "name": "B\u00fccherschrank"}}, {"type": "node", "id": 6472874729, "lat": 50.9364235, "lon": 6.9448226}, {"type": "node", "id": 6496965753, "lat": 50.9396461, "lon": 6.9548001, "tags": {"amenity": "cinema", "name": "Open-Air-Kino", "open_air": "yes"}}, {"type": "node", "id": 6578063131, "lat": 50.9433636, "lon": 6.9449269, "tags": {"amenity": "public_bookcase", "name": "Eselsohr", "website": "https://buergerstiftung-koeln.de/projekte/buecherschraenke/"}}, {"type": "node", "id": 6669289287, "lat": 50.9498419, "lon": 6.9118265, "tags": {"addr:city": "K\u00f6ln", "addr:housenumber": "197", "addr:postcode": "50825", "addr:street": "Vogelsanger Stra\u00dfe", "amenity": "nightclub", "name": "Heinz Gaul", "opening_hours": "Mo-Fr 07:00-17:00"}}, {"type": "node", "id": 6727566673, "lat": 50.9721785, "lon": 6.9666456, "tags": {"amenity": "public_bookcase", "lit": "no", "name": "B\u00fccherschrank Ruhrorter Stra\u00dfe", "operator": "B\u00fcrgerstiftung K\u00f6ln", "public_bookcase:type": "metal_cabinet", "website": "https://buergerstiftung-koeln.de/"}}, {"type": "node", "id": 6773740328, "lat": 50.9652791, "lon": 7.0126014, "tags": {"amenity": "nightclub", "name": "Club Volta", "website": "http://club-volta.de/"}}, {"type": "node", "id": 6814837672, "lat": 50.9748733, "lon": 7.0744607, "tags": {"amenity": "public_bookcase"}}, {"type": "node", "id": 6815969793, "lat": 50.9480851, "lon": 6.9459973}, {"type": "node", "id": 6815969794, "lat": 50.9480268, "lon": 6.945072}, {"type": "node", "id": 6815969795, "lat": 50.9479989, "lon": 6.9450733}, {"type": "node", "id": 6815969796, "lat": 50.9480124, "lon": 6.9450331}, {"type": "node", "id": 6815969797, "lat": 50.94802, "lon": 6.9449767}, {"type": "node", "id": 6817362329, "lat": 51.0355986, "lon": 6.9285798, "tags": {"addr:city": "K\u00f6ln", "addr:housenumber": "26", "addr:postcode": "50769", "addr:street": "Feldkasseler Weg", "amenity": "arts_centre", "description": "Hochzeitssaal / wedding hall", "facebook": "https://www.facebook.com/Optimum-Event-385635828859812/", "name": "Optimum Event"}}, {"type": "node", "id": 6845514663, "lat": 50.9319492, "lon": 6.9616708, "tags": {"addr:city": "K\u00f6ln", "addr:housenumber": "14", "addr:postcode": "50676", "addr:street": "Holzgasse", "amenity": "studio", "contact:email": "ralf@riverside-studios-cologne.com", "contact:phone": "+49 221 42301378", "contact:website": "https://riverside-studios-cologne.com", "name": "Riverside Studios Cologne", "studio": "audio"}}, {"type": "node", "id": 6869442801, "lat": 50.9650463, "lon": 7.0122473, "tags": {"addr:city": "K\u00f6ln", "addr:housenumber": "6-20", "addr:postcode": "51063", "addr:street": "Schanzenstra\u00dfe", "amenity": "nightclub", "name": "Carlswerk Victoria", "website": "http://www.carlswerk-victoria.de/"}}, {"type": "node", "id": 6942642331, "lat": 50.9367279, "lon": 6.9316046, "tags": {"amenity": "nightclub", "level": "-1", "name": "Club Subway", "opening_hours:signed": "no", "website": "https://www.subway-der-club.de", "wheelchair": "no"}}, {"type": "node", "id": 6953517845, "lat": 50.876139, "lon": 7.0042101, "tags": {"amenity": "public_bookcase", "public_bookcase:type": "wooden_cabinet"}}, {"type": "node", "id": 6959854245, "lat": 50.9361589, "lon": 6.9439454, "tags": {"amenity": "cinema", "name": "Kino 813", "operator": "Filmclub 813 e.V.", "website": "https://filmclub-813.de/", "wikidata": "Q34379688"}}, {"type": "node", "id": 7029757685, "lat": 50.9366884, "lon": 6.9317237, "tags": {"amenity": "nightclub", "name": "Subway", "opening_hours:signed": "no"}}, {"type": "node", "id": 7029821285, "lat": 50.9378497, "lon": 6.9372916, "tags": {"amenity": "nightclub", "name": "Rich Club"}}, {"type": "node", "id": 7030998199, "lat": 50.9253376, "lon": 6.9642872, "tags": {"entrance": "yes"}}, {"type": "node", "id": 7030998200, "lat": 50.9251251, "lon": 6.9643862, "tags": {"entrance": "yes"}}, {"type": "node", "id": 7030998209, "lat": 50.9254256, "lon": 6.9647234}, {"type": "node", "id": 7056278863, "lat": 50.9845266, "lon": 6.8977113, "tags": {"amenity": "public_bookcase", "opening_hours": "Mo-Th 10:00-20:00; Fr 10:00-22:00; Sa 10:00-21:00; Su, PH off", "operator": "IKEA"}}, {"type": "node", "id": 7056416101, "lat": 50.9226093, "lon": 6.95792, "tags": {"amenity": "community_centre", "name": "Tenri Japanische Kulturwerkstatt"}}, {"type": "node", "id": 7273797144, "lat": 50.9385117, "lon": 7.0073453, "tags": {"amenity": "public_bookcase", "name": "Offener Kalker B\u00fccherschrank", "opening_hours": "Mo-Fr 06:30-18:00, Sa 6:30-14:00, So 7:30-17:00", "operator": "Sozialraumkoordination Kalk"}}, {"type": "node", "id": 7295058127, "lat": 50.9340831, "lon": 6.9760982, "tags": {"amenity": "public_bookcase"}}, {"type": "node", "id": 7295058128, "lat": 50.9340971, "lon": 6.9729548, "tags": {"amenity": "public_bookcase", "wheelchair": "yes"}}, {"type": "node", "id": 7306565135, "lat": 50.9341494, "lon": 6.9256917, "tags": {"camera:angle": "40", "camera:direction": "310", "camera:mount": "wall", "camera:type": "fixed", "height": "4", "man_made": "surveillance", "operator": "Japanisches Kulturinstitut", "surveillance": "public", "surveillance:type": "camera"}}, {"type": "node", "id": 7494815625, "lat": 50.9458555, "lon": 6.9735478, "tags": {"addr:city": "K\u00f6ln", "addr:country": "DE", "addr:housenumber": "1", "addr:postcode": "50679", "addr:street": "Rheinparkweg", "amenity": "theatre", "email": "marketing@oper.koeln", "name": "Oper im Staatenhaus", "operator": "Oper K\u00f6ln", "phone": "+49 221 22128400", "theatre:genre": "opera", "website": "https://www.oper.koeln/", "wheelchair": "yes"}}, {"type": "node", "id": 7625612929, "lat": 50.9819647, "lon": 6.9440863, "tags": {"addr:city": "K\u00f6ln", "addr:housenumber": "37", "addr:postcode": "50735", "addr:street": "Jesuitengasse", "amenity": "arts_centre", "name": "Klangh\u00e4uschen"}}, {"type": "node", "id": 7625707962, "lat": 50.9893443, "lon": 6.9434904, "tags": {"addr:city": "K\u00f6ln", "addr:housenumber": "731 - 733", "addr:postcode": "50737", "addr:street": "Neusser Stra\u00dfe", "amenity": "community_centre", "email": "info@dachlow.de", "name": "Kinder- und Jugendzentrum DachloW", "opening_hours": "Mo-Fr. 12:30 \u2013 21:00 Uh -So: 14.00 \u2013  20:00 Uhr", "operator": "Zur\u00fcck in die Zukunft e.V.", "phone": "+49 (0221) 16853832", "website": "http://www.dachlow.de/"}}, {"type": "node", "id": 7631810332, "lat": 50.9554031, "lon": 6.9522855}, {"type": "node", "id": 7631810333, "lat": 50.9552967, "lon": 6.952355}, {"type": "node", "id": 7631810334, "lat": 50.9553634, "lon": 6.9526028}, {"type": "node", "id": 7631810335, "lat": 50.9554673, "lon": 6.9525341}, {"type": "node", "id": 7635404829, "lat": 50.9430731, "lon": 6.9350768, "tags": {"addr:city": "K\u00f6ln", "addr:housenumber": "40", "addr:postcode": "50672", "addr:street": "Venloer Stra\u00dfe", "amenity": "theatre", "name": "Stadtgarten - Konzertsaal", "website": "https://www.stadtgarten.de/", "wheelchair": "yes"}}, {"type": "node", "id": 7637452231, "lat": 50.9429756, "lon": 6.9283274, "tags": {"entrance": "yes", "wheelchair": "yes"}}, {"type": "node", "id": 7637452232, "lat": 50.9431309, "lon": 6.9284079, "tags": {"entrance": "yes", "wheelchair": "yes"}}, {"type": "node", "id": 7637452233, "lat": 50.9432931, "lon": 6.9285081, "tags": {"entrance": "yes"}}, {"type": "node", "id": 7637452234, "lat": 50.9433455, "lon": 6.9285524, "tags": {"entrance": "yes"}}, {"type": "node", "id": 7637452235, "lat": 50.943308, "lon": 6.9287705, "tags": {"entrance": "yes"}}, {"type": "node", "id": 7637452249, "lat": 50.9436744, "lon": 6.9285833}, {"type": "node", "id": 7637452250, "lat": 50.9431914, "lon": 6.9283402}, {"type": "node", "id": 7637452251, "lat": 50.9429951, "lon": 6.9281893}, {"type": "node", "id": 7637452252, "lat": 50.9426278, "lon": 6.9286356}, {"type": "node", "id": 7638251296, "lat": 50.9428439, "lon": 6.9352759, "tags": {"entrance": "yes"}}, {"type": "node", "id": 7638251297, "lat": 50.9429043, "lon": 6.9350031, "tags": {"entrance": "yes"}}, {"type": "node", "id": 7638251298, "lat": 50.9431439, "lon": 6.9350879, "tags": {"entrance": "emergency"}}, {"type": "node", "id": 7638251300, "lat": 50.9428644, "lon": 6.9350866, "tags": {"entrance": "yes", "level": "-1"}}, {"type": "node", "id": 7638251313, "lat": 50.9429368, "lon": 6.9356193}, {"type": "node", "id": 7638251314, "lat": 50.9428755, "lon": 6.9357151}, {"type": "node", "id": 7638251315, "lat": 50.9429428, "lon": 6.9358268}, {"type": "node", "id": 7638251316, "lat": 50.942999, "lon": 6.935742}, {"type": "node", "id": 7638302155, "lat": 50.942838, "lon": 6.9350822}, {"type": "node", "id": 7638391615, "lat": 50.9430389, "lon": 6.9348888}, {"type": "node", "id": 7638391616, "lat": 50.9429665, "lon": 6.9349052}, {"type": "node", "id": 7638391617, "lat": 50.9429272, "lon": 6.9349858}, {"type": "node", "id": 7638391618, "lat": 50.9428998, "lon": 6.9350136}, {"type": "node", "id": 7638391619, "lat": 50.9428885, "lon": 6.9350378}, {"type": "node", "id": 7704871144, "lat": 50.9480116, "lon": 6.9091713, "tags": {"access": "yes", "amenity": "public_bookcase", "opening_hours": "24/7", "public_bookcase:type": "metal_cabinet"}}, {"type": "node", "id": 7766431457, "lat": 50.9475059, "lon": 6.9134665, "tags": {"entrance": "emergency"}}, {"type": "node", "id": 7766431458, "lat": 50.94752, "lon": 6.9134266, "tags": {"access": "private", "entrance": "staircase"}}, {"type": "node", "id": 7812771513, "lat": 50.9784149, "lon": 7.0694472, "tags": {"addr:city": "K\u00f6ln", "addr:housenumber": "971", "addr:postcode": "51069", "addr:street": "Bergisch Gladbacher Stra\u00dfe", "amenity": "gambling", "name": "Lido Spielhalle"}}, {"type": "node", "id": 7861149238, "lat": 50.9400437, "lon": 6.9324068, "tags": {"addr:city": "K\u00f6ln", "addr:housenumber": "149", "addr:postcode": "50674", "addr:street": "Moltkestra\u00dfe", "amenity": "studio", "description": "Filmproduktion f\u00fcr Unternehmensfilme mit Schwerpunkt auf Imagefilme, Werbespots und Eventfilme.", "email": "ps@wirmachenfilm.de", "name": "Filmproduktion Peter Sch\u00fcttemeyer", "phone": "+49 221 5691962", "studio": "video", "website": "https://www.wirmachenfilm.de/"}}, {"type": "node", "id": 8097066616, "lat": 50.9645284, "lon": 6.9504978, "tags": {"amenity": "community_centre", "name": "B\u00fcrgerzentrum Nippes - Turmstra\u00dfe", "website": "https://www.buergerzentrum-nippes.de/"}}, {"type": "node", "id": 8097951111, "lat": 50.9660363, "lon": 6.9532586, "tags": {"amenity": "gambling"}}, {"type": "node", "id": 8155291341, "lat": 50.9008803, "lon": 7.0210615}, {"type": "way", "id": 16367389, "nodes": [168527938, 168527956, 168527976, 760235640, 760235630, 3508683531, 255149082, 760235641, 160707789, 3508683532, 3508683533, 255149081, 760235651, 3508683534, 3508683535, 760235671, 255149080, 3508683538, 3508683539, 168527995, 168527938], "tags": {"addr:city": "K\u00f6ln", "addr:country": "DE", "addr:housenumber": "1", "addr:postcode": "50668", "addr:street": "Goldgasse", "amenity": "theatre", "building": "theatre", "building:use": "cultural", "name": "Musical Dome", "toilets:wheelchair": "yes", "website": "http://musical-dome.de/", "wheelchair": "yes", "wheelchair:description": "Es kann nur eine Ebene benutz werden wo sich aber alles befindet", "wikidata": "Q1954950", "wikipedia": "de:Musical Dome"}}, {"type": "way", "id": 23113728, "nodes": [2583999514, 2583999512, 6815969793, 6815969794, 6815969795, 6815969796, 6815969797, 82731335, 1092242146, 1092242200, 2583999501, 4026118734, 2583999497, 2583999495, 2583999492, 2583999493, 3642950542, 4026118732, 2583999489, 2583999498, 2583999516, 2583999514], "tags": {"addr:city": "K\u00f6ln", "addr:country": "DE", "addr:housenumber": "1", "addr:postcode": "50670", "addr:street": "Im Mediapark", "amenity": "cinema", "building": "yes", "building:levels": "3", "building:use": "residential;commercial", "layer": "1", "name": "Cinedom", "payment:cash": "yes", "payment:debit_cards": "yes", "phone": "+49 221 95195195", "roof:shape": "flat", "source": "yahoo", "toilets:wheelchair": "yes", "website": "http://www.cinedom.de", "wheelchair": "limited", "wheelchair:description": "Lediglich Saal 8 ist f\u00fcr Rollstuhlfahrer nicht zug\u00e4nglich. Saal 9 und die Black Box nur eingeschr\u00e4nkt (vorderste Reihe).", "wikidata": "Q1092374"}}, {"type": "way", "id": 23566808, "nodes": [255224305, 255224308, 721834699, 255224310, 721834701, 255224313, 1625608517, 321346381, 321346382, 920243537, 255224305], "tags": {"addr:city": "K\u00f6ln", "addr:country": "DE", "addr:housenumber": "4", "addr:postcode": "50667", "addr:street": "Br\u00fcderstra\u00dfe", "amenity": "theatre", "building": "yes", "building:use": "cultural", "heritage": "8", "heritage:operator": "UntereDenkmalbeh\u00f6rde", "heritage:ref": "4973", "historic": "heritage", "image": "http://commons.wikimedia.org/wiki/File:Schauspiel_K%C3%B6ln_(4227-29).jpg", "name": "Schauspielhaus K\u00f6ln", "source": "yahoo", "website": "http://www.schauspielkoeln.de/", "wikidata": "Q832079", "wikipedia": "de:Schauspiel K\u00f6ln"}}, {"type": "way", "id": 23566809, "nodes": [255224315, 255224317, 255224320, 255224322, 667800454, 474773025, 6255591030, 3356990710, 255223806, 3356990697, 255224330, 321346380, 255224333, 3356990718, 255224335, 255224338, 255224340, 255224342, 255224315], "tags": {"addr:city": "K\u00f6ln", "addr:country": "DE", "addr:housenumber": "2", "addr:postcode": "50667", "addr:street": "Offenbachplatz", "amenity": "theatre", "building": "yes", "building:use": "cultural", "heritage": "8", "heritage:operator": "UntereDenkmalbeh\u00f6rde", "heritage:ref": "5000", "historic": "heritage", "image": "http://commons.wikimedia.org/wiki/File:Oper_K%C3%B6ln_(4202-04).jpg", "name": "Oper der Stadt K\u00f6ln", "name:de": "Opernhaus", "name:en": "Cologne Opera", "name:fr": "Op\u00e9ra de Cologne", "name:nl": "Oper K\u00f6ln", "source": "yahoo", "website": "http://www.operkoeln.com/", "wikidata": "Q869662", "wikipedia": "de:Oper K\u00f6ln"}}, {"type": "way", "id": 23574603, "nodes": [3353674055, 3353674051, 3353674053, 3353674056, 3353674057, 3353673862, 3353673848, 3353673846, 3353673845, 3353673844, 3353673836, 3353673816, 3353673815, 3353673839, 3353673834, 3353673776, 3353673881, 3353673882, 3353673890, 3353673892, 3353673888, 3353673889, 3353673994, 3353673996, 3353673891, 3353673993, 3353673998, 3353674000, 3353673995, 3353673997, 3353674002, 3353674004, 3353673999, 3353674001, 3353674006, 3353674008, 3353674003, 3353674005, 3353674009, 3353674011, 3353674007, 3353674010, 3353674013, 3353674015, 3353674012, 3353674014, 3353674017, 3353674020, 3353674016, 3353674018, 3353674022, 3353674024, 3353674021, 3353674023, 3353674027, 3353674029, 3353674025, 3353674028, 3353674031, 3353674033, 3353674030, 3353674032, 3353674036, 3353674037, 3353674034, 3353674039, 3353674041, 3353674043, 3353674040, 3353674042, 3353674045, 3353674046, 3353674044, 3353674047, 3353674049, 3353673781, 3353674048, 3353673782, 3353673785, 3353673786, 3353673783, 3784595788, 3353673787, 3353673789, 3353674094, 3353673788, 3353673790, 3353674097, 3353674099, 3353674093, 3353674096, 3353674050, 3353674052, 3353674098, 3353674100, 3353674054, 3353674055]}, {"type": "way", "id": 24014911, "nodes": [3534376519, 3534376516, 3534376518, 3534376515, 3534376514, 3534376513, 3534376501, 3534376502, 3534376497, 3534376498, 3534376488, 3534376490, 3534376489, 3534376491, 3534376492, 3534376495, 3534376493, 3534376494, 3534376496, 3534376500, 3534376503, 3534376504, 3534376508, 3534376506, 3534376507, 3534376512, 3534376505, 3534376510, 3534376511, 3534376517, 3534376519], "tags": {"addr:city": "K\u00f6ln", "addr:country": "DE", "addr:housenumber": "2", "addr:postcode": "50823", "addr:street": "Hornstra\u00dfe", "amenity": "brothel", "brothel:eros_center": "yes", "building": "yes", "building:levels": "10", "building:use": "leisure", "email": "info@pascha.de", "fax": "+49 221 17906 472", "name": "Pascha Laufhaus", "opening_hours": "24/7", "phone": "+49 221 17906100", "source": "bing", "website": "https://www.pascha.de/koeln/pascha-laufhaus/"}}, {"type": "way", "id": 26007039, "nodes": [289728800, 283770310, 283770313, 2583999750, 2583999746, 2583999747, 2583999744, 283770283, 2583999770, 283770286, 283770289, 1057275869, 289728800], "tags": {"addr:city": "K\u00f6ln", "addr:country": "DE", "amenity": "cinema", "building": "yes", "name": "K\u00f6lner Filmhaus", "phone": "+49 221 2227100", "source": "yahoo", "website": "http://www.koelner-filmhaus.de/", "wheelchair": "yes", "wikidata": "Q17577145", "wikipedia": "de:K\u00f6lner Filmhaus"}}, {"type": "way", "id": 26229917, "nodes": [2688952504, 2688952503, 2688952502, 2688952483, 2688952488, 2688952515, 2688952513, 2688952514, 2688952504], "tags": {"addr:city": "K\u00f6ln", "addr:country": "DE", "addr:housenumber": "28", "addr:postcode": "50678", "addr:street": "Bayenstra\u00dfe", "amenity": "theatre", "building": "yes", "building:use": "cultural", "height": "9", "name": "Kunsthaus Rhenania / Musiktheater Werkschutz", "roof:height": "4", "roof:shape": "gabled", "source": "yahoo;photography"}}, {"type": "way", "id": 27278864, "nodes": [3460336272, 299436035, 295251842, 299436036, 3460336268, 3460336272], "tags": {"addr:city": "K\u00f6ln", "addr:country": "DE", "addr:housenumber": "127", "addr:postcode": "50823", "addr:street": "Ehrenfeldg\u00fcrtel", "amenity": "theatre", "building": "yes", "building:levels": "1", "email": "kontakt@artheater.de", "image": "https://commons.wikimedia.org/wiki/File:Artheater,_K%C3%B6ln-Neuehrenfeld-6197.jpg", "name": "artheater", "phone": "+49 221 5503344", "roof:shape": "gabled", "source": "photography", "toilets:wheelchair": "no", "website": "http://artheater.info", "wheelchair": "limited"}}, {"type": "way", "id": 28334364, "nodes": [311164298, 1364617235, 2669270834, 2182204062, 311164302, 1877676527, 311164306, 311164312, 1364617032, 1877676544, 311165316, 311164317, 311164322, 311164327, 732073696, 2182201925, 311164298], "tags": {"addr:city": "K\u00f6ln", "addr:country": "DE", "addr:housenumber": "36", "addr:postcode": "51149", "addr:street": "Rudolf-Diesel-Stra\u00dfe", "addr:suburb": "Eil", "amenity": "cinema", "description": "Ton/Stereo: FM UKW 90,5 Mhz", "drive_in": "yes", "name": "Drive In Autokino K\u00f6ln Porz", "outdoor": "yes", "screen": "1", "website": "https://autokino-koeln.de/"}}, {"type": "way", "id": 28431145, "nodes": [3534376535, 5585119381, 5591124358, 3534376524, 3534376525, 3534376527, 3534376529, 3534376530, 3534376531, 3534376532, 3534376534, 3534376539, 3534376541, 3534376535], "tags": {"addr:city": "K\u00f6ln", "addr:country": "DE", "addr:housenumber": "4", "addr:postcode": "50823", "addr:street": "Hornstra\u00dfe", "amenity": "casino", "building": "yes", "source": "yahoo"}}, {"type": "way", "id": 29215129, "nodes": [474773029, 3356989787, 3356989783, 3356989790, 3356989789, 3356990602, 3356990603, 4511038926, 3356990624, 3356990630, 6255591031, 474773029], "tags": {"addr:city": "K\u00f6ln", "addr:country": "DE", "addr:housenumber": "2", "addr:postcode": "50667", "addr:street": "Br\u00fcderstra\u00dfe", "amenity": "theatre", "building": "yes", "heritage": "8", "heritage:operator": "UntereDenkmalbeh\u00f6rde", "heritage:ref": "4972", "historic": "heritage", "name": "Au\u00dfenspielst\u00e4tte am Offenbachplatz", "old_name": "Opernterrassen", "operator": "Schauspiel K\u00f6ln", "website": "https://www.schauspiel.koeln/haus/aussenspielstaette/", "wikidata": "Q2026691", "wikipedia": "de:Opernterrassen"}}, {"type": "way", "id": 30514288, "nodes": [2759261394, 2759261395, 2759261375, 2759261374, 2759261385, 2759261387, 2759261392, 2759261397, 2759261394], "tags": {"addr:city": "K\u00f6ln", "addr:country": "DE", "addr:housename": "Samya FKK-Club", "addr:housenumber": "26a", "addr:postcode": "50996", "addr:street": "Kirschbaumweg", "addr:suburb": "Rodenkirchen", "amenity": "brothel", "brothel:saunaclub": "yes", "building": "yes", "building:use": "residential;commercial", "email": "info@samya.de", "name": "Samya FKK-Club", "opening_hours": "Mo-Th 11:00-03:00, Fr-Sa 11:00-05:00, Su 13:00-03:00", "phone": "+49 2236 969636", "source": "bing", "website": "https://www.samya.de/"}}, {"type": "way", "id": 34962786, "nodes": [2641373257, 410298083, 410298071, 2638882039, 410298080, 1305956247, 286372760, 1305956266, 2641373248, 2641373257], "tags": {"addr:city": "K\u00f6ln", "addr:country": "DE", "addr:housename": "Studiob\u00fchne", "addr:housenumber": "16a", "addr:postcode": "50937", "addr:street": "Universit\u00e4tsstra\u00dfe", "amenity": "theatre", "building": "apartments", "building:use": "residential", "name": "Alte Mensa", "ref": "332a", "website": "http://www.studiobuehne-koeln.de/", "wheelchair": "yes", "wikipedia": "de:Studiob\u00fchne K\u00f6ln"}}, {"type": "way", "id": 36936466, "nodes": [429517055, 429523100, 429517057, 3373426078, 3373426079, 429517058, 429517056, 429517094, 429517055], "tags": {"addr:city": "K\u00f6ln", "addr:country": "DE", "addr:housenumber": "32", "addr:postcode": "50825", "addr:street": "Platenstra\u00dfe", "amenity": "theatre", "building": "culture", "email": "info@uraniatheater.de", "name": "Urania Theater", "phone": "+49 221 17098260", "website": "https://uraniatheater.de", "wikidata": "Q48755314", "wikipedia": "de:Urania Theater"}}, {"type": "way", "id": 37118280, "nodes": [431845014, 431845016, 431845018, 431845008, 3454715298, 3454715263, 3454715260, 431845014], "tags": {"addr:city": "K\u00f6ln", "addr:country": "DE", "addr:housenumber": "38-40", "addr:postcode": "50823", "addr:street": "Stammstra\u00dfe", "amenity": "theatre", "building": "yes", "name": "Theaterhaus", "roof:shape": "gabled", "source": "photography"}}, {"type": "way", "id": 38490299, "nodes": [2599406516, 2599406474, 2599406477, 7306565135, 2599406425, 2599406426, 2599406482, 2599406483, 2599406520, 2599406517, 2599406516], "tags": {"addr:city": "K\u00f6ln", "addr:country": "DE", "addr:housenumber": "98", "addr:postcode": "50674", "addr:street": "Universit\u00e4tsstra\u00dfe", "amenity": "arts_centre", "building": "yes", "building:use": "cultural", "contact:email": "jfco@jki.de", "contact:fax": "+49 221 9405589", "contact:phone": "+49 221 9405580", "image": "https://commons.wikimedia.org/wiki/File:Japanisches_Kulturinstitut_K%C3%B6ln_(0486-88).jpg", "name": "Japanisches Kulturinstitut", "name:ja": "\u30b1\u30eb\u30f3\u65e5\u672c\u6587\u5316\u4f1a\u9928", "website": "https://www.jki.de/", "wikidata": "Q1464236", "wikipedia": "de:Japanisches Kulturinstitut"}}, {"type": "way", "id": 44279636, "nodes": [3342877448, 3342877384, 3342877231, 3342877248, 3342877174, 3342877208, 3342877340, 3342877448], "tags": {"addr:city": "K\u00f6ln", "addr:country": "DE", "addr:housenumber": "11", "addr:postcode": "50825", "addr:street": "Herbrandstra\u00dfe", "amenity": "cinema", "building": "yes", "food": "yes", "name": "Cinenova Arthouse-Center", "outdoor_seating": "yes", "source": "photography", "toilets:wheelchair": "yes", "website": "https://www.cinenova.de/", "wheelchair": "yes", "wheelchair:description": "incl. Rollstuhltoilette", "wikidata": "Q34379477"}}, {"type": "way", "id": 44439463, "nodes": [564855180, 2879708593, 2879708587, 2879708588, 2879708596, 2879708595, 564855181, 564855180], "tags": {"amenity": "studio", "building": "yes", "building:levels": "1", "building:use": "cultural", "roof:shape": "flat", "studio": "video"}}, {"type": "way", "id": 44685892, "nodes": [567082324, 567082326, 743384072, 3682775747, 743384077, 743384079, 743384078, 567082320, 567082322, 567082283, 3682748277, 567082286, 567082289, 3682775749, 567082292, 567082293, 567082306, 567082303, 567082299, 567082296, 567082318, 567082309, 567082316, 743384073, 567082314, 567082311, 743384074, 567082346, 567082343, 567082341, 567082338, 567082357, 567082351, 567083035, 249471413, 743384076, 567082324], "tags": {"addr:city": "K\u00f6ln", "addr:country": "DE", "addr:housenumber": "1", "addr:postcode": "50679", "addr:street": "Rheinparkweg", "amenity": "theatre", "building": "yes", "name": "Theater am Tanzbrunnen", "source": "photography", "website": "http://www.koelnkongress.de/wDeutsch/locations/tanzbrunnen/index.php"}}, {"type": "way", "id": 51072280, "nodes": [651464163, 6472874729, 651464169, 651464156, 651464160, 2863601785, 2863601786, 295805463, 2439751947, 295805462, 651464172, 651464163], "tags": {"amenity": "arts_centre", "building": "yes", "height": "3", "name": "Pastor-K\u00f6nn-Aula", "name_alt": "Dr.-Joseph-K\u00f6nn-Aula", "roof:material": "tar_paper", "source": "photography"}}, {"type": "way", "id": 51078917, "nodes": [651593801, 651593837, 1252196355, 1252196342, 651593835, 1252196358, 1252196372, 651593779, 1252196364, 1252196329, 3097102245, 651593801], "tags": {"amenity": "studio", "building": "yes", "name": "Studio K\u00f6nig", "type": "video"}}, {"type": "way", "id": 76812035, "nodes": [2583505821, 2623226432, 2583505838, 2583505815, 2583505814, 2583505820, 2583505821], "tags": {"addr:city": "K\u00f6ln", "addr:country": "DE", "addr:housenumber": "60", "addr:postcode": "50672", "addr:street": "Hohenzollernring", "amenity": "cinema", "building": "yes", "building:levels": "5", "name": "Rex am Ring", "roof:shape": "flat", "website": "https://rex-koeln.de/kino/home/city191", "wikidata": "Q2147055", "wikipedia": "de:Rex Am Ring"}}, {"type": "way", "id": 86706045, "nodes": [2580629454, 2580629458, 7637452232, 2580629403, 7637452231, 2580629382, 2580629393, 2580629395, 2580629414, 2580629411, 2580629407, 2580629399, 2580629417, 2580629418, 2580629427, 2580629425, 2580629439, 2580629443, 2580629452, 2580629447, 2580629462, 2580629464, 2580629468, 2580629467, 2580629471, 7637452235, 2580629492, 7637452234, 2580629486, 2580629485, 2580629479, 2580629475, 2580629473, 2580629469, 2580629435, 2580629456, 2580629454], "tags": {"amenity": "community_centre", "building": "yes", "building:levels": "1", "name": "Qu\u00e4ker Nachbarschaftsheim / Norbert Burger B\u00fcrgerzentrum", "roof:shape": "flat"}}, {"type": "way", "id": 86706059, "nodes": [2580629490, 2580629470, 7637452250, 2580629458, 2580629454, 2580629473, 2580629475, 2580629479, 7637452233, 2580629490], "tags": {"addr:city": "K\u00f6ln", "addr:country": "DE", "addr:housenumber": "5-9", "addr:postcode": "50672", "addr:street": "Kreutzerstra\u00dfe", "amenity": "community_centre", "building": "yes", "building:levels": "3", "loc_name": "Norbert-Burger-B\u00fcrgerzentrum", "name": "Qu\u00e4ker Nachbarschaftsheim / Norbert Burger B\u00fcrgerzentrum", "roof:shape": "flat", "website": "https://www.quaeker-nbh.de/cms/asp/user.asp?client=quaeker_nachbarschaftsheim&cat1id=449"}}, {"type": "way", "id": 87638259, "nodes": [1019302617, 7638391615, 1019308009, 7638391616, 7638391617, 1019308008, 7638251297, 7638391618, 7638391619, 7638251300, 1019308004, 7638302155, 1019308007, 7638251296, 1019302636, 7638251298, 1019302617], "tags": {"addr:city": "K\u00f6ln", "addr:country": "DE", "addr:housenumber": "40", "addr:postcode": "50672", "addr:street": "Venloer Stra\u00dfe", "amenity": "arts_centre", "building": "yes", "building:levels": "1", "name": "Stadtgarten", "operator": "Stadtgarten Restaurant Betriebs GmbH", "phone": "+4922195299421", "toilets:wheelchair": "no", "website": "https://www.stadtgarten.de/", "wheelchair": "yes", "wikidata": "Q23041609"}}, {"type": "way", "id": 91994164, "nodes": [273910858, 1068697916, 1068697928, 1068697920, 1068697929, 1068697922, 1068697930, 1068697924, 1068697925, 1068697911, 1068697927, 1068697917, 273910858], "tags": {"amenity": "brothel", "barrier": "fence", "brothel:street_prostitution": "yes", "landuse": "commercial", "opening_hours": "Mo-Su 12:00-02:00", "source": "survey, bing", "wheelchair": "yes"}}, {"type": "way", "id": 123499949, "nodes": [2647274566, 2647274557, 2647274558, 2647274534, 2647274523, 2647274539, 2647274541, 2647274553, 2647274565, 2647274566], "tags": {"addr:city": "K\u00f6ln", "addr:country": "DE", "addr:housenumber": "255", "addr:postcode": "50939", "addr:street": "Luxemburger Stra\u00dfe", "amenity": "cinema", "building": "yes", "building:use": "residential;industrial", "name": "Wei\u00dfhaus", "source": "Bing;Aeroview", "website": "http://weisshaus-kino.de/", "wheelchair": "no", "wikidata": "Q34379857"}}, {"type": "way", "id": 124893413, "nodes": [2587001907, 2587001908, 2587001911, 2587001910, 2587001912, 2587001914, 2587001851, 2587001837, 2587001833, 2587001825, 2587001823, 2587001827, 2587001839, 2587001829, 2587001831, 2587001888, 2587001889, 2587001903, 2587001901, 2587001900, 2587001902, 2587001906, 2587001907], "tags": {"addr:city": "K\u00f6ln", "addr:country": "DE", "addr:housenumber": "20", "addr:postcode": "50678", "addr:street": "Kart\u00e4userwall", "amenity": "theatre", "building": "yes", "building:levels": "3", "building:use": "cultural", "name": "Altes Pfandhaus", "roof:shape": "mansard", "wheelchair": "limited", "wheelchair:description": "Bei vorheriger Anmeldung kann eine lange Rampe f\u00fcr leichte Aktivrollst\u00fchle bereit gestellt werden, um die ca. 15 Stufen zum Konzertraum zu \u00fcberwinden. Nur f\u00fcr leichte Rollst\u00fchle und nicht all zu schwere (angstfreie) Personen geeignet."}}, {"type": "way", "id": 126764298, "nodes": [1404416018, 1404416031, 1404416030, 1404416032, 1404416018], "tags": {"addr:city": "K\u00f6ln", "addr:country": "DE", "addr:housenumber": "43", "addr:postcode": "50677", "addr:street": "Elsa\u00dfstra\u00dfe", "amenity": "community_centre", "building": "yes", "community_centre": "youth_centre", "community_centre:for": "child;juvenile", "name": "Kinder- und Jugendzentrum Ganz offene T\u00fcr", "operator": "Caritasverband f\u00fcr die Stadt K\u00f6ln e.V.", "website": "https://caritas.erzbistum-koeln.de/koeln-cv/jugend_familie/got_elsassstrasse/"}}, {"type": "way", "id": 137817542, "nodes": [1511362779, 1511362773, 3322685027, 1511362776, 3322685028, 3322685029, 3322685031, 1511362780, 1511362779], "tags": {"amenity": "community_centre", "building": "chapel", "building:levels": "2", "building:roof:shape": "pyramidal", "name": "Kapellchen", "note": "Gemeinschaftsraum", "operator": "GAG"}}, {"type": "way", "id": 155114362, "nodes": [1675489955, 1675489944, 1675489960, 1675489976, 1675489955], "tags": {"addr:city": "K\u00f6ln", "addr:country": "DE", "addr:housenumber": "15", "addr:postcode": "51147", "addr:street": "Wilhelm-Ruppert-Stra\u00dfe", "addr:suburb": "Wahn", "amenity": "community_centre", "building": "yes", "building:levels": "1", "building:use": "public;residential", "name": "Pfarrheim", "roof:orientation": "along", "roof:shape": "gabled", "source": "HiRes aerial imagery"}}, {"type": "way", "id": 155329269, "nodes": [2667443646, 2667443649, 2667443650, 2667443647, 2667443648, 2667443644, 2667443643, 2667443642, 2667443641, 2667443645, 2667443646], "tags": {"addr:city": "K\u00f6ln", "addr:country": "DE", "addr:housenumber": "381", "addr:postcode": "50969", "addr:street": "H\u00f6ninger Weg", "amenity": "community_centre", "building": "yes", "community_centre:for": "child;juvenile", "name": "Kinder- und Jugendzentrum \"Eichi\"", "operator": "Jugendzentren K\u00f6ln gGmbH", "website": "http://eichi.jugz.de"}}, {"type": "way", "id": 156338476, "nodes": [1434856566, 1434856557, 2771168564, 1434856551, 1434856561, 2771168565, 1434856566], "tags": {"addr:city": "K\u00f6ln", "addr:country": "DE", "addr:housenumber": "1", "addr:postcode": "51147", "addr:street": "Burgallee", "addr:suburb": "Wahn", "amenity": "theatre", "building": "farm_auxiliary", "building:levels": "2", "building:use": "agricultural", "name": "Gut Eltzhof / Theatermuseum"}}, {"type": "way", "id": 160746522, "nodes": [2768721921, 2768721883, 2768721831, 2768721773, 2768721799, 2768721827, 2768722224, 2768721921], "tags": {"addr:city": "K\u00f6ln", "addr:country": "DE", "addr:housenumber": "200", "addr:postcode": "51147", "addr:street": "Frankfurter Stra\u00dfe", "addr:suburb": "Wahn", "amenity": "nightclub", "building": "yes", "building:levels": "1", "name": "Groove Bar & Lounge", "opening_hours": "We-Th 19:00-01:00, Fr-Sa 19:00-03:00", "operator": "Georg Schindler", "phone": "+49 2203 590707", "smoking": "outside", "website": "https://www.facebook.com/grooveporz", "wheelchair": "yes"}}, {"type": "way", "id": 162916908, "nodes": [3356653049, 3356653614, 3356653608, 3356653048, 3356653041, 3356652626, 3356652625, 3356653402, 3356653406, 3356639413, 3356639410, 3356652790, 3356652982, 3356653210, 3356653404, 3356653401, 3356653049], "tags": {"addr:city": "K\u00f6ln", "addr:country": "DE", "addr:postcode": "51063", "addr:street": "Raumannskaul", "amenity": "community_centre", "building": "yes", "building:levels": "1", "building:use": "gathering", "name": "Wassersportfreunde Neptun e. V. K\u00f6ln-M\u00fclheim", "source": "HiRes_aerial_imagery, survey"}}, {"type": "way", "id": 169665475, "nodes": [1808335765, 1808335760, 1808335761, 1808335767, 1808335765], "tags": {"addr:city": "K\u00f6ln", "addr:country": "DE", "addr:housenumber": "9-11", "addr:postcode": "51143", "addr:street": "Goethestra\u00dfe", "amenity": "community_centre", "building": "public", "building:levels": "2", "building:use": "public", "name": "Freie Evangelische Gemeinde"}}, {"type": "way", "id": 169669970, "nodes": [2192641133, 2192641137, 2192641146, 2192641149, 2192641148, 2546239721, 2192641153, 2192641155, 2192641165, 2192641167, 1871998518, 2192641175, 2192641176, 2192641178, 2546239723, 1808379814, 1808379813, 2546239716, 1808379806, 1808379809, 1808379807, 1808379808, 1808379805, 1808379810, 1808379812, 1808379811, 2192641133], "tags": {"addr:city": "K\u00f6ln", "addr:country": "DE", "addr:housenumber": "20", "addr:postcode": "51143", "addr:street": "Glash\u00fcttenstra\u00dfe", "amenity": "community_centre", "building": "yes", "building:levels": "3", "building:use": "gathering", "community_centre": "youth_centre", "community_centre:for": "child;juvenile", "description": "Jugend- und Gemeinschaftszentrum", "name": "Glash\u00fctte", "phone": "+49 2203 - 59 24 97", "website": "https://glashuette-porz.de/"}}, {"type": "way", "id": 174406838, "nodes": [2850274602, 2850274449, 2850274469, 2850274613, 2850274611, 2850274603, 2850274602], "tags": {"addr:city": "K\u00f6ln", "addr:country": "DE", "addr:housenumber": "65", "addr:postcode": "51105", "addr:street": "Poller Hauptstra\u00dfe", "amenity": "community_centre", "building": "yes", "building:levels": "4", "building:use": "gathering", "local_name": "Ahl-Poller-Schull", "name": "B\u00fcrgerzentrum Poll", "short_name": "APS", "wheelchair": "no"}}, {"type": "way", "id": 175594106, "nodes": [3562083251, 3562083243, 3562083246, 3562083203, 3595046952, 3562083079, 3562083064, 3562083051, 3562083056, 3562083055, 3562083209, 3562083210, 3562083215, 3562083222, 3562083214, 3562083218, 3562083227, 3562083251], "tags": {"addr:city": "K\u00f6ln", "addr:housenumber": "6-20", "addr:postcode": "51063", "addr:street": "Schanzenstra\u00dfe", "amenity": "theatre", "building": "yes", "building:levels": "4", "description": "Das Schauspiel K\u00f6ln befindet sich derzeit im Interim, das eigentliche Theater am Offenbachplatz wird zusammen mit der K\u00f6lner Oper seit 2012 saniert. Nach der Spielzeit 2012/2013 in der Expo am Gladbacher Wall 5 in K\u00f6ln zog das Schauspiel nach M\u00fclheim.", "email": "tickets@buehnenkoeln.de", "internet_access": "wlan", "name": "Schauspiel K\u00f6ln im Depot 1 und 2", "operator": "B\u00fchnen der Stadt K\u00f6ln", "start_date": "September 2013", "toilets:wheelchair": "yes", "website": "www.schauspiel.koeln", "wheelchair": "yes"}}, {"type": "way", "id": 176952369, "nodes": [1143496329, 8155291341, 703107030, 1716633090, 703107029, 1716632978, 1716633070, 2782230457, 1716633165, 1716633191, 1711871614, 1716633269, 1716633293, 1143496329], "tags": {"amenity": "arts_centre", "name": "B\u00fcrgerzentrum Engelshof", "official_name": "B\u00fcrgerzentrum Engelshof e.V.", "phone": "+49 2203 15216", "toilets:wheelchair": "yes", "website": "https://engelshof.net/", "wheelchair": "yes", "wikipedia": "de:Hofanlage Gut Engelshof (K\u00f6ln)"}}, {"type": "way", "id": 180728291, "nodes": [3562084100, 3562084080, 3562084074, 3562083888, 3562084016, 3562084055, 3562084115, 3562084118, 3562084100], "tags": {"addr:city": "K\u00f6ln", "addr:country": "DE", "addr:housenumber": "40", "addr:postcode": "51063", "addr:street": "Schanzenstra\u00dfe", "amenity": "arts_centre", "building": "yes", "building:levels": "3", "building:use": "leisure", "email": "info@koeln-event.de", "name": "Palladium", "note": "levels nur gesch\u00e4tzt!", "phone": "+49 221 9679-0", "source": "bing aerial", "website": "https://www.palladium-koeln.de/", "wheelchair": "yes", "wikidata": "Q15838136", "wikipedia": "de:Palladium (K\u00f6ln)"}}, {"type": "way", "id": 193167455, "nodes": [2036828000, 2036828022, 2036827999, 2036828018, 2036828000], "tags": {"addr:city": "K\u00f6ln", "addr:country": "DE", "addr:housenumber": "10", "addr:postcode": "51105", "addr:street": "An der Lenzwiese", "amenity": "community_centre", "building": "yes", "building:levels": "1", "building:use": "gathering", "operator": "SV Gremberg-Humboldt 60/62 e.V."}}, {"type": "way", "id": 198186258, "nodes": [2648793724, 2648793674, 2858944134, 2648793699, 2648793764, 2648793724], "tags": {"addr:city": "K\u00f6ln", "addr:country": "DE", "addr:housenumber": "27", "addr:postcode": "50668", "addr:street": "Gereonswall", "amenity": "brothel", "brothel:eros_center": "yes", "building": "yes", "building:levels": "4", "building:use": "residential;commercial", "email": "info@eros-center-bruehl.de", "name": "Haus 27 K\u00f6ln", "opening_hours": "Mo-Su 12:00-24:00", "phone": "+49 2232 1392652", "roof:orientation": "across", "roof:shape": "gabled", "website": "http://www.eros-center-bruehl.de/Haus27", "wheelchair": "no"}}, {"type": "way", "id": 198208448, "nodes": [2083714724, 2083714722, 2083714723, 2083714725, 2083714724], "tags": {"addr:city": "K\u00f6ln", "addr:country": "DE", "addr:housenumber": "67", "addr:postcode": "50677", "addr:street": "Merowingerstra\u00dfe", "amenity": "brothel", "brothel:club": "yes", "building": "commercial", "email": "kontakt@cesars-koeln.de", "name": "Cesar's Palast", "opening_hours": "Mo-Su 21:00-05:00", "phone": "+49 221 311645", "website": "http://www.cesars-koeln.de"}}, {"type": "way", "id": 216499550, "nodes": [3353073137, 3353073107, 3353073135, 3353073140, 3353073141, 3353073187, 3353073170, 3353073160, 3353073137], "tags": {"addr:city": "K\u00f6ln", "addr:country": "DE", "addr:housenumber": "18a", "addr:postcode": "50672", "addr:street": "Magnusstra\u00dfe", "amenity": "community_centre", "building": "yes", "building:use": "public"}}, {"type": "way", "id": 225109571, "nodes": [2339311082, 2339311112, 2535012689, 2339311139, 2339311106, 2339311082], "tags": {"addr:city": "K\u00f6ln", "addr:country": "DE", "addr:housenumber": "10", "addr:postcode": "50677", "addr:street": "Zugweg", "amenity": "theatre", "building": "apartments", "building:levels": "4", "building:use": "public;residential", "name": "Freies Werkstatt Theater", "roof:levels": "1", "roof:shape": "gambrel", "toilets:wheelchair": "yes", "website": "www.fwt-koeln.de", "wheelchair": "yes", "wikipedia": "de:Freies Werkstatt Theater K\u00f6ln"}}, {"type": "way", "id": 241437379, "nodes": [2402942422, 2490768700, 2490768699, 2402942421, 2402942283, 2402942284, 2490768695, 2490768697, 2490768698, 2536805874, 2402942422], "tags": {"addr:city": "K\u00f6ln", "addr:country": "DE", "addr:housenumber": "6a", "addr:postcode": "51149", "addr:street": "Stresemannstra\u00dfe", "amenity": "community_centre", "building": "yes", "building:use": "gathering", "name": "B\u00fcrgerzentrum Finkenberg"}}, {"type": "way", "id": 244403345, "nodes": [2882849845, 2882849846, 2882849848, 2882849849, 2882849851, 2882849850, 2882849855, 2882849854, 2882849853, 2882849852, 2882849839, 2882849840, 2882849837, 2882849838, 2882849841, 2882849842, 2882849843, 2882849844, 2882849845], "tags": {"addr:housenumber": "501", "addr:postcode": "51067", "addr:street": "Bergisch Gladbacher Stra\u00dfe", "alt_name": "Casiopeia Theater", "alt_name:1": "Cassiopeia B\u00fchne", "amenity": "theatre", "building": "yes", "building:levels": "1", "name": "Cassiopeia B\u00fchne & Cassiopeia Theater", "operator": "Cassiopeia B\u00fchen & Cassiopeia Theater", "roof:shape": "flat", "theatre:genre": "drama", "theatre:genre_1": "figure", "theatre:genre_2": "puppet", "website": "www.cassiopeia-buehne.de", "wheelchair": "yes", "wikipedia": "de:Cassiopeia Theater"}}, {"type": "way", "id": 246750122, "nodes": [3338567650, 3338567656, 3338567660, 3338567676, 3338567684, 3338567669, 3338567655, 2537507829, 2537507827, 2537507824, 562638797, 3668362983, 3338567650], "tags": {"addr:city": "K\u00f6ln", "addr:country": "DE", "addr:housename": "Kolbhalle", "addr:housenumber": "8-32", "addr:postcode": "50825", "addr:street": "Helmholtzstra\u00dfe", "amenity": "arts_centre", "building": "yes", "name": "Kolbhalle", "website": "https://www.facebook.com/Kolbhalle?fref=ts"}}, {"type": "way", "id": 247088399, "nodes": [2540260992, 2540261008, 2540261011, 2540261005, 2540260999, 2540261002, 2540260992], "tags": {"addr:city": "K\u00f6ln", "addr:country": "DE", "addr:housenumber": "8", "addr:postcode": "51065", "addr:street": "Galileistra\u00dfe", "alt_name": "Kinder- und Jugendeinrichtung Area51", "amenity": "community_centre", "building": "post_office", "community_centre": "youth_centre", "community_centre:for": "child;juvenile", "name": "Area51", "opening_hours": "Tu-Th 15:00-21:00", "operator": "Katholische Jugendwerke K\u00f6ln e.V.", "website": "https://www.kja-koeln.de/fachbereiche/offene_kinder_und_jugendarbeit/jugendeinrichtungen/area51/", "wheelchair": "limited"}}, {"type": "way", "id": 249733941, "nodes": [2563010538, 2563010525, 2563010519, 2563010532, 2563010527, 2563010529, 2563010538], "tags": {"addr:city": "K\u00f6ln", "addr:country": "DE", "addr:housenumber": "4", "addr:postcode": "51063", "addr:street": "Hafenstra\u00dfe", "amenity": "community_centre", "building": "yes", "name": "The New Yorker Harbour Club", "phone": "+49 (0)221 4733 - 0", "source": "NRW Geobasis ALK 2013", "website": "https://www.harbour-club.de/"}}, {"type": "way", "id": 252685358, "nodes": [2587213079, 2587213077, 2587213074, 7030998200, 2587213071, 2587213070, 2587213069, 2587213072, 2587213073, 5963805027, 5963805034, 2587213076, 2587213075, 2587213078, 2587213081, 2587213080, 7030998199, 7030998209, 2587213084, 2587213082, 2587213083, 2587213079], "tags": {"addr:city": "K\u00f6ln", "addr:country": "DE", "addr:housename": "B\u00fcrgerhaus Stollwerck", "addr:housenumber": "23", "addr:postcode": "50678", "addr:street": "Dreik\u00f6nigenstra\u00dfe", "amenity": "community_centre", "building": "public", "capacity": "600", "int_name": "B\u00fcrgerzentrum Stollwerck", "name": "B\u00fcrgerhaus Stollwerck", "source": "survey", "toilets:wheelchair": "yes", "website": "http://www.buergerhaus-stollwerck.de", "wheelchair": "yes", "wikidata": "Q99518998"}}, {"type": "way", "id": 257509126, "nodes": [2630138589, 2630138581, 2630138568, 2630138573, 2630138574, 2630138579, 2630138580, 2630138589], "tags": {"addr:city": "K\u00f6ln", "addr:country": "DE", "addr:housenumber": "20", "addr:postcode": "50825", "addr:street": "Dechenstra\u00dfe", "amenity": "arts_centre", "building": "apartments", "building:use": "residential", "name": "Phoenix Kultur- und Integrationszentrum", "source": "photography", "website": "https://phoenix-cologne.com/html/de/zentrum_dt.shtml"}}, {"type": "way", "id": 259729874, "nodes": [1345580860, 1345580861, 1345580858, 1345580846, 1338523485, 1338523483, 1338523471, 283849752, 1338523473, 1338523474, 283849749, 1345580817, 1338523479, 1345580821, 1345580822, 1345580825, 2567241167, 1345580829, 1345580831, 2567241228, 2567241247, 1345580834, 1345580835, 1345580838, 1345580844, 1345580851, 1345580852, 1345580854, 1345580857, 1345580860], "tags": {"addr:city": "K\u00f6ln", "addr:housenumber": "3", "addr:postcode": "50670", "addr:street": "Melchiorstra\u00dfe", "amenity": "community_centre", "image": "File:K\u00f6ln-Neustadt-Nord Alte Feuerwache 2.jpg", "logo": "File:Altefeuerwachelogo.jpg", "name": "B\u00fcrgerzentrum Alte Feuerwache", "phone": "+49 221 9731550", "toilets:wheelchair": "yes", "website": "https://www.altefeuerwachekoeln.de/", "wheelchair": "yes", "wikidata": "Q15106414", "wikimedia_commons": "Category:Alte Feuerwache (K\u00f6ln)", "wikipedia": "de:Alte Feuerwache (K\u00f6ln)"}}, {"type": "way", "id": 260573286, "nodes": [2660974690, 2660974668, 2660974676, 2660974682, 2660974683, 2660974697, 2660974695, 2660974701, 2660974690], "tags": {"addr:city": "K\u00f6ln", "addr:country": "DE", "addr:housenumber": "10", "addr:postcode": "50739", "addr:street": "Hugo-Junkers-Stra\u00dfe", "amenity": "brothel", "brothel:saunaclub": "yes", "building": "yes", "building:use": "industrial", "email": "post@club-mondial.de", "name": "Club Mondial", "opening_hours": "Mo-Sa 11:00-01:00, Su 13:00-01:00", "phone": "+49 221 97998888", "website": "https://www.club-mondial.de/"}}, {"type": "way", "id": 261432914, "nodes": [2670478096, 2670478078, 2670478071, 2670478069, 2670478050, 2670478049, 2670478048, 2670478047, 2670478094, 2670478096], "tags": {"addr:city": "K\u00f6ln", "addr:country": "DE", "addr:housenumber": "1", "addr:postcode": "50969", "addr:street": "Rosenzweigweg", "amenity": "community_centre", "building": "yes", "building:use": "public", "name": "B\u00fcrgerhaus Zollstock"}}, {"type": "way", "id": 266925659, "nodes": [2880119568, 2880119527, 2880119552, 2880119593, 2880119568], "tags": {"addr:city": "K\u00f6ln", "addr:country": "DE", "addr:housenumber": "233w", "addr:postcode": "50679", "addr:street": "Siegburger Stra\u00dfe", "amenity": "theatre", "building": "yes", "building:levels": "1", "email": "info@theater-der-keller.de", "name": "Theater der Keller", "phone": "+49 221 27220990", "website": "https://www.theater-der-keller.de"}}, {"type": "way", "id": 282449371, "nodes": [2863774926, 2863774933, 2863774928, 2863774924, 2863774923, 2863774914, 2863774916, 2863774927, 2863774926], "tags": {"addr:city": "K\u00f6ln", "addr:country": "DE", "addr:housenumber": "80", "addr:postcode": "50668", "addr:street": "Eintrachtstra\u00dfe", "alt_name": "E80", "amenity": "brothel", "brothel:eros_center": "yes", "building": "commercial", "building:levels": "4", "email": "info@eros-center-bruehl.de", "name": "Haus 80 K\u00f6ln", "opening_hours": "Mo-Su 12:00-01:00", "phone": "+49 2232 1390515", "roof:orientation": "across", "roof:shape": "gabled", "website": "http://www.eros-center-bruehl.de/Haus80", "wheelchair": "yes"}}, {"type": "way", "id": 282747729, "nodes": [2866834286, 2866834283, 2866834271, 2866834268, 2866834259, 2866834282, 2866834286], "tags": {"addr:city": "K\u00f6ln", "addr:country": "DE", "addr:housenumber": "21", "addr:postcode": "50670", "addr:street": "Probsteigasse", "amenity": "theatre", "building": "yes", "building:levels": "3", "building:use": "residential;industrial", "name": "Erstes K\u00f6lner Wohnzimmertheater", "phone": "+49 221 / 130 07 07", "roof:orientation": "across", "roof:shape": "gabled", "website": "http://www.wohnzimmertheater.de/", "wikidata": "Q15445339", "wikipedia": "de:Martin Zingsheim"}}, {"type": "way", "id": 287016879, "nodes": [2906873059, 2906873065, 2906873108, 2906873095, 2906873090, 2906872311, 2906873093, 2906873064, 2906872973, 2906873015, 2906873005, 2906873033, 2906873059], "tags": {"addr:city": "K\u00f6ln", "addr:country": "DE", "addr:housenumber": "1b", "addr:postcode": "51107", "addr:street": "Im Wasserblech", "amenity": "community_centre", "building": "community_centre", "building:levels": "1", "building:use": "religious", "deanery": "Evangelischer Kirchenkreis K\u00f6ln-Rechtsrheinisch", "denomination": "protestant", "diocese": "Evangelische Kirche im Rheinland", "name": "Gemeindezentrum Rath", "parish": "Evangelische Kirchengemeinde K\u00f6ln Rath-Ostheim", "religion": "christian", "website": "https://www.kirchengemeinde-rath-ostheim.de/"}}, {"type": "way", "id": 291664467, "nodes": [2951304982, 2951304995, 2951305038, 2951305029, 2951304982], "tags": {"addr:city": "K\u00f6ln", "addr:country": "DE", "addr:housenumber": "119", "addr:postcode": "51063", "addr:street": "Clevischer Ring", "amenity": "nightclub", "building": "yes", "building:levels": "2", "name": "Valhalla Metal Club", "wheelchair": "no"}}, {"type": "way", "id": 291859633, "nodes": [3447347262, 3447347261, 3447347260, 3447347256, 3447347257, 3447347259, 3447347258, 3447347263, 3447347262], "tags": {"addr:city": "K\u00f6ln", "addr:country": "DE", "addr:housenumber": "126", "addr:postcode": "50735", "addr:street": "Boltensternstra\u00dfe", "amenity": "community_centre", "building": "yes", "building:use": "public;residential", "community_centre:for": "juvenile", "name": "Kinder- und Jugendhaus"}}, {"type": "way", "id": 294582449, "nodes": [2981740632, 2981740629, 2981740628, 2981740621, 2981740620, 2981740559, 2981740564, 2981740624, 2981740623, 2981740636, 2981740632], "tags": {"addr:city": "K\u00f6ln", "addr:country": "DE", "addr:housenumber": "20", "addr:postcode": "50765", "addr:street": "Martinusstra\u00dfe", "amenity": "community_centre", "building": "yes", "building:levels": "1", "building:use": "residential", "name": "Martiunshaus"}}, {"type": "way", "id": 296533289, "nodes": [3003241356, 3003241337, 3003241334, 3003241349, 3003241354, 3003241356], "tags": {"amenity": "community_centre", "building": "yes", "building:levels": "1"}}, {"type": "way", "id": 296533291, "nodes": [3003241349, 3003241334, 3003241326, 3003241324, 3003241345, 3003241347, 3003241349], "tags": {"amenity": "community_centre", "building": "yes", "building:levels": "1"}}, {"type": "way", "id": 296533293, "nodes": [3003241326, 3003241303, 3003241300, 3003241352, 3003241348, 3003241346, 3003241322, 3003241324, 3003241326], "tags": {"amenity": "community_centre", "building": "yes", "building:levels": "2", "roof:shape": "gabled"}}, {"type": "way", "id": 296533294, "nodes": [3003241416, 3301107214, 3003241411, 3003241410, 3003241389, 3003241392, 3003241407, 3003241406, 3301107215, 3003241415, 3003241416], "tags": {"amenity": "community_centre", "building": "yes", "building:levels": "1"}}, {"type": "way", "id": 300558483, "nodes": [3046323772, 3046323774, 3046323773, 3046323769, 3046323764, 3046323761, 3046323736, 3046323739, 3046323738, 3046323735, 3046323737, 3046323529, 3046323528, 3046323527, 3046323525, 3046323524, 3046323523, 3046323518, 3046323512, 3046323510, 3046323501, 3046323503, 3046323508, 3046323511, 3046323515, 3046323519, 6139277419, 3046323753, 3046323751, 3046323747, 3046323748, 6139277418, 6139277417, 6139277416, 6139277415, 6139277414, 6139277413, 6139277412, 3046323792, 3046323793, 3046323794, 3046323798, 3046323795, 3046323796, 3046323799, 3046323800, 3046323804, 3046323805, 3046323806, 3046323808, 3046323811, 3046323810, 3046323809, 3046323807, 3046323802, 3046323803, 3046323801, 3046323790, 3046323784, 3046323783, 3046323772], "tags": {"addr:city": "K\u00f6ln", "addr:country": "DE", "addr:housenumber": "1", "addr:postcode": "50765", "addr:street": "Pariser Platz", "amenity": "community_centre", "building": "yes", "building:levels": "4", "building:use": "public", "name": "B\u00fcrgerzentrum Chorweiler"}}, {"type": "way", "id": 301081420, "nodes": [3051898406, 3051898401, 3051898400, 3051898392, 3051898373, 3051898385, 3051898386, 3051898390, 3051898406], "tags": {"addr:city": "K\u00f6ln", "addr:country": "DE", "addr:housenumber": "75", "addr:postcode": "51103", "addr:street": "Burgstra\u00dfe", "amenity": "community_centre", "building": "community_centre", "building:levels": "3", "building:use": "religious", "deanery": "Evangelischer Kirchenkreis K\u00f6ln-Rechtsrheinisch", "denomination": "protestant", "diocese": "Evangelische Kirche im Rheinland", "name": "Gemeindezentrum Erl\u00f6serkirche", "parish": "Evangelische Kirchengemeinde Vingst-Neubr\u00fcck-H\u00f6henberg", "religion": "christian", "website": "http://neubrueck.kirchekoeln.de/"}}, {"type": "way", "id": 303272081, "nodes": [3076240086, 3076239726, 3076239910, 3076239702, 3076240086], "tags": {"addr:city": "K\u00f6ln", "addr:country": "DE", "addr:housenumber": "34", "addr:postcode": "51107", "addr:street": "Buchheimer Weg", "amenity": "community_centre", "building": "yes", "building:levels": "2", "building:use": "religious", "community_centre": "parish_hall", "community_centre:for": "religious"}}, {"type": "way", "id": 315192239, "nodes": [3212905708, 3212905722, 3212905729, 3212905733, 3212905726, 3212905718, 3212905708], "tags": {"addr:city": "K\u00f6ln", "addr:country": "DE", "addr:housenumber": "24", "addr:postcode": "50733", "addr:street": "Kempener Stra\u00dfe", "amenity": "theatre", "building": "yes", "name": "Zauberschule & Theater", "toilets": "yes"}}, {"type": "way", "id": 319063368, "nodes": [3254824908, 3254824907, 3254824909, 3254824906, 3254824888, 3254824886, 3254824883, 3254824884, 3254824885, 3254824908], "tags": {"addr:city": "K\u00f6ln", "addr:country": "DE", "addr:housenumber": "6", "addr:postcode": "50735", "addr:street": "An der Schanz", "amenity": "arts_centre", "building": "yes", "name": "ZAK ZIRKUS- UND ARTISTIKZENTRUM K\u00d6LN", "url": "https://tpzak.de"}}, {"type": "way", "id": 328540500, "nodes": [3353673762, 3353673842, 3353673766, 3353673767, 3353673770, 3353673769, 3353673867, 3353673869, 3353673872, 3353673871, 3353673908, 3353673916, 3353673899, 3353673898, 3353673895, 3353673897, 3353673860, 3353673859, 3353673854, 3353673856, 3353673762]}, {"type": "way", "id": 330567941, "nodes": [3375324499, 2606202169, 3375324496, 3375324495, 3375324497, 3375324498, 3375324499], "tags": {"amenity": "brothel", "brothel:street_prostitution": "yes", "caravans": "yes", "name": "Wohnwagenstra\u00dfenstrich", "wheelchair": "no"}}, {"type": "way", "id": 334084497, "nodes": [3411732070, 3411732071, 3411732063, 3411732060, 3411732053, 3411732052, 3411732058, 3411732059, 3450991100, 3411732034, 3411732033, 260691311, 4378934308, 3411732448, 3411732449, 260691312, 3411732039, 3411732038, 3450991099, 3411732228, 3411732227, 3411732225, 3411732224, 3411732213, 3411732210, 3411732208, 3411732205, 3411732204, 3411732202, 3411732200, 3411732090, 3411732088, 3411732087, 3411732086, 3411732084, 3411732078, 3411732075, 3411732073, 3411732070], "tags": {"amenity": "theatre", "building": "yes", "building:use": "cultural", "name": "G\u00fcrzenich", "toilets:wheelchair": "yes", "website": "http://www.koelnkongress.de/wDeutsch/locations/guerzenich/index.php", "wheelchair": "limited", "wikidata": "Q153450", "wikipedia": "de:G\u00fcrzenich"}}, {"type": "way", "id": 338698889, "nodes": [3458275889, 7766431457, 7766431458, 2586915748, 2586915752, 2586915742, 2586915737, 3458275832, 3458275817, 3458275889], "tags": {"addr:city": "K\u00f6ln", "addr:country": "DE", "addr:housenumber": "5", "addr:postcode": "50825", "addr:street": "Gr\u00fcner Weg", "amenity": "theatre", "building": "yes", "building:levels": "5", "building:use": "residential", "name": "K\u00f6lner K\u00fcnstler Theater", "roof:shape": "flat", "website": "http://www.k-k-t.de/", "wikidata": "Q58850028"}}, {"type": "way", "id": 344966782, "nodes": [3516845105, 3516845104, 3516845103, 3516845107, 3516845110, 3516845109, 3516845114, 3516845117, 3516845115, 3516845116, 3516845113, 3516845112, 3534376499, 3516845111, 3516845108, 3516845106, 3516845105], "tags": {"addr:city": "K\u00f6ln", "addr:country": "DE", "addr:housenumber": "87", "addr:postcode": "50823", "addr:street": "Hornstra\u00dfe", "alt_name": "Eros Center K\u00f6ln", "amenity": "brothel", "brothel:eros_center": "yes", "building": "yes", "building:use": "residential;industrial", "name": "Das Bordell", "opening_hours": "Mo-Su 10:00-06:00", "phone": "+49 221 17741", "source": "bing", "website": "http://www.eroscenter-koeln.de", "wheelchair": "yes"}}, {"type": "way", "id": 374817708, "nodes": [3781973346, 3781973345, 3781973344, 3781973343, 3781973346], "tags": {"amenity": "brothel", "brothel:street_prostitution": "yes", "caravans": "yes", "name": "Wohnwagenstra\u00dfenstrich", "wheelchair": "no"}}, {"type": "way", "id": 374818078, "nodes": [3781928951, 3781928953, 3781928952, 3781928950, 3781928951], "tags": {"amenity": "brothel", "brothel:street_prostitution": "yes", "caravans": "yes", "name": "Wohnwagenstra\u00dfenstrich", "wheelchair": "no"}}, {"type": "way", "id": 374818079, "nodes": [3781975357, 3781928956, 3781928955, 3781928954, 3781975357], "tags": {"amenity": "brothel", "brothel:street_prostitution": "yes", "caravans": "yes", "name": "Wohnwagenstra\u00dfenstrich", "wheelchair": "no"}}, {"type": "way", "id": 391770170, "nodes": [3423049091, 3423049072, 3423049137, 3423049135, 3423048692, 3423048687, 3423048673, 3423049046, 3423049058, 3423048666, 3423048679, 3423048684, 3423049095, 3423049106, 3423049113, 3423049116, 3423049134, 3423049091], "tags": {"addr:city": "K\u00f6ln", "addr:country": "DE", "addr:housenumber": "1a", "addr:postcode": "51107", "addr:street": "Ruppiner Stra\u00dfe", "amenity": "community_centre", "community_centre": "youth_centre", "community_centre:for": "child;juvenile", "name": "Haus der Offenen T\u00fcr Ostheim", "website": "https://www.ot-ostheim.de/"}}, {"type": "way", "id": 391784815, "nodes": [297187863, 3950346357, 3950345156, 3950346359, 3950346358, 3950346360, 3950346361, 3950346362, 3950346364, 3950346363, 3950345150, 3950345152, 3950345153, 297187863], "tags": {"amenity": "community_centre", "community_centre": "youth_centre", "community_centre:for": "child;juvenile", "name": "K\u00f6lner Jugendpark", "website": "https://koelner-jugendpark.eu/"}}, {"type": "way", "id": 392081339, "nodes": [348275499, 3953518687, 3953518686, 3953518681, 348275499], "tags": {"addr:city": "K\u00f6ln", "addr:country": "DE", "addr:housenumber": "84a", "addr:postcode": "51069", "addr:street": "Auguste-Kowalski-Stra\u00dfe", "amenity": "community_centre", "community_centre:for": "child;juvenile", "name": "Am Donewald - OT Henry's H.O.P.E.", "operator": "Christliche Sozialhilfe K\u00f6ln e.V.", "phone": "+49 221 279 4699", "website": "http://www.henry-maske-stiftung.de/seite/ansicht/4/5/0/gesponsorte-projekte"}}, {"type": "way", "id": 392082985, "nodes": [26557798, 3953534594, 3953534596, 333777171, 26557798], "tags": {"addr:city": "K\u00f6ln", "addr:country": "DE", "addr:housenumber": "32", "addr:postcode": "51061", "addr:street": "Paulinenhofstra\u00dfe", "amenity": "community_centre", "community_centre": "youth_centre", "community_centre:for": "child;juvenile", "max_age": "20", "min_age": "9", "name": "Jugendzentrum Pauline", "operator": "Jugendzentren K\u00f6ln gemeinn\u00fctzige Betriebsgesellschaft mbH", "phone": "+49-221-666837", "website": "http://pauline.jugz.de/info/"}}, {"type": "way", "id": 392094091, "nodes": [3953644309, 2382134768, 2382134757, 3953644310, 3953644308, 3953644307, 3953644309], "tags": {"addr:city": "K\u00f6ln", "addr:country": "DE", "addr:housenumber": "29", "addr:postcode": "50767", "addr:street": "Krombachweg", "amenity": "community_centre", "community_centre": "circus", "community_centre:for": "child;juvenile", "max_age": "28", "min_age": "5", "name": "Kinder- und Jugendcircus Linoluckynelli", "operator": "Soziales Zentrum Lino-Club e.V.", "website": "http://www.lino-club.de/linoluckynelli.html", "website:operator": "http://gemeinden.erzbistum-koeln.de/pfarrverband_longerich_lindweiler/pfarrverband/einrichtungen/Lino-Club/zirkus.html"}}, {"type": "way", "id": 817151872, "nodes": [7631810332, 7631810333, 7631810334, 7631810335, 7631810332], "tags": {"amenity": "theatre", "building": "school", "description": "Aula"}}, {"type": "way", "id": 817789258, "nodes": [867011368, 7637452249, 2580629470, 7637452250, 7637452251, 1665843958, 1665843950, 7637452252, 867011368], "tags": {"amenity": "community_centre", "name": "Qu\u00e4ker Nachbarschaftsheim"}}, {"type": "way", "id": 817873338, "nodes": [7638251313, 7638251314, 7638251315, 7638251316, 7638251313], "tags": {"amenity": "theatre", "building": "roof"}}, {"type": "relation", "id": 4595998, "members": [{"type": "way", "ref": 328540500, "role": "inner"}, {"type": "way", "ref": 23574603, "role": "outer"}], "tags": {"addr:city": "K\u00f6ln", "addr:country": "DE", "addr:housenumber": "7", "addr:postcode": "50667", "addr:street": "An der Rechtschule", "amenity": "arts_centre", "building": "yes", "building:colour": "firebrick", "building:material": "brick", "building:use": "cultural", "email": "info@museenkoeln.de", "heritage": "8", "heritage:operator": "UntereDenkmalbeh\u00f6rde", "heritage:ref": "4969", "historic": "heritage", "image": "https://commons.wikimedia.org/wiki/File:Museum_f%C3%BCr_Angewandte_Kunst_K%C3%B6ln_-_Schild_am_Eingang_%287107-09%29.jpg", "name": "Museum f\u00fcr Angewandte Kunst", "name:de": "Museum f\u00fcr Angewandte Kunst", "name:en": "Museum of Applied Art", "name:fr": "Mus\u00e9e des arts appliqu\u00e9s", "opening_hours": "Mo off; Tu-Su, PH 10:00-18:00; Th[1] 10:00-22:00 \"K\u00f6lntag\"; Dec24, Dec 25, Dec 31, Jan 01 off || \"Karneval (Weiberfastnacht bis Karnevalsdienstag) geschlossen\"", "phone": "+49 221 22127380", "ref:isil": "DE-MUS-078617", "tourism": "museum", "type": "multipolygon", "website": "https://makk.de/", "wheelchair": "limited", "wikidata": "Q877567", "wikipedia": "de:Museum f\u00fcr Angewandte Kunst K\u00f6ln"}}]}