{"version": 0.6, "generator": "Overpass API 0.7.56.7 b85c4387", "osm3s": {"timestamp_osm_base": "2020-12-30T23:29:03Z", "copyright": "The data included in this document is from www.openstreetmap.org. The data is made available under ODbL."}, "elements": [{"type": "node", "id": 54020544, "lat": 50.9313358, "lon": 6.9369729, "tags": {"addr:city": "K\u00f6ln", "addr:housenumber": "30", "addr:postcode": "50674", "addr:street": "Rathenauplatz", "amenity": "biergarten", "cuisine": "german", "name": "Biergarten Rathenauplatz Veedelstreff", "outdoor_seating": "yes", "website": "https://www.rathenauplatz.de/", "wheelchair": "yes"}}, {"type": "node", "id": 74885422, "lat": 50.943547, "lon": 6.9337196}, {"type": "node", "id": 76474228, "lat": 50.9435659, "lon": 6.9336541}, {"type": "node", "id": 82773188, "lat": 50.9328004, "lon": 6.9637394}, {"type": "node", "id": 136733374, "lat": 50.9434711, "lon": 6.9299907}, {"type": "node", "id": 243975720, "lat": 50.9570594, "lon": 6.9115847, "tags": {"addr:city": "K\u00f6ln", "addr:housenumber": "31", "addr:postcode": "50825", "addr:street": "Hackl\u00e4nderstra\u00dfe", "amenity": "bar", "name": "Hauser's", "note": "Gastronomie", "source": "survey"}}, {"type": "node", "id": 246763435, "lat": 50.9684636, "lon": 6.9490882, "tags": {"amenity": "biergarten", "name": "Potpourri", "source": "survey", "toilets:wheelchair": "yes", "wheelchair": "yes"}}, {"type": "node", "id": 249318706, "lat": 50.94188, "lon": 6.9591113}, {"type": "node", "id": 249318711, "lat": 50.9419446, "lon": 6.9589628}, {"type": "node", "id": 249318718, "lat": 50.9419465, "lon": 6.958735}, {"type": "node", "id": 249755600, "lat": 51.0567441, "lon": 6.8512195, "tags": {"amenity": "biergarten", "name": "Krebelshof", "opening_hours": "\"geschlossen\"", "source": "survey"}}, {"type": "node", "id": 267349269, "lat": 50.9418822, "lon": 6.959109}, {"type": "node", "id": 267876460, "lat": 50.9472988, "lon": 6.9167527, "tags": {"addr:city": "K\u00f6ln", "addr:housenumber": "140", "addr:postcode": "50823", "addr:street": "Vogelsanger Stra\u00dfe", "amenity": "bar", "name": "H\u00e4ngende G\u00e4rten von Ehrenfeld", "opening_hours": "Th-Su 20:00-02:00, Fr-Sa 20:00-04:00", "phone": "+49 221 589233", "smoking": "outside", "website": "http://www.haengendegaerten.de/", "wheelchair": "no"}}, {"type": "node", "id": 285563259, "lat": 50.9426869, "lon": 6.9354462}, {"type": "node", "id": 286420724, "lat": 50.9294748, "lon": 6.9380873, "tags": {"addr:city": "K\u00f6ln", "addr:country": "DE", "addr:housenumber": "11", "addr:postcode": "50674", "addr:street": "Z\u00fclpicher Stra\u00dfe", "amenity": "bar", "name": "Umbruch", "operator": "Lutz Persel", "wheelchair": "no"}}, {"type": "node", "id": 287223905, "lat": 50.9258256, "lon": 6.9656214, "tags": {"amenity": "biergarten", "source": "photography"}}, {"type": "node", "id": 288463354, "lat": 50.9811296, "lon": 7.0242762, "tags": {"amenity": "biergarten", "wheelchair": "yes"}}, {"type": "node", "id": 290666538, "lat": 50.9212621, "lon": 6.9468206}, {"type": "node", "id": 290666539, "lat": 50.9213458, "lon": 6.9468445}, {"type": "node", "id": 290666541, "lat": 50.9214833, "lon": 6.9466651}, {"type": "node", "id": 290666946, "lat": 50.921221, "lon": 6.9467608}, {"type": "node", "id": 290666947, "lat": 50.9214273, "lon": 6.9467836}, {"type": "node", "id": 295998166, "lat": 50.940592, "lon": 6.9738921}, {"type": "node", "id": 295998169, "lat": 50.9405937, "lon": 6.9738354}, {"type": "node", "id": 295998176, "lat": 50.9404025, "lon": 6.9738243}, {"type": "node", "id": 322797145, "lat": 50.9289262, "lon": 6.939284, "tags": {"addr:city": "K\u00f6ln", "addr:housenumber": "24", "addr:postcode": "50674", "addr:street": "Kyffh\u00e4userstra\u00dfe", "amenity": "bar", "name": "Furchtbar", "phone": "+49-221-9231160", "smoking": "yes", "website": "http://www.furchtbar.de", "wheelchair": "limited"}}, {"type": "node", "id": 324404117, "lat": 50.9963429, "lon": 7.0359251, "tags": {"amenity": "biergarten", "wheelchair": "yes"}}, {"type": "node", "id": 336359469, "lat": 50.9418703, "lon": 6.9590999}, {"type": "node", "id": 338579822, "lat": 50.9289236, "lon": 6.936094, "tags": {"addr:city": "K\u00f6ln", "addr:housenumber": "30", "addr:postcode": "50674", "addr:street": "Meister-Gerhard-Stra\u00dfe", "amenity": "bar", "contact:email": "cologne@louis-breakfast.de", "contact:facebook": "https://www.facebook.com/Saint-Louis-K%C3%B6ln-658962157466603/", "contact:instagram": "https://www.instagram.com/louis_breakfast/", "contact:phone": "+49 221 16842810", "contact:website": "https://www.louis-breakfast.de/", "cuisine": "breakfast", "name": "Louis - The Breakfast Club", "wheelchair": "yes"}}, {"type": "node", "id": 342793553, "lat": 51.0014733, "lon": 6.9914679, "tags": {"amenity": "biergarten", "created_by": "Potlatch 0.10f", "name": "Zur Linde"}}, {"type": "node", "id": 343578781, "lat": 50.9703865, "lon": 7.0082034, "tags": {"addr:city": "K\u00f6ln", "addr:country": "DE", "addr:housenumber": "27", "addr:postcode": "51063", "addr:street": "Berliner Stra\u00dfe", "amenity": "bar", "name": "Bei \u0130S\u0130", "source": "survey"}}, {"type": "node", "id": 345175310, "lat": 50.9286363, "lon": 6.9381717, "tags": {"addr:city": "K\u00f6ln", "addr:country": "DE", "addr:housenumber": "39", "addr:postcode": "50674", "addr:street": "Kyffh\u00e4userstra\u00dfe", "amenity": "bar", "leisure": "amusement_arcade", "name": "Meltdown", "old_name": "Cave", "opening_hours": "Mo-Su 18:00+", "sport": "e_sport", "start_date": "2016-01-30", "strapline": "esports bars", "tv": "yes", "website": "https://www.meltdown.bar/cologne", "wheelchair": "no"}}, {"type": "node", "id": 356175401, "lat": 50.9287886, "lon": 6.939786, "tags": {"addr:city": "K\u00f6ln", "addr:country": "DE", "addr:housenumber": "17", "addr:postcode": "50674", "addr:street": "Kyffh\u00e4userstra\u00dfe", "amenity": "bar", "name": "Pacific Bar", "phone": "+49 221 9231160", "website": "https://www.pacificbar.de/", "wheelchair": "limited"}}, {"type": "node", "id": 362940567, "lat": 50.9297832, "lon": 6.9393588, "tags": {"addr:housenumber": "11", "addr:street": "Z\u00fclpicher Platz", "amenity": "bar", "name": "Roter Platz", "wheelchair": "limited"}}, {"type": "node", "id": 363841991, "lat": 50.9355208, "lon": 6.9591367, "tags": {"amenity": "bar", "name": "1460", "website": "https://www.14hundert60.de/"}}, {"type": "node", "id": 364174350, "lat": 50.8564036, "lon": 7.083632, "tags": {"amenity": "biergarten", "name": "Eltzhof", "toilets:wheelchair": "yes", "wheelchair": "limited"}}, {"type": "node", "id": 367949188, "lat": 51.0167541, "lon": 7.0065606, "tags": {"amenity": "biergarten"}}, {"type": "node", "id": 367975297, "lat": 50.9967463, "lon": 7.0374073, "tags": {"amenity": "bar", "name": "Liga Loco", "wheelchair": "yes"}}, {"type": "node", "id": 413028093, "lat": 50.9375908, "lon": 6.947408, "tags": {"amenity": "bar", "name": "Marx's Winebar", "source": "photography", "toilets:wheelchair": "yes", "wheelchair": "limited"}}, {"type": "node", "id": 425836301, "lat": 50.949818, "lon": 6.9231055, "tags": {"addr:city": "K\u00f6ln", "addr:housenumber": "65", "addr:postcode": "50823", "addr:street": "K\u00f6rnerstra\u00dfe", "amenity": "bar", "name": "Nachtigall", "opening_hours": "Tu-Th 18:00-01:00, Fr,Sa 20:00-05:00", "toilets:wheelchair": "no", "website": "http://nachtigall-ehrenfeld.de/", "wheelchair": "limited"}}, {"type": "node", "id": 427539908, "lat": 50.9382278, "lon": 6.9620657, "tags": {"addr:postcode": "50667", "amenity": "bar", "name": "Sonderbar", "opening_hours": "Mo-Su 17:00-03:00", "phone": "+49 221 2577857", "website": "http://sonderbar-koeln.de"}}, {"type": "node", "id": 435136644, "lat": 50.9269986, "lon": 6.9396066, "tags": {"addr:city": "K\u00f6ln", "addr:country": "DE", "addr:housenumber": "43", "addr:postcode": "50674", "addr:street": "Luxemburger Stra\u00dfe", "amenity": "bar", "name": "Little Lui", "smoking": "no", "website": "https://www.facebook.com/LittleLuiCologne"}}, {"type": "node", "id": 441240854, "lat": 50.9314558, "lon": 6.9348679, "tags": {"addr:city": "K\u00f6ln", "addr:housenumber": "22", "addr:postcode": "50674", "addr:street": "Rathenauplatz", "amenity": "bar", "email": "info@hotelux.de", "name": "KGB Bar", "operator": "HoteLux GmbH", "outdoor_seating": "yes", "phone": "+49221 20538796", "phone_1": "+49 177 4299684", "smoking": "no", "website": "https://www.hotelux.de/", "wheelchair": "no"}}, {"type": "node", "id": 441632086, "lat": 50.9414488, "lon": 6.9351795, "tags": {"amenity": "bar", "name": "Barracuda Bar"}}, {"type": "node", "id": 442702969, "lat": 50.9246528, "lon": 6.9593141, "tags": {"addr:city": "K\u00f6ln", "addr:country": "DE", "addr:housenumber": "5", "addr:postcode": "50678", "addr:street": "An der Eiche", "amenity": "bar", "name": "678", "website": "https://www.facebook.com/678BAR/"}}, {"type": "node", "id": 444552400, "lat": 50.9298363, "lon": 6.9397766, "tags": {"amenity": "bar", "name": "Flotte", "source": "local knowledge", "toilets:wheelchair": "no", "website": "https://www.dieflotte.de/", "wheelchair": "yes"}}, {"type": "node", "id": 446769239, "lat": 50.9450873, "lon": 6.955215, "tags": {"amenity": "bar", "name": "Stardust", "source": "photography"}}, {"type": "node", "id": 446769243, "lat": 50.9450039, "lon": 6.9548026, "tags": {"amenity": "bar", "name": "Moon Bar", "source": "photography"}}, {"type": "node", "id": 448400528, "lat": 50.9380099, "lon": 6.9407251, "tags": {"amenity": "bar", "name": "Bogletti"}}, {"type": "node", "id": 467770617, "lat": 50.9300705, "lon": 6.9380122, "tags": {"amenity": "bar", "name": "Rosebud", "opening_hours": "Mo-Th 20:30-02:00; Fr-Sa 21:00-03:00 || \"vor Feiertagen wie Sa\"", "phone": "+49 221 240 14 55", "toilets:wheelchair": "no", "wheelchair": "no"}}, {"type": "node", "id": 475107984, "lat": 50.9328606, "lon": 6.9635148}, {"type": "node", "id": 475107987, "lat": 50.9327407, "lon": 6.9637718}, {"type": "node", "id": 475547958, "lat": 50.8925215, "lon": 6.9330099, "tags": {"amenity": "biergarten"}}, {"type": "node", "id": 478633068, "lat": 50.9392246, "lon": 6.9587213, "tags": {"amenity": "bar", "name": "Bierbaum"}}, {"type": "node", "id": 496107904, "lat": 50.9489469, "lon": 6.9209012, "tags": {"amenity": "bar", "email": "info@redfoxbar.cologne", "name": "Red Fox Bar", "opening_hours": "Mo off; Tu-Sa 18:00-03:00; Su off", "phone": "+49 176 78188203", "website": "https://redfoxbar.cologne/"}}, {"type": "node", "id": 496126090, "lat": 50.9487591, "lon": 6.9180589, "tags": {"amenity": "bar", "name": "Klub Berlin", "phone": "+49 157 84884895", "source": "photography", "toilets:wheelchair": "yes", "website": "http://www.klub-berlin.koeln/", "wheelchair": "no"}}, {"type": "node", "id": 522638338, "lat": 50.9150524, "lon": 6.9137303, "tags": {"amenity": "biergarten", "name": "Em Birkenb\u00e4umche"}}, {"type": "node", "id": 526964035, "lat": 50.9643669, "lon": 6.9486065, "tags": {"amenity": "bar", "name": "BarFly", "wheelchair": "limited"}}, {"type": "node", "id": 538267332, "lat": 50.9169469, "lon": 6.9606226, "tags": {"amenity": "bar", "name": "Orchidee"}}, {"type": "node", "id": 570690945, "lat": 50.941584, "lon": 6.9415924, "tags": {"addr:city": "K\u00f6ln", "addr:housenumber": "41", "addr:postcode": "50670", "addr:street": "Im Klapperhof", "amenity": "bar", "min_age": "18", "name": "Bobby's Bar", "opening_hours": "Mo-Fr 20:00-01:00", "phone": "+49 221 98049742", "wheelchair": "limited"}}, {"type": "node", "id": 571873738, "lat": 50.9212731, "lon": 6.9616189, "tags": {"addr:city": "K\u00f6ln", "addr:country": "DE", "addr:housenumber": "22", "addr:postcode": "50678", "addr:street": "Ubierring", "amenity": "bar", "name": "Coellner", "website": "https://coellner-bar.de/", "wheelchair": "no"}}, {"type": "node", "id": 603316689, "lat": 50.9586434, "lon": 7.0093578, "tags": {"amenity": "bar", "name": "Shisha Lounge", "opening_hours": "Mo-Su 12:00-05:00"}}, {"type": "node", "id": 614228329, "lat": 50.9375583, "lon": 6.9597759, "tags": {"amenity": "bar", "name": "Cheznous", "wheelchair": "no"}}, {"type": "node", "id": 615080947, "lat": 50.9438594, "lon": 6.9422073, "tags": {"amenity": "bar", "name": "Billard Cafe Schneider", "opening_hours": "Mo-Th 12:00-02:00, Fr,Sa 12:00-03:00, Su 12:00-01:00", "sport": "billiards", "website": "http://www.billardcafeschneider.de/"}}, {"type": "node", "id": 635892169, "lat": 50.9367427, "lon": 6.9574664, "tags": {"amenity": "bar", "email": "reservierung@quater1.de", "name": "Quater1", "outdoor_seating": "yes", "phone": "+49 221 27268992", "website": "https://www.quater1.de/"}}, {"type": "node", "id": 655213219, "lat": 50.9325598, "lon": 6.9593246, "tags": {"addr:city": "K\u00f6ln", "addr:country": "DE", "addr:housenumber": "4-6", "addr:street": "Mathiasstra\u00dfe", "amenity": "bar", "name": "Blue Lounge Tanzbar", "wheelchair": "no"}}, {"type": "node", "id": 661055175, "lat": 50.9378844, "lon": 6.9618647, "tags": {"addr:postcode": "50667", "amenity": "bar", "name": "Purn", "note": "Karaoke Bar / Dance Club"}}, {"type": "node", "id": 666898489, "lat": 50.9374892, "lon": 6.9616086}, {"type": "node", "id": 666898567, "lat": 50.9375739, "lon": 6.961484, "tags": {"entrance": "main", "source": "NRW-Atlas"}}, {"type": "node", "id": 667381587, "lat": 50.9356744, "lon": 6.9578273, "tags": {"amenity": "bar", "name": "Harry's New-York Bar", "website": "http://www.dorint.com/de/harrys-new-york-bar-koeln"}}, {"type": "node", "id": 667782414, "lat": 50.9292666, "lon": 6.9377164, "tags": {"amenity": "bar", "description": "Cafe Bistro Biergarten", "name": "La Croque", "smoking": "isolated", "wheelchair": "no"}}, {"type": "node", "id": 679716685, "lat": 50.9001169, "lon": 7.020848}, {"type": "node", "id": 679716686, "lat": 50.9001695, "lon": 7.0209193}, {"type": "node", "id": 679716687, "lat": 50.9000847, "lon": 7.0210744}, {"type": "node", "id": 703171572, "lat": 50.9324476, "lon": 6.9633965}, {"type": "node", "id": 703171630, "lat": 50.9324535, "lon": 6.9636817}, {"type": "node", "id": 703171655, "lat": 50.9324651, "lon": 6.9634836}, {"type": "node", "id": 717677100, "lat": 50.9365707, "lon": 6.9382593, "tags": {"amenity": "bar", "name": "Goldener Pudelclub", "opening_hours": "Mo-Su,PH 15:00-04:00"}}, {"type": "node", "id": 749943115, "lat": 50.9324682, "lon": 6.9635491}, {"type": "node", "id": 749943131, "lat": 50.9328342, "lon": 6.9636898}, {"type": "node", "id": 754311152, "lat": 50.9490298, "lon": 6.9174084, "tags": {"addr:housenumber": "9", "addr:street": "S\u00f6mmeringstra\u00dfe", "amenity": "bar", "name": "Rubinrot", "toilets:wheelchair": "no", "wheelchair": "no"}}, {"type": "node", "id": 763221006, "lat": 50.9319061, "lon": 6.932383, "tags": {"addr:city": "K\u00f6ln", "addr:housenumber": "94", "addr:postcode": "50674", "addr:street": "Lindenstra\u00dfe", "amenity": "bar", "name": "Redrum Rockbar", "outdoor_seating": "no", "smoking": "outside", "wheelchair": "limited"}}, {"type": "node", "id": 771202615, "lat": 50.9393452, "lon": 7.0116861}, {"type": "node", "id": 771202623, "lat": 50.9390674, "lon": 7.011792}, {"type": "node", "id": 771202628, "lat": 50.9392763, "lon": 7.0112308}, {"type": "node", "id": 771202630, "lat": 50.9391194, "lon": 7.0114735}, {"type": "node", "id": 771202637, "lat": 50.9392439, "lon": 7.0112445}, {"type": "node", "id": 773143028, "lat": 50.9359967, "lon": 6.9862929, "tags": {"addr:city": "K\u00f6ln", "addr:housenumber": "2-4", "addr:street": "Reitweg", "amenity": "bar", "name": "WaiKiki American Pizza & Sportsbar"}}, {"type": "node", "id": 786918226, "lat": 50.9336619, "lon": 6.9589672, "tags": {"addr:city": "K\u00f6ln", "addr:housenumber": "57", "addr:postcode": "50676", "addr:street": "M\u00fchlenbach", "amenity": "bar", "gay": "yes", "name": "My Lord", "opening_hours": "Su,Mo,We,Th 17:00-01:00, Fr,Sa 17:00-02:00", "source": "photography", "website": "https://www.barmylord.de/"}}, {"type": "node", "id": 786918256, "lat": 50.9336364, "lon": 6.9587334, "tags": {"addr:city": "K\u00f6ln", "addr:housenumber": "53", "addr:postcode": "50676", "addr:street": "M\u00fchlenbach", "amenity": "bar", "name": "Jail Cologne", "opening_hours": "Mo-Th,Su 19:00-02:00; Sa 19:00-04:00", "phone": "+49 221 42303102", "smoking": "outside", "source": "photography", "toilets:wheelchair": "no", "website": "https://jail-cologne.de", "wheelchair": "no"}}, {"type": "node", "id": 790036605, "lat": 50.9353916, "lon": 6.9591747, "tags": {"amenity": "bar", "gay": "yes", "name": "Amadeus", "outdoor_seating": "yes", "toilets:wheelchair": "yes", "wheelchair": "yes"}}, {"type": "node", "id": 797823536, "lat": 50.9212906, "lon": 6.946446}, {"type": "node", "id": 797823631, "lat": 50.9211599, "lon": 6.9466718}, {"type": "node", "id": 809813841, "lat": 50.9298775, "lon": 6.9392424, "tags": {"amenity": "bar", "name": "Sp\u00e4ti K\u00f6ln", "wheelchair": "no"}}, {"type": "node", "id": 826292837, "lat": 50.928723, "lon": 6.9390639, "tags": {"addr:city": "K\u00f6ln", "addr:country": "DE", "addr:housenumber": "25", "addr:street": "Kyffh\u00e4userstra\u00dfe", "amenity": "bar", "brewery": "yes;Guinness;Kilkenny", "name": "The Black Sheep Irish Pub", "outdoor_seating": "no", "wheelchair": "no"}}, {"type": "node", "id": 849724556, "lat": 50.9287379, "lon": 6.9391708, "tags": {"addr:city": "K\u00f6ln", "addr:country": "DE", "addr:housenumber": "23", "addr:street": "Kyffh\u00e4userstra\u00dfe", "amenity": "bar", "name": "Soylent Green", "opening_hours": "Su-Th 19:00+; Fr-Sa 19:00+", "wheelchair": "no", "wifi": "no"}}, {"type": "node", "id": 849724586, "lat": 50.9289154, "lon": 6.9405396, "tags": {"addr:city": "K\u00f6ln", "addr:country": "DE", "addr:housenumber": "5", "addr:postcode": "50674", "addr:street": "Kyffh\u00e4userstra\u00dfe", "amenity": "bar", "name": "Shooter Stars"}}, {"type": "node", "id": 937529177, "lat": 50.9347392, "lon": 6.9411509, "tags": {"amenity": "bar", "description": "Gay bar", "gay": "yes", "name": "Iron", "website": "http://www.iron-bar.com/", "wheelchair": "limited"}}, {"type": "node", "id": 937530545, "lat": 50.9347391, "lon": 6.9408009, "tags": {"addr:city": "K\u00f6ln", "addr:housenumber": "51", "addr:postcode": "50676", "addr:street": "Schaafenstra\u00dfe", "amenity": "bar", "description": "Gay bar for younger people", "gay": "yes", "name": "Die Mumu", "opening_hours": "Su-Th 19:00-01:00, Sa-Su 19:00-05:00", "phone": "+49 221 16867277", "toilets:wheelchair": "no", "website": "https://chayns.net/59144-04493/album", "wheelchair": "no"}}, {"type": "node", "id": 938889650, "lat": 50.9344799, "lon": 6.9407671, "tags": {"amenity": "bar", "description": "Gay cocktail bar. Mixed ages", "gay": "men", "name": "ix-bar", "wheelchair": "limited"}}, {"type": "node", "id": 942678109, "lat": 50.9380462, "lon": 6.9375647, "tags": {"amenity": "bar", "name": "barlounge40"}}, {"type": "node", "id": 942692370, "lat": 50.939308, "lon": 6.9393743, "tags": {"amenity": "bar", "name": "Skweeze", "wheelchair": "no"}}, {"type": "node", "id": 942692484, "lat": 50.9391845, "lon": 6.9393918, "tags": {"amenity": "bar", "name": "Klapsm\u00fchle", "wheelchair": "no"}}, {"type": "node", "id": 942692527, "lat": 50.939649, "lon": 6.93952, "tags": {"amenity": "bar", "email": "info@einundfuenfzig.com", "name": "einundf\u00fcnfzig", "opening_hours": "Mo-We, Su off;Th-Sa 19:00+", "phone": "+49 221 16906470", "website": "http://einundfuenfzig.com"}}, {"type": "node", "id": 985923530, "lat": 50.9297438, "lon": 6.9396166, "tags": {"amenity": "bar", "name": "Museum", "opening_hours:signed": "no", "operator": "BSB Gastronomie GmbH", "phone": "+49 221 23 20 98", "source": "local knowledge", "toilets:wheelchair": "no", "website": "https://www.museum-kneipe.de/", "wheelchair": "yes"}}, {"type": "node", "id": 1010672372, "lat": 50.9379623, "lon": 6.932885, "tags": {"amenity": "bar", "name": "De.lite", "wheelchair": "yes"}}, {"type": "node", "id": 1037519512, "lat": 50.9462578, "lon": 6.9458754, "tags": {"addr:city": "K\u00f6ln", "addr:housenumber": "32", "addr:postcode": "50670", "addr:street": "Hansaring", "amenity": "bar", "name": "Mc Lennon", "opening_hours": "Mo-Su 11:00-3:00", "wheelchair": "no"}}, {"type": "node", "id": 1039582577, "lat": 50.9403375, "lon": 7.0015903, "tags": {"amenity": "bar"}}, {"type": "node", "id": 1068667413, "lat": 50.955323, "lon": 6.9397455, "tags": {"amenity": "bar", "name": "Bar Petit Bijou", "opening_hours": "Mo-Su 00:00-06:00,18:00-24:00", "website": "http://www.eroscenter-koeln.de/petitbijou.php"}}, {"type": "node", "id": 1069189906, "lat": 50.9334547, "lon": 6.9339193, "tags": {"addr:city": "K\u00f6ln", "addr:housenumber": "94", "addr:postcode": "50674", "addr:street": "Roonstra\u00dfe", "amenity": "bar", "name": "Ona Mor", "opening_hours": "20:00-02:00", "phone": "+49 221 16874524", "smoking": "outside", "website": "http://www.onamor.de/", "wheelchair": "yes", "wheelchair:description": "Alles ebenerdig, Toilette schmal"}}, {"type": "node", "id": 1080251832, "lat": 50.936622, "lon": 6.935089, "tags": {"addr:housenumber": "50", "addr:street": "Aachener Stra\u00dfe", "amenity": "bar", "name": "Lauschgift"}}, {"type": "node", "id": 1089025178, "lat": 50.9438264, "lon": 7.0098751, "tags": {"amenity": "bar", "name": "Michys Bar"}}, {"type": "node", "id": 1117023613, "lat": 50.9236093, "lon": 6.9271447, "tags": {"amenity": "bar", "name": "Bistro 43", "opening_hours": "Mo-Fr 08:00-01:00, Sa 09:00-01:00, Su 10:00-01:00", "wheelchair": "no"}}, {"type": "node", "id": 1217588473, "lat": 50.9295973, "lon": 6.9378369, "tags": {"addr:city": "K\u00f6ln", "addr:country": "DE", "addr:housenumber": "26", "addr:postcode": "50674", "addr:street": "Z\u00fclpicher Stra\u00dfe", "amenity": "bar", "name": "Hillebrands", "wheelchair": "limited"}}, {"type": "node", "id": 1384885581, "lat": 50.9535256, "lon": 6.9118405, "tags": {"amenity": "bar", "name": "Zoo", "wheelchair": "yes"}}, {"type": "node", "id": 1487173138, "lat": 50.9245801, "lon": 6.9780268, "tags": {"addr:city": "K\u00f6ln", "addr:housenumber": "110", "addr:postcode": "50679", "addr:street": "Siegburger Stra\u00dfe", "amenity": "bar", "name": "Elektrok\u00fcche", "smoking": "no", "smoking:outside": "yes", "website": "https://www.elektrokueche.com/", "wheelchair": "yes"}}, {"type": "node", "id": 1512568892, "lat": 50.9513403, "lon": 6.9542103, "tags": {"addr:housenumber": "3", "addr:postcode": "50670", "addr:street": "Sudermanplatz", "amenity": "bar", "name": "Suderman", "opening_hours": "Mo-Th 19:00-02:00; Fr,Sa 19:00-03:00", "toilets:wheelchair": "no", "website": "http://www.bar-orange.de/", "wheelchair": "yes"}}, {"type": "node", "id": 1602351574, "lat": 50.901711, "lon": 7.0253715}, {"type": "node", "id": 1602351576, "lat": 50.9017494, "lon": 7.0252083}, {"type": "node", "id": 1602351578, "lat": 50.9018581, "lon": 7.0254585}, {"type": "node", "id": 1602351579, "lat": 50.9018965, "lon": 7.0252953}, {"type": "node", "id": 1629678507, "lat": 50.9288812, "lon": 6.9387101, "tags": {"amenity": "bar", "name": "Piranha", "smoking": "yes", "website": "https://www.piranha-koeln.de/", "wheelchair": "limited"}}, {"type": "node", "id": 1637907023, "lat": 50.8993094, "lon": 6.9871694}, {"type": "node", "id": 1637907024, "lat": 50.8993118, "lon": 6.9871417}, {"type": "node", "id": 1637907026, "lat": 50.899315, "lon": 6.9871914}, {"type": "node", "id": 1637907028, "lat": 50.8993207, "lon": 6.9871188}, {"type": "node", "id": 1637907031, "lat": 50.8993244, "lon": 6.9872043}, {"type": "node", "id": 1637907032, "lat": 50.8993295, "lon": 6.9870996}, {"type": "node", "id": 1637907042, "lat": 50.899339, "lon": 6.9872058}, {"type": "node", "id": 1637907044, "lat": 50.899355, "lon": 6.9872038}, {"type": "node", "id": 1637907050, "lat": 50.8993727, "lon": 6.9871903}, {"type": "node", "id": 1637907060, "lat": 50.8994127, "lon": 6.9869764}, {"type": "node", "id": 1637907068, "lat": 50.8994664, "lon": 6.9868969}, {"type": "node", "id": 1637907069, "lat": 50.8994817, "lon": 6.9868961}, {"type": "node", "id": 1637907070, "lat": 50.8994979, "lon": 6.9868756}, {"type": "node", "id": 1637907071, "lat": 50.8995065, "lon": 6.986892}, {"type": "node", "id": 1637907072, "lat": 50.8995103, "lon": 6.9869872}, {"type": "node", "id": 1637907074, "lat": 50.8995158, "lon": 6.9868958}, {"type": "node", "id": 1637907076, "lat": 50.899517, "lon": 6.9869112}, {"type": "node", "id": 1637907078, "lat": 50.899517, "lon": 6.9869441}, {"type": "node", "id": 1637907081, "lat": 50.8995275, "lon": 6.9869313}, {"type": "node", "id": 1643520918, "lat": 50.9292735, "lon": 6.9372737, "tags": {"addr:city": "K\u00f6ln", "addr:country": "DE", "addr:housenumber": "38", "addr:postcode": "50674", "addr:street": "Z\u00fclpicher Stra\u00dfe", "amenity": "bar", "cuisine": "shisha", "min_age": "18", "name": "Scala", "smoking": "dedicated"}}, {"type": "node", "id": 1643520936, "lat": 50.9291294, "lon": 6.9374867, "tags": {"addr:city": "K\u00f6ln", "addr:country": "DE", "addr:housenumber": "25", "addr:postcode": "50674", "addr:street": "Z\u00fclpicher Stra\u00dfe", "amenity": "bar", "name": "Cuba Bar", "wheelchair": "limited"}}, {"type": "node", "id": 1643520945, "lat": 50.9293365, "lon": 6.9373726, "tags": {"addr:city": "K\u00f6ln", "addr:country": "DE", "addr:housenumber": "36", "addr:postcode": "50674", "addr:street": "Z\u00fclpicher Stra\u00dfe", "amenity": "bar", "name": "Cubana"}}, {"type": "node", "id": 1643520989, "lat": 50.9300595, "lon": 6.9386697, "tags": {"addr:city": "K\u00f6ln", "addr:country": "DE", "addr:housenumber": "10", "addr:postcode": "50674", "addr:street": "Z\u00fclpicher Stra\u00dfe", "amenity": "bar", "name": "Heimspiel", "toilets:wheelchair": "no", "wheelchair": "no"}}, {"type": "node", "id": 1643521006, "lat": 50.9293861, "lon": 6.9374653, "tags": {"addr:city": "K\u00f6ln", "addr:country": "DE", "addr:housenumber": "34", "addr:postcode": "50674", "addr:street": "Z\u00fclpicher Stra\u00dfe", "amenity": "bar", "name": "Mojitos", "wheelchair": "limited"}}, {"type": "node", "id": 1643521285, "lat": 50.9290459, "lon": 6.937347, "tags": {"addr:city": "K\u00f6ln", "addr:country": "DE", "addr:housenumber": "29", "addr:postcode": "50674", "addr:street": "Z\u00fclpicher Stra\u00dfe", "amenity": "bar", "internet_access": "wifi", "internet_access:fee": "free", "name": "Soul Bar", "operator": "Uzun Gastronomiebetriebe GmbH", "wheelchair": "limited"}}, {"type": "node", "id": 1643521362, "lat": 50.929316, "lon": 6.9378171, "tags": {"addr:city": "K\u00f6ln", "addr:country": "DE", "addr:housenumber": "17", "addr:postcode": "50674", "addr:street": "Z\u00fclpicher Stra\u00dfe", "amenity": "bar", "cuisine": "shisha", "name": "Goldapfel", "note": "Am 28 Okt 2018: sieht verlassen aus.", "wheelchair": "no"}}, {"type": "node", "id": 1665975483, "lat": 50.9433, "lon": 6.9300065}, {"type": "node", "id": 1665975485, "lat": 50.9433385, "lon": 6.929886}, {"type": "node", "id": 1665975487, "lat": 50.9434061, "lon": 6.9299394}, {"type": "node", "id": 1665975488, "lat": 50.9434356, "lon": 6.9301156}, {"type": "node", "id": 1665975490, "lat": 50.9434553, "lon": 6.9300531}, {"type": "node", "id": 1680566899, "lat": 50.9325455, "lon": 6.8729362, "tags": {"addr:city": "K\u00f6ln", "addr:housenumber": "1", "addr:postcode": "50933", "addr:street": "Junkersdorfer Stra\u00dfe", "amenity": "biergarten", "name": "Playa in Cologne", "toilets:wheelchair": "no", "website": "https://www.playa.de/", "wheelchair": "yes", "wheelchair:description": "Biergarten ohne Stufen und gut befahrbar,  Behindertentoilette vorhanden. Beachpl\u00e4tze zum Volleyball spielen sind mit Sand aufgef\u00fcllt."}}, {"type": "node", "id": 1702453082, "lat": 50.9656234, "lon": 6.9529777, "tags": {"addr:city": "K\u00f6ln", "addr:housenumber": "4", "addr:postcode": "50733", "addr:street": "Mauenheimer Stra\u00dfe", "amenity": "bar", "name": "Heimathirsch", "wheelchair": "no", "wifi": "no"}}, {"type": "node", "id": 1711871612, "lat": 50.9000327, "lon": 7.0210021}, {"type": "node", "id": 1797712218, "lat": 50.9705642, "lon": 7.0897475}, {"type": "node", "id": 1797712231, "lat": 50.9706195, "lon": 7.0898818}, {"type": "node", "id": 1797712234, "lat": 50.970636, "lon": 7.0898648}, {"type": "node", "id": 1797712238, "lat": 50.9706564, "lon": 7.0899131}, {"type": "node", "id": 1797712243, "lat": 50.9706765, "lon": 7.0898832}, {"type": "node", "id": 1797712382, "lat": 50.9709974, "lon": 7.0912346}, {"type": "node", "id": 1797712396, "lat": 50.9710164, "lon": 7.0911108}, {"type": "node", "id": 1797712410, "lat": 50.9710351, "lon": 7.0912185}, {"type": "node", "id": 1801735038, "lat": 50.9419023, "lon": 6.9590332}, {"type": "node", "id": 1801735055, "lat": 50.9419437, "lon": 6.9585867}, {"type": "node", "id": 1801735061, "lat": 50.9419462, "lon": 6.958629}, {"type": "node", "id": 1801735065, "lat": 50.9419682, "lon": 6.9587362}, {"type": "node", "id": 1803895555, "lat": 50.9526363, "lon": 6.9236773, "tags": {"amenity": "bar", "name": "Hookaah Lounge"}}, {"type": "node", "id": 1817791557, "lat": 50.911302, "lon": 6.9898234}, {"type": "node", "id": 1817791562, "lat": 50.9113288, "lon": 6.9899238}, {"type": "node", "id": 1817791564, "lat": 50.9113353, "lon": 6.9898009}, {"type": "node", "id": 1817791566, "lat": 50.9113625, "lon": 6.9899053}, {"type": "node", "id": 1862061788, "lat": 50.9718575, "lon": 7.0095144, "tags": {"addr:city": "K\u00f6ln", "addr:country": "DE", "addr:housenumber": "19", "addr:postcode": "51063", "addr:street": "Von-Sparr-Stra\u00dfe", "amenity": "bar", "name": "Don Quichote", "note": "Kein Alkohol, aber Fu\u00dfball", "source": "survey"}}, {"type": "node", "id": 1892871595, "lat": 50.9715478, "lon": 6.8608899}, {"type": "node", "id": 1892871605, "lat": 50.971379, "lon": 6.8608395}, {"type": "node", "id": 1892871641, "lat": 50.9715625, "lon": 6.8607657}, {"type": "node", "id": 1894193545, "lat": 50.9713937, "lon": 6.8607152}, {"type": "node", "id": 1912760409, "lat": 50.9394371, "lon": 6.9410726, "tags": {"amenity": "bar", "name": "Blauer Engel"}}, {"type": "node", "id": 1912760415, "lat": 50.9394856, "lon": 6.9410785, "tags": {"amenity": "bar", "name": "Menouche"}}, {"type": "node", "id": 1962875726, "lat": 50.9392287, "lon": 6.9582689, "tags": {"amenity": "bar", "name": "Mantikor", "website": "http://www.mantikor.net/"}}, {"type": "node", "id": 1969878504, "lat": 50.9423523, "lon": 6.9401444, "tags": {"addr:city": "K\u00f6ln", "addr:housenumber": "99 - 101", "addr:postcode": "50672", "addr:street": "Hohenzollernring", "amenity": "bar", "name": "Sterlinglounge", "opening_hours": "Mo-Su 14:00+"}}, {"type": "node", "id": 1969878507, "lat": 50.942082, "lon": 6.9400809, "tags": {"amenity": "bar", "name": "7th Sky"}}, {"type": "node", "id": 2038908004, "lat": 50.9118809, "lon": 6.9896841, "tags": {"amenity": "bar", "name": "Bar Europa"}}, {"type": "node", "id": 2159907038, "lat": 50.9324585, "lon": 6.9634415}, {"type": "node", "id": 2159907039, "lat": 50.9327715, "lon": 6.9637607}, {"type": "node", "id": 2159907040, "lat": 50.9328148, "lon": 6.9637221}, {"type": "node", "id": 2217104843, "lat": 50.9406651, "lon": 6.9738964}, {"type": "node", "id": 2285773937, "lat": 50.9407171, "lon": 6.943611, "tags": {"addr:city": "K\u00f6ln", "addr:housenumber": "41", "addr:postcode": "50670", "addr:street": "Friesenstra\u00dfe", "amenity": "bar", "name": "Friesen", "opening_hours": "Tu-Th 21:00-01:00, Fr,Sa 20:00-05:00", "website": "https://www.friesen-bar.com/"}}, {"type": "node", "id": 2395060243, "lat": 50.9488018, "lon": 6.9076462, "tags": {"addr:housenumber": "190", "addr:postcode": "50825", "addr:street": "Oskar-J\u00e4ger-Stra\u00dfe", "amenity": "biergarten", "name": "Sonic Ballroom", "website": "http://www.sonic-ballroom.de/"}}, {"type": "node", "id": 2419064719, "lat": 50.9385815, "lon": 6.9397853, "tags": {"amenity": "bar", "name": "Casa Cuba", "wheelchair": "limited"}}, {"type": "node", "id": 2419064758, "lat": 50.9388152, "lon": 6.9406763, "tags": {"addr:city": "K\u00f6ln", "addr:housenumber": "33", "addr:postcode": "50672", "addr:street": "Friesenwall", "amenity": "bar", "cuisine": "international", "name": "Seibert's", "opening_hours": "Tu-Su 17:00-02:00", "outdoor_seating": "yes", "phone": "+49 221  30195013", "website": "https://seiberts-bar.com/"}}, {"type": "node", "id": 2428470267, "lat": 50.9355461, "lon": 6.9300444}, {"type": "node", "id": 2428470268, "lat": 50.9351938, "lon": 6.9297279}, {"type": "node", "id": 2428470269, "lat": 50.9353679, "lon": 6.9293041}, {"type": "node", "id": 2428470270, "lat": 50.9355691, "lon": 6.9292934}, {"type": "node", "id": 2428470271, "lat": 50.9357728, "lon": 6.9294951}, {"type": "node", "id": 2464893437, "lat": 50.8697081, "lon": 7.0433901}, {"type": "node", "id": 2464893439, "lat": 50.8698954, "lon": 7.0429921}, {"type": "node", "id": 2464893440, "lat": 50.8700434, "lon": 7.0438435}, {"type": "node", "id": 2464893441, "lat": 50.8702163, "lon": 7.0435404}, {"type": "node", "id": 2536207952, "lat": 50.9152603, "lon": 6.9664249, "tags": {"addr:city": "K\u00f6ln", "addr:country": "DE", "addr:housenumber": "139", "addr:postcode": "50968", "addr:street": "Alteburger Stra\u00dfe", "amenity": "biergarten", "name": "Alteburg (Biergarten)", "outdoor_seating": "yes", "wheelchair": "limited"}}, {"type": "node", "id": 2542014972, "lat": 50.9168498, "lon": 6.8993782}, {"type": "node", "id": 2542014998, "lat": 50.9169147, "lon": 6.8992872}, {"type": "node", "id": 2542015004, "lat": 50.9169461, "lon": 6.8993352}, {"type": "node", "id": 2542015006, "lat": 50.9169497, "lon": 6.8995573}, {"type": "node", "id": 2542015009, "lat": 50.9169829, "lon": 6.8992863}, {"type": "node", "id": 2558350445, "lat": 50.9215019, "lon": 6.9611457}, {"type": "node", "id": 2558350467, "lat": 50.9215136, "lon": 6.9612143}, {"type": "node", "id": 2558350482, "lat": 50.9215241, "lon": 6.96121}, {"type": "node", "id": 2558350484, "lat": 50.9215285, "lon": 6.9612355}, {"type": "node", "id": 2558350549, "lat": 50.9216325, "lon": 6.9610578}, {"type": "node", "id": 2558350553, "lat": 50.9216372, "lon": 6.9610853}, {"type": "node", "id": 2558350554, "lat": 50.9216398, "lon": 6.9610842}, {"type": "node", "id": 2558350558, "lat": 50.9216411, "lon": 6.961187}, {"type": "node", "id": 2558350561, "lat": 50.9216435, "lon": 6.9611055}, {"type": "node", "id": 2558350568, "lat": 50.9216488, "lon": 6.9611542}, {"type": "node", "id": 2558350575, "lat": 50.9216514, "lon": 6.9611531}, {"type": "node", "id": 2558350576, "lat": 50.9216534, "lon": 6.9611814}, {"type": "node", "id": 2565369563, "lat": 50.9309569, "lon": 6.8774577, "tags": {"addr:city": "K\u00f6ln", "addr:country": "DE", "addr:housenumber": "3", "addr:postcode": "50933", "addr:street": "Guts-Muths-Weg", "amenity": "biergarten", "wheelchair": "yes"}}, {"type": "node", "id": 2598896417, "lat": 50.8701155, "lon": 7.0436084}, {"type": "node", "id": 2598900770, "lat": 50.8732761, "lon": 7.0485903}, {"type": "node", "id": 2598900855, "lat": 50.8733476, "lon": 7.048789}, {"type": "node", "id": 2598900895, "lat": 50.8733733, "lon": 7.0484931}, {"type": "node", "id": 2598900899, "lat": 50.8733827, "lon": 7.0488047}, {"type": "node", "id": 2598901015, "lat": 50.8734549, "lon": 7.0486004}, {"type": "node", "id": 2622352239, "lat": 50.9392288, "lon": 6.9407821, "tags": {"amenity": "bar", "operator": "Behesht"}}, {"type": "node", "id": 2630343382, "lat": 50.940555, "lon": 6.9412869, "tags": {"amenity": "bar", "name": "NATRAS", "outdoor_seating": "yes"}}, {"type": "node", "id": 2630343459, "lat": 50.9404904, "lon": 6.9420728, "tags": {"amenity": "bar", "name": "conventum"}}, {"type": "node", "id": 2650519997, "lat": 50.9153112, "lon": 6.9261953}, {"type": "node", "id": 2650520000, "lat": 50.9153121, "lon": 6.9259649}, {"type": "node", "id": 2650520016, "lat": 50.9153402, "lon": 6.9259016}, {"type": "node", "id": 2650520040, "lat": 50.9153782, "lon": 6.9262862}, {"type": "node", "id": 2650520042, "lat": 50.9153807, "lon": 6.9260412}, {"type": "node", "id": 2650520064, "lat": 50.9154144, "lon": 6.9263253}, {"type": "node", "id": 2653705027, "lat": 50.9407673, "lon": 6.9425574, "tags": {"addr:city": "K\u00f6ln", "addr:country": "DE", "addr:housenumber": "48", "addr:postcode": "50670", "addr:street": "Friesenstra\u00dfe", "amenity": "bar", "name": "Mai Tai", "opening_hours": "Fr,Sa 20:00-02:00"}}, {"type": "node", "id": 2653841921, "lat": 50.9411959, "lon": 6.9414837, "tags": {"amenity": "bar", "name": "Rumbar", "website": "http://rumbar.eu/"}}, {"type": "node", "id": 2653841922, "lat": 50.9413591, "lon": 6.9415234, "tags": {"amenity": "bar", "name": "abh\u00f6rbar", "opening_hours": "Mo-Th 21:00-04:00, Fr-Sa 21:00+", "phone": "+49 176 32219030", "website": "http://www.abhoerbar.com/"}}, {"type": "node", "id": 2684898457, "lat": 50.9030866, "lon": 6.9650809}, {"type": "node", "id": 2684898458, "lat": 50.9031044, "lon": 6.9652391}, {"type": "node", "id": 2684898460, "lat": 50.9031295, "lon": 6.9650683}, {"type": "node", "id": 2684898462, "lat": 50.9031834, "lon": 6.9650607}, {"type": "node", "id": 2684898463, "lat": 50.9032506, "lon": 6.9651276}, {"type": "node", "id": 2691603949, "lat": 50.998229, "lon": 6.9103057}, {"type": "node", "id": 2691603964, "lat": 50.9982583, "lon": 6.9103454}, {"type": "node", "id": 2691603973, "lat": 50.9982784, "lon": 6.910233}, {"type": "node", "id": 2708494816, "lat": 50.8949912, "lon": 6.9950746}, {"type": "node", "id": 2708494825, "lat": 50.8950647, "lon": 6.9949725}, {"type": "node", "id": 2708494872, "lat": 50.8952539, "lon": 6.9944163}, {"type": "node", "id": 2708494874, "lat": 50.8952757, "lon": 6.9943671}, {"type": "node", "id": 2708494875, "lat": 50.8952889, "lon": 6.9943816}, {"type": "node", "id": 2708494877, "lat": 50.8953085, "lon": 6.9943373}, {"type": "node", "id": 2709713553, "lat": 50.8953445, "lon": 6.9941461}, {"type": "node", "id": 2709713557, "lat": 50.8953893, "lon": 6.9941926}, {"type": "node", "id": 2709713559, "lat": 50.895396, "lon": 6.9941763}, {"type": "node", "id": 2709713563, "lat": 50.8954105, "lon": 6.9942145}, {"type": "node", "id": 2709713565, "lat": 50.8954172, "lon": 6.9941983}, {"type": "node", "id": 2709713569, "lat": 50.8954726, "lon": 6.994279}, {"type": "node", "id": 2725052256, "lat": 50.9347476, "lon": 6.9408751, "tags": {"addr:city": "K\u00f6ln", "addr:housenumber": "49", "addr:postcode": "50676", "addr:street": "Schaafenstra\u00dfe", "amenity": "bar", "name": "Zentralgarderobe Bermudadreieck", "opening_hours": "Fr-Sa 21:00-06:00", "toilets": "no", "website": "http://www.zentralgarderobe.com", "wheelchair": "yes"}}, {"type": "node", "id": 2725057244, "lat": 50.9347872, "lon": 6.9413866, "tags": {"addr:city": "K\u00f6ln", "addr:housenumber": "20", "addr:postcode": "50676", "addr:street": "Balduinstra\u00dfe", "amenity": "bar", "gay": "yes", "name": "Ruhrpott", "opening_hours": "Mo 12:00-15:00, Tu-Th 12:00-02:00, Fr 12:00-05:00, Sa 20:00-05:00, Su 20:00-02:00", "phone": "+49 221 16875038", "toilets:wheelchair": "yes", "website": "http://www.ruhrpott-cologne.de", "wheelchair": "no"}}, {"type": "node", "id": 2725059582, "lat": 50.9348923, "lon": 6.9431138, "tags": {"addr:city": "K\u00f6ln", "addr:housenumber": "51", "addr:postcode": "50676", "addr:street": "Am Rinkenpfuhl", "amenity": "bar", "name": "Maxbar", "opening_hours": "Mo off; Tu-Th 20:00-01:00, Fr-Sa 20:00-03:00, Su 19:00-01:00", "phone": "+49 221 16850395", "website": "http://www.maxbar-cologne.de", "wheelchair": "limited"}}, {"type": "node", "id": 2782833591, "lat": 50.9367575, "lon": 6.9387263, "tags": {"amenity": "bar", "name": "InValentino Lounge 3.0"}}, {"type": "node", "id": 2833536264, "lat": 50.9469271, "lon": 6.9215736, "tags": {"addr:city": "K\u00f6ln", "addr:housenumber": "8", "addr:postcode": "50823", "addr:street": "Theb\u00e4erstra\u00dfe", "amenity": "bar", "name": "K\u00f6nigsblut"}}, {"type": "node", "id": 2841884602, "lat": 50.8951642, "lon": 6.9951293}, {"type": "node", "id": 2841884603, "lat": 50.8950153, "lon": 6.9952352}, {"type": "node", "id": 2842250161, "lat": 50.8953589, "lon": 6.9941182}, {"type": "node", "id": 2842250162, "lat": 50.895479, "lon": 6.9942416}, {"type": "node", "id": 2846287748, "lat": 50.9224352, "lon": 6.9597325, "tags": {"addr:city": "K\u00f6ln", "addr:housenumber": "10", "addr:postcode": "50678", "addr:street": "Im Ferkulum", "amenity": "bar", "name": "Bistro Restaurant Kajtek", "phone": "+49 221 4292622", "website": "http://www.restaurant-kajtek.de/"}}, {"type": "node", "id": 2873116242, "lat": 50.9348661, "lon": 6.9741717}, {"type": "node", "id": 2873116243, "lat": 50.9348662, "lon": 6.9741032}, {"type": "node", "id": 2873116267, "lat": 50.9349393, "lon": 6.9741053}, {"type": "node", "id": 2873116292, "lat": 50.9350013, "lon": 6.9741774}, {"type": "node", "id": 2873116294, "lat": 50.9350013, "lon": 6.9741071}, {"type": "node", "id": 2906872382, "lat": 50.9223623, "lon": 7.0894176}, {"type": "node", "id": 2906872385, "lat": 50.9223643, "lon": 7.0894066}, {"type": "node", "id": 2906873222, "lat": 50.9218258, "lon": 7.0905083}, {"type": "node", "id": 2906873236, "lat": 50.9218419, "lon": 7.0904695}, {"type": "node", "id": 2906873284, "lat": 50.9218852, "lon": 7.0905146}, {"type": "node", "id": 2906874059, "lat": 50.9223178, "lon": 7.0893972}, {"type": "node", "id": 2906874101, "lat": 50.922375, "lon": 7.0894236}, {"type": "node", "id": 2906874106, "lat": 50.9223771, "lon": 7.0894124}, {"type": "node", "id": 2906874325, "lat": 50.9224265, "lon": 7.0894472}, {"type": "node", "id": 2971795994, "lat": 50.9374704, "lon": 6.9614111}, {"type": "node", "id": 2971796002, "lat": 50.9375568, "lon": 6.9613741}, {"type": "node", "id": 2971796004, "lat": 50.9375905, "lon": 6.9615905}, {"type": "node", "id": 2979064645, "lat": 50.9399973, "lon": 7.0075317, "tags": {"addr:city": "K\u00f6ln", "addr:housenumber": "26", "addr:postcode": "51103", "addr:street": "Steprathstra\u00dfe", "addr:suburb": "Kalk", "amenity": "bar", "name": "hopla Cocktail Bar", "opening_hours": "18:30+"}}, {"type": "node", "id": 3037219205, "lat": 50.9391099, "lon": 7.0115321}, {"type": "node", "id": 3037219206, "lat": 50.9391142, "lon": 7.0117742}, {"type": "node", "id": 3037219213, "lat": 50.9391439, "lon": 7.0114334}, {"type": "node", "id": 3037219214, "lat": 50.9391492, "lon": 7.0114053}, {"type": "node", "id": 3037219215, "lat": 50.939152, "lon": 7.0114654}, {"type": "node", "id": 3037219224, "lat": 50.9392301, "lon": 7.01173}, {"type": "node", "id": 3078084194, "lat": 50.9297309, "lon": 6.9399832, "tags": {"addr:city": "K\u00f6ln", "addr:housenumber": "19", "addr:postcode": "50674", "addr:street": "Roonstra\u00dfe", "amenity": "bar", "name": "M\u00e4urer", "old_name": "Boogaloo", "source": "local knowledge", "wheelchair": "no"}}, {"type": "node", "id": 3116467852, "lat": 51.0371793, "lon": 6.8835552, "tags": {"amenity": "bar", "name": "EMPIRE"}}, {"type": "node", "id": 3136606616, "lat": 50.9614781, "lon": 6.9839942, "tags": {"amenity": "biergarten", "name": "Schwimmbad", "opening_hours": "24/7"}}, {"type": "node", "id": 3336589854, "lat": 50.9601988, "lon": 6.8952923}, {"type": "node", "id": 3336589857, "lat": 50.9602754, "lon": 6.8953469}, {"type": "node", "id": 3336589859, "lat": 50.9603, "lon": 6.89526}, {"type": "node", "id": 3342877174, "lat": 50.9510638, "lon": 6.911577}, {"type": "node", "id": 3342877178, "lat": 50.9510963, "lon": 6.91004}, {"type": "node", "id": 3342877193, "lat": 50.9511535, "lon": 6.9100239}, {"type": "node", "id": 3342877195, "lat": 50.9511554, "lon": 6.9100408}, {"type": "node", "id": 3342877228, "lat": 50.9510559, "lon": 6.9103703}, {"type": "node", "id": 3342877231, "lat": 50.9512438, "lon": 6.9112079}, {"type": "node", "id": 3342877235, "lat": 50.9509841, "lon": 6.9104839}, {"type": "node", "id": 3342877248, "lat": 50.9512735, "lon": 6.9112568}, {"type": "node", "id": 3342877252, "lat": 50.9512785, "lon": 6.9102131}, {"type": "node", "id": 3342877254, "lat": 50.9510642, "lon": 6.9104657}, {"type": "node", "id": 3342877255, "lat": 50.951281, "lon": 6.9102594}, {"type": "node", "id": 3342877263, "lat": 50.9512867, "lon": 6.9101799}, {"type": "node", "id": 3342877264, "lat": 50.9512906, "lon": 6.9103642}, {"type": "node", "id": 3342877272, "lat": 50.9513048, "lon": 6.9101518}, {"type": "node", "id": 3342877286, "lat": 50.9513236, "lon": 6.9101401}, {"type": "node", "id": 3342877308, "lat": 50.951388, "lon": 6.9099797}, {"type": "node", "id": 3342877309, "lat": 50.9513772, "lon": 6.9105154}, {"type": "node", "id": 3342877314, "lat": 50.9513944, "lon": 6.9101342}, {"type": "node", "id": 3352989429, "lat": 50.9418699, "lon": 6.9591059}, {"type": "node", "id": 3352989431, "lat": 50.941873, "lon": 6.9591105}, {"type": "node", "id": 3352989432, "lat": 50.9418767, "lon": 6.9591119}, {"type": "node", "id": 3352989435, "lat": 50.9418946, "lon": 6.9589038}, {"type": "node", "id": 3352989436, "lat": 50.9418975, "lon": 6.9587833}, {"type": "node", "id": 3352989440, "lat": 50.9419237, "lon": 6.9589524}, {"type": "node", "id": 3352989444, "lat": 50.9419462, "lon": 6.9586228}, {"type": "node", "id": 3376526780, "lat": 50.9400723, "lon": 6.9508439, "tags": {"amenity": "bar", "name": "Humboldt1 Lounge Bar", "opening_hours": "We-Sa 20:00+", "website": "http://www.humboldt1.de/bar/index.php/"}}, {"type": "node", "id": 3416018453, "lat": 50.9176389, "lon": 6.9803086, "tags": {"amenity": "bar", "name": "Poller Strandbar", "wheelchair": "limited"}}, {"type": "node", "id": 3465117721, "lat": 50.9346857, "lon": 6.94027, "tags": {"addr:city": "K\u00f6ln", "addr:housenumber": "61a", "addr:postcode": "50676", "addr:street": "Schaafenstra\u00dfe", "amenity": "bar", "gay": "yes", "name": "Exile on Main Street", "opening_hours": "Fr,Sa,PH -1 day 21:00-05:00", "smoking": "no"}}, {"type": "node", "id": 3475625012, "lat": 50.9492599, "lon": 6.919186}, {"type": "node", "id": 3475625018, "lat": 50.9492992, "lon": 6.9190885}, {"type": "node", "id": 3475625026, "lat": 50.9493624, "lon": 6.9191635}, {"type": "node", "id": 3475625029, "lat": 50.9493686, "lon": 6.9191488}, {"type": "node", "id": 3571986493, "lat": 50.9623668, "lon": 6.9273577}, {"type": "node", "id": 3571986494, "lat": 50.9624132, "lon": 6.9276962}, {"type": "node", "id": 3571986495, "lat": 50.9624836, "lon": 6.927616}, {"type": "node", "id": 3571986496, "lat": 50.9622964, "lon": 6.9274379}, {"type": "node", "id": 3588159496, "lat": 50.9434102, "lon": 6.9336197}, {"type": "node", "id": 3588159497, "lat": 50.9434336, "lon": 6.9335425}, {"type": "node", "id": 3591893383, "lat": 51.0073386, "lon": 6.8668881, "tags": {"amenity": "bar"}}, {"type": "node", "id": 3642898925, "lat": 50.9548062, "lon": 6.9382179, "tags": {"amenity": "biergarten", "leisure": "outdoor_seating"}}, {"type": "node", "id": 3645123501, "lat": 50.9356336, "lon": 6.9298692}, {"type": "node", "id": 3646189668, "lat": 50.9510362, "lon": 6.9114978}, {"type": "node", "id": 3646189669, "lat": 50.9510136, "lon": 6.9112712}, {"type": "node", "id": 3646189670, "lat": 50.9511695, "lon": 6.9110537}, {"type": "node", "id": 3650955164, "lat": 50.9706206, "lon": 7.0896744}, {"type": "node", "id": 3650956023, "lat": 50.9709708, "lon": 7.0910553}, {"type": "node", "id": 3650956024, "lat": 50.9710935, "lon": 7.0910772}, {"type": "node", "id": 3650956425, "lat": 50.9710815, "lon": 7.0909986}, {"type": "node", "id": 3653015039, "lat": 50.9031806, "lon": 6.9652672}, {"type": "node", "id": 3653015040, "lat": 50.9031091, "lon": 6.965297}, {"type": "node", "id": 3656272996, "lat": 50.9184302, "lon": 6.8879974, "tags": {"amenity": "biergarten", "name": "Haus am See", "outdoor_seating": "yes"}}, {"type": "node", "id": 3656360055, "lat": 50.9170497, "lon": 6.8994186}, {"type": "node", "id": 3657179400, "lat": 50.9406575, "lon": 6.9692669, "tags": {"amenity": "bar", "outdoor_seating": "yes"}}, {"type": "node", "id": 3657987392, "lat": 50.9022943, "lon": 6.991876, "tags": {"amenity": "biergarten", "wheelchair": "yes"}}, {"type": "node", "id": 3658201003, "lat": 50.983793, "lon": 6.9521251, "tags": {"amenity": "biergarten", "toilets:wheelchair": "yes", "wheelchair": "yes"}}, {"type": "node", "id": 3658306663, "lat": 50.9328262, "lon": 6.9635076}, {"type": "node", "id": 3658306664, "lat": 50.9325369, "lon": 6.9634659}, {"type": "node", "id": 3658306665, "lat": 50.9324843, "lon": 6.9633497}, {"type": "node", "id": 3667653401, "lat": 50.9274249, "lon": 6.9036314, "tags": {"amenity": "bar", "name": "Leo", "opening_hours": "Mo-Sa 17:00-01:00"}}, {"type": "node", "id": 3677899802, "lat": 50.8910611, "lon": 7.0233197, "tags": {"amenity": "biergarten", "toilets:wheelchair": "no", "wheelchair": "limited"}}, {"type": "node", "id": 3682757311, "lat": 50.9459712, "lon": 6.9700332, "tags": {"amenity": "biergarten", "name": "Rheinterrassen"}}, {"type": "node", "id": 3685634658, "lat": 50.9326761, "lon": 6.9634908}, {"type": "node", "id": 3685634682, "lat": 50.9327358, "lon": 6.9634965}, {"type": "node", "id": 3718736363, "lat": 50.9381688, "lon": 6.8521453, "tags": {"amenity": "biergarten", "real_ale": "Weihenstephaner"}}, {"type": "node", "id": 3737605659, "lat": 50.9383591, "lon": 6.934419, "tags": {"amenity": "biergarten", "name": "St. Michael", "opening_hours": "Mo-Su,PH 17:00-23:30", "wheelchair": "yes"}}, {"type": "node", "id": 3765203612, "lat": 51.022132, "lon": 6.9271349}, {"type": "node", "id": 3765203613, "lat": 51.0222576, "lon": 6.9272554}, {"type": "node", "id": 3765203621, "lat": 51.0221764, "lon": 6.9270177}, {"type": "node", "id": 3765203622, "lat": 51.0223021, "lon": 6.9271382}, {"type": "node", "id": 3824289160, "lat": 50.9489381, "lon": 6.8796224, "tags": {"amenity": "biergarten", "wheelchair": "yes"}}, {"type": "node", "id": 3961345579, "lat": 50.9520671, "lon": 6.9141367, "tags": {"amenity": "bar", "name": "Cubana Bar", "toilets:wheelchair": "yes", "wheelchair": "yes"}}, {"type": "node", "id": 3984541592, "lat": 50.8953788, "lon": 6.9943819}, {"type": "node", "id": 3984541593, "lat": 50.8952694, "lon": 6.9946357}, {"type": "node", "id": 3984541594, "lat": 50.8951982, "lon": 6.9945648}, {"type": "node", "id": 3984541595, "lat": 50.8953188, "lon": 6.9943135}, {"type": "node", "id": 4095455409, "lat": 50.9596855, "lon": 6.996356, "tags": {"addr:city": "K\u00f6ln", "addr:housenumber": "2", "addr:postcode": "51063", "addr:street": "Formesstra\u00dfe", "amenity": "bar", "name": "Sakleti"}}, {"type": "node", "id": 4164005029, "lat": 50.9405128, "lon": 6.9737139}, {"type": "node", "id": 4164005036, "lat": 50.9405441, "lon": 6.973718}, {"type": "node", "id": 4166042643, "lat": 50.9405228, "lon": 6.9738313, "tags": {"entrance": "yes", "level": "0", "name": "Deutzer Brauhaus"}}, {"type": "node", "id": 4176772872, "lat": 50.940669, "lon": 6.973721}, {"type": "node", "id": 4176772873, "lat": 50.9404025, "lon": 6.9737158}, {"type": "node", "id": 4194099622, "lat": 50.9429311, "lon": 6.9419077, "tags": {"amenity": "bar", "name": "Pink"}}, {"type": "node", "id": 4264453712, "lat": 50.9860178, "lon": 6.9976796, "tags": {"addr:city": "K\u00f6ln", "addr:housenumber": "2", "addr:postcode": "51061", "addr:street": "Moses-He\u00df-Stra\u00dfe", "amenity": "bar", "name": "Sportsbar21", "opening_hours": "9:00-6:00", "smoking": "outside"}}, {"type": "node", "id": 4264453713, "lat": 50.9859957, "lon": 6.9976364, "tags": {"addr:city": "K\u00f6ln", "addr:housenumber": "4", "addr:postcode": "51061", "addr:street": "Moses-He\u00df-Stra\u00dfe", "amenity": "bar", "name": "Bet3000", "opening_hours": "11:00-23:00", "smoking": "outside"}}, {"type": "node", "id": 4272124276, "lat": 50.9223843, "lon": 7.0893297}, {"type": "node", "id": 4272124277, "lat": 50.9218565, "lon": 7.090665}, {"type": "node", "id": 4272124281, "lat": 50.9219066, "lon": 7.0905476}, {"type": "node", "id": 4272124282, "lat": 50.9224424, "lon": 7.0893557}, {"type": "node", "id": 4272124283, "lat": 50.9223316, "lon": 7.0893051}, {"type": "node", "id": 4272124287, "lat": 50.9217964, "lon": 7.0906173}, {"type": "node", "id": 4281838543, "lat": 50.9407356, "lon": 6.9419404, "tags": {"addr:postcode": "50670", "amenity": "bar", "email": "info@grid.bar", "name": "Rock Angelz", "name:de": "The Grid Bar", "name:en": "The Grid Bar", "opening_hours": "We-Sa 19:00-02:00; Su 15:00-01:00", "phone": "+49172988278", "toilets:wheelchair": "no", "website": "http://www.thegridbar.de", "wheelchair": "limited"}}, {"type": "node", "id": 4304976454, "lat": 50.9587844, "lon": 7.0091732, "tags": {"amenity": "bar", "name": "Sonderbar", "opening_hours": "Mo-Th 10:00-04:00, Fr-Su 11:00-06:00"}}, {"type": "node", "id": 4354667756, "lat": 50.949233, "lon": 6.9192506}, {"type": "node", "id": 4354667757, "lat": 50.9492545, "lon": 6.9193176}, {"type": "node", "id": 4354667758, "lat": 50.9492676, "lon": 6.9192868}, {"type": "node", "id": 4354667759, "lat": 50.9492842, "lon": 6.9193497}, {"type": "node", "id": 4358688657, "lat": 50.9153516, "lon": 6.9258876}, {"type": "node", "id": 4358688658, "lat": 50.9155193, "lon": 6.9260829}, {"type": "node", "id": 4358688663, "lat": 50.9509727, "lon": 6.9101489}, {"type": "node", "id": 4358688664, "lat": 50.9509888, "lon": 6.9103102}, {"type": "node", "id": 4358688665, "lat": 50.9509915, "lon": 6.9105627}, {"type": "node", "id": 4358688667, "lat": 50.9511053, "lon": 6.9106434}, {"type": "node", "id": 4358688669, "lat": 50.9511696, "lon": 6.9106653}, {"type": "node", "id": 4358688670, "lat": 50.9512611, "lon": 6.9106862}, {"type": "node", "id": 4358688671, "lat": 50.9983199, "lon": 6.9104517}, {"type": "node", "id": 4358688672, "lat": 50.9983634, "lon": 6.9103853}, {"type": "node", "id": 4396248670, "lat": 50.9302786, "lon": 6.9390134, "tags": {"amenity": "bar", "name": "Shorty Shooter Bar", "opening_hours": "Mo-Sa 20:00-03:00", "wheelchair": "yes"}}, {"type": "node", "id": 4396527244, "lat": 50.9491451, "lon": 6.949234}, {"type": "node", "id": 4396527245, "lat": 50.9491212, "lon": 6.9492628}, {"type": "node", "id": 4396527246, "lat": 50.9491177, "lon": 6.949281}, {"type": "node", "id": 4396527247, "lat": 50.949127, "lon": 6.9493257}, {"type": "node", "id": 4396527248, "lat": 50.9491655, "lon": 6.9493383}, {"type": "node", "id": 4396527249, "lat": 50.9491389, "lon": 6.9494489, "tags": {"amenity": "biergarten"}}, {"type": "node", "id": 4396527250, "lat": 50.9491827, "lon": 6.9492626}, {"type": "node", "id": 4396527251, "lat": 50.9491366, "lon": 6.949337}, {"type": "node", "id": 4396527252, "lat": 50.9491176, "lon": 6.9492931}, {"type": "node", "id": 4396527253, "lat": 50.9491482, "lon": 6.9493423}, {"type": "node", "id": 4396527254, "lat": 50.9491756, "lon": 6.949328}, {"type": "node", "id": 4396527255, "lat": 50.9491339, "lon": 6.949241}, {"type": "node", "id": 4396527256, "lat": 50.9491751, "lon": 6.9492469}, {"type": "node", "id": 4396527257, "lat": 50.9491649, "lon": 6.9492368}, {"type": "node", "id": 4396527258, "lat": 50.9491857, "lon": 6.9492999}, {"type": "node", "id": 4396527259, "lat": 50.9491208, "lon": 6.9493115}, {"type": "node", "id": 4396527260, "lat": 50.9491571, "lon": 6.9492335}, {"type": "node", "id": 4396527261, "lat": 50.9491863, "lon": 6.9492808}, {"type": "node", "id": 4396527262, "lat": 50.9491284, "lon": 6.9492475}, {"type": "node", "id": 4396527263, "lat": 50.9491828, "lon": 6.9493127}, {"type": "node", "id": 4456397613, "lat": 50.9428019, "lon": 6.9353998}, {"type": "node", "id": 4456397614, "lat": 50.942988, "lon": 6.9354829}, {"type": "node", "id": 4456397615, "lat": 50.9430062, "lon": 6.9357301}, {"type": "node", "id": 4456397616, "lat": 50.9429897, "lon": 6.9358774}, {"type": "node", "id": 4456397617, "lat": 50.942882, "lon": 6.9358616}, {"type": "node", "id": 4456397618, "lat": 50.9428157, "lon": 6.935738}, {"type": "node", "id": 4456409909, "lat": 50.9602233, "lon": 6.8952054}, {"type": "node", "id": 4459414291, "lat": 50.9406742, "lon": 6.9434254, "tags": {"addr:city": "K\u00f6ln", "addr:housenumber": "45", "addr:postcode": "50670", "addr:street": "Friesenstra\u00dfe", "amenity": "bar", "name": "Mikro"}}, {"type": "node", "id": 4459414297, "lat": 50.9419853, "lon": 6.940644, "tags": {"amenity": "bar", "name": "inCavall"}}, {"type": "node", "id": 4459414300, "lat": 50.9448093, "lon": 6.9429835, "tags": {"amenity": "bar", "name": "Temptation"}}, {"type": "node", "id": 4482759767, "lat": 50.9501746, "lon": 6.913195, "tags": {"amenity": "bar", "email": "kontakt@stapel.bar", "name": "Stapel.Bar", "opening_hours": "Mo-Su,PH 18:00-05:00", "toilets:wheelchair": "yes", "website": "https://stapel.bar/", "wheelchair": "yes"}}, {"type": "node", "id": 4484417496, "lat": 50.9273758, "lon": 6.9656049, "tags": {"amenity": "bar", "cuisine": "coctails", "level": "0", "name": "Bayleaf", "website": "http://bayleaf.cologne/"}}, {"type": "node", "id": 4664202653, "lat": 50.9521378, "lon": 6.9180656, "tags": {"addr:city": "K\u00f6ln", "addr:country": "DE", "addr:housenumber": "2", "addr:postcode": "50825", "addr:street": "Bartholom\u00e4us-Schink-Stra\u00dfe", "amenity": "bar", "name": "Bumann & SOHN", "toilets:wheelchair": "yes", "website": "https://www.bumannundsohn.de/", "wheelchair": "limited"}}, {"type": "node", "id": 4730240297, "lat": 50.9514435, "lon": 6.9194548}, {"type": "node", "id": 4730240298, "lat": 50.9514632, "lon": 6.9196317}, {"type": "node", "id": 4730240299, "lat": 50.9515731, "lon": 6.9194184}, {"type": "node", "id": 4730240300, "lat": 50.9515928, "lon": 6.9195953}, {"type": "node", "id": 4741290536, "lat": 50.9468786, "lon": 6.9447807, "tags": {"amenity": "bar"}}, {"type": "node", "id": 4751013676, "lat": 50.9400585, "lon": 6.9340197, "tags": {"addr:city": "K\u00f6ln", "addr:country": "DE", "addr:housenumber": "53", "addr:postcode": "50672", "addr:street": "Antwerpener Stra\u00dfe", "amenity": "bar", "email": "info@frieda-bar.de", "name": "Frieda", "opening_hours:signed": "no", "website": "http://frieda-bar.de/", "wheelchair": "no"}}, {"type": "node", "id": 4760156186, "lat": 50.9418904, "lon": 6.9584865}, {"type": "node", "id": 4760156187, "lat": 50.9419361, "lon": 6.9584788}, {"type": "node", "id": 4809037452, "lat": 50.9468663, "lon": 6.9215281, "tags": {"addr:housenumber": "10", "addr:street": "Theb\u00e4erstra\u00dfe", "amenity": "bar", "name": "The B\u00e4r", "website": "http://thebaer10.com/"}}, {"type": "node", "id": 4875891321, "lat": 50.9382004, "lon": 6.9381688, "tags": {"addr:postcode": "50672", "amenity": "bar", "cuisine": "japanese", "email": "kontakt@daikan.de", "name": "Daikan", "name:ja": "\u4ee3\u5b98", "opening_hours": "Mo-Su 11:30-00:00", "phone": "+4922130135906", "website": "http://www.daikan.de/"}}, {"type": "node", "id": 4941100379, "lat": 50.9211904, "lon": 6.9466221, "tags": {"entrance": "yes"}}, {"type": "node", "id": 4941100380, "lat": 50.9213054, "lon": 6.9468434}, {"type": "node", "id": 4941111248, "lat": 50.9213629, "lon": 6.9462996}, {"type": "node", "id": 4941111249, "lat": 50.921469, "lon": 6.946651}, {"type": "node", "id": 4941111250, "lat": 50.9214825, "lon": 6.9464726}, {"type": "node", "id": 4941111251, "lat": 50.9214842, "lon": 6.946592}, {"type": "node", "id": 4941111252, "lat": 50.9214871, "lon": 6.9465128}, {"type": "node", "id": 4987719426, "lat": 50.945818, "lon": 6.970363, "tags": {"addr:city": "K\u00f6ln", "addr:housenumber": "1", "addr:postcode": "50679", "addr:street": "Rheinparkweg", "amenity": "biergarten", "name": "Tanzbrunnen K\u00f6ln", "toilets:wheelchair": "yes", "website": "http://koelnkongress.de/de/locations/tanzbrunnen-koeln.html", "wheelchair": "yes", "wheelchair:description": "Veranstaltungsort\ngeflastert \nnicht zu steile schr\u00e4gen \nToiletten"}}, {"type": "node", "id": 5022778618, "lat": 50.9418939, "lon": 6.9414443, "tags": {"amenity": "bar", "name": "Orienthaus Kolbeh"}}, {"type": "node", "id": 5357065860, "lat": 50.9520992, "lon": 6.9579828, "tags": {"amenity": "bar", "cocktails": "yes", "outdoor_seating": "yes"}}, {"type": "node", "id": 5450604088, "lat": 50.9215073, "lon": 6.9611115}, {"type": "node", "id": 5450604089, "lat": 50.9215124, "lon": 6.9611413}, {"type": "node", "id": 5451078523, "lat": 50.9350946, "lon": 6.9435813, "tags": {"addr:city": "K\u00f6ln", "addr:housenumber": "21-23", "addr:postcode": "50676", "addr:street": "Marsilstein", "amenity": "bar", "name": "MD Bar", "toilets:wheelchair": "yes", "wheelchair": "yes", "wheelchair:description": "kein Rolli-WC, aber etwas gr\u00f6\u00dferes WC"}}, {"type": "node", "id": 5475043406, "lat": 50.9396224, "lon": 7.0171349, "tags": {"amenity": "bar", "contact:website": "https://www.philerohotel-koeln.de/bar_la_roja_koeln.aspx", "name": "La Roja", "opening_hours": "Mo 16:00-24:00; Tu-Sa 00:00-01:00,16:00-24:00; Su 00:00-01:00", "operator": "PhiLeRo Hotel K\u00f6ln", "smoking": "no"}}, {"type": "node", "id": 5624515121, "lat": 50.9349184, "lon": 6.9378706, "tags": {"amenity": "bar", "name": "Spirits", "opening_hours": "Mo-Th 20:00-02:00; Fr-Sa 20:00-03:00", "website": "http://www.spiritsbar.de"}}, {"type": "node", "id": 5624518821, "lat": 50.9384638, "lon": 6.936953, "tags": {"amenity": "bar", "name": "Little Link", "opening_hours": "Mo-Sa 18:00-02:00; Su 18:00-00:00", "website": "http://LittleLink.de"}}, {"type": "node", "id": 5677533662, "lat": 50.9402875, "lon": 6.9351464, "tags": {"amenity": "bar", "name": "Lorbass - Bar & Lounge", "opening_hours": "We 20:00-24:00; Th,Fr 00:00-02:00,20:00-24:00; Sa 00:00-03:00,20:00-24:00; Su 00:00-03:00", "website": "http://www.lorbass-bar.de"}}, {"type": "node", "id": 5739433022, "lat": 50.8770833, "lon": 7.1228143, "tags": {"amenity": "bar", "name": "B bar", "name:it": "B", "outdoor_seating": "no"}}, {"type": "node", "id": 5742063821, "lat": 50.9219995, "lon": 6.9592103, "tags": {"amenity": "bar", "name": "Weingarten Severinstorburg"}}, {"type": "node", "id": 5948719515, "lat": 50.9292056, "lon": 6.9371559, "tags": {"addr:housenumber": "40", "addr:street": "Z\u00fclpicher Stra\u00dfe", "amenity": "bar", "cuisine": "cocktail", "internet_access": "wlan", "internet_access:fee": "no", "name": "Bar Celos", "wifi": "free"}}, {"type": "node", "id": 6015485229, "lat": 50.9420469, "lon": 6.9430737, "tags": {"amenity": "bar", "contact:website": "https://www.monkeybarkoeln.de/", "internet_access": "wlan", "name": "Monkey Bar", "opening_hours": "Mo-Th 00:00-01:00,17:00-24:00; Fr-Su 00:00-02:00,17:00-24:00", "operator": "25hours Hotel Company GmbH", "smoking": "outside", "wheelchair": "yes"}}, {"type": "node", "id": 6191145437, "lat": 50.949704, "lon": 6.9577561, "tags": {"amenity": "bar", "name": "Blue Ice"}}, {"type": "node", "id": 6334221585, "lat": 50.9673716, "lon": 6.9534604, "tags": {"amenity": "bar", "name": "Hansa Stube"}}, {"type": "node", "id": 6368059843, "lat": 50.9429012, "lon": 7.0491873}, {"type": "node", "id": 6368059844, "lat": 50.9429865, "lon": 7.0491444}, {"type": "node", "id": 6368059845, "lat": 50.9429865, "lon": 7.0491269}, {"type": "node", "id": 6368059846, "lat": 50.9430043, "lon": 7.0491189}, {"type": "node", "id": 6368059847, "lat": 50.9430313, "lon": 7.0492423}, {"type": "node", "id": 6368059848, "lat": 50.9431031, "lon": 7.0491967}, {"type": "node", "id": 6368059849, "lat": 50.9431834, "lon": 7.0491028}, {"type": "node", "id": 6368059850, "lat": 50.9431665, "lon": 7.0490129}, {"type": "node", "id": 6368059851, "lat": 50.9429848, "lon": 7.0491068}, {"type": "node", "id": 6368059852, "lat": 50.942962, "lon": 7.0490129}, {"type": "node", "id": 6368059853, "lat": 50.9428758, "lon": 7.0490558}, {"type": "node", "id": 6385422787, "lat": 50.8787614, "lon": 7.1224624, "tags": {"amenity": "bar", "name": "Rendez Vous"}}, {"type": "node", "id": 6525502718, "lat": 50.9192146, "lon": 6.9642246, "tags": {"amenity": "bar"}}, {"type": "node", "id": 6759556663, "lat": 50.9325151, "lon": 6.9591308, "tags": {"addr:city": "K\u00f6ln", "addr:housenumber": "5", "addr:postcode": "50676", "addr:street": "Mathiasstra\u00dfe", "amenity": "bar", "level": "0", "name": "Deck 5", "opening_hours": "Mo-Su 22:00-05:00, Sa-Su 06:00+", "operator": "J\u00f6rg Tucholski", "phone": "+49 221 9926704", "smoking": "no", "website": "http://www.deck-5.de/"}}, {"type": "node", "id": 6790197222, "lat": 50.9354086, "lon": 6.9595591, "tags": {"addr:city": "K\u00f6ln", "addr:housenumber": "5", "addr:postcode": "50667", "addr:street": "Pipinstra\u00dfe", "amenity": "bar", "gay": "yes", "name": "Zur Kaiserin", "opening_hours": "Tu-Th 18:00-01:00; Fr-Sa 16:00-02:00; su 16:00-23:00", "website": "http://www.zurkaiserin.de/"}}, {"type": "node", "id": 6800217727, "lat": 50.9537345, "lon": 6.9110062, "tags": {"amenity": "bar", "name": "Bar Zwei"}}, {"type": "node", "id": 6881635389, "lat": 50.916109, "lon": 6.9612959, "tags": {"amenity": "bar", "name": "Astoria"}}, {"type": "node", "id": 7029757585, "lat": 50.9313131, "lon": 6.9403586, "tags": {"amenity": "bar", "name": "Cent Club"}}, {"type": "node", "id": 7029834085, "lat": 50.9200296, "lon": 6.954964, "tags": {"amenity": "bar", "name": "KRAUTIs"}}, {"type": "node", "id": 7029868985, "lat": 50.9462048, "lon": 6.938587, "tags": {"amenity": "bar", "name": "Em Veedelstreff"}}, {"type": "node", "id": 7052886685, "lat": 50.9406051, "lon": 6.9435123, "tags": {"amenity": "bar", "name": "Bliss bar", "name:de": "Bliss BAR", "name:en": "Bliss BAR"}}, {"type": "node", "id": 7235583015, "lat": 50.9431066, "lon": 7.0515729, "tags": {"addr:city": "K\u00f6ln", "addr:housenumber": "524", "addr:postcode": "51109", "addr:street": "Olpener Stra\u00dfe", "amenity": "bar", "name": "Caf\u00e9 Tag und Nacht"}}, {"type": "node", "id": 7271584664, "lat": 50.9204531, "lon": 6.959585, "tags": {"amenity": "bar", "name": "Umbibar", "wheelchair": "yes"}}, {"type": "node", "id": 7638302153, "lat": 50.9428541, "lon": 6.9353002}, {"type": "node", "id": 7638302157, "lat": 50.9427312, "lon": 6.9353359}, {"type": "node", "id": 7638302159, "lat": 50.9427464, "lon": 6.9353475}, {"type": "node", "id": 7657139211, "lat": 50.9194331, "lon": 6.9219558, "tags": {"addr:city": "K\u00f6ln", "addr:housenumber": "171", "addr:postcode": "50937", "addr:street": "S\u00fclzburgstra\u00dfe", "amenity": "bar", "description": "Sportbar:\nBillard (3 Tische), Kicker (2 Tische) und Darts (2 Automaten).\nSky Fu\u00dfball", "name": "Clic Clac"}}, {"type": "node", "id": 7717671993, "lat": 50.9185852, "lon": 6.9699709, "tags": {"addr:city": "K\u00f6ln", "addr:housenumber": "30", "addr:postcode": "50678", "addr:street": "Agrippinawerft", "amenity": "biergarten", "food": "yes", "name": "Johann Sch\u00e4fer Biergarten", "opening_hours": "Mo-Fr 16:00-23:00;Sa-Su 12:00-23:00", "website": "https://www.johann-schaefer.de/biergarten"}}, {"type": "node", "id": 7764786110, "lat": 50.9183942, "lon": 6.916602, "tags": {"addr:city": "K\u00f6ln", "addr:housenumber": "76A", "addr:postcode": "50937", "addr:street": "S\u00fclzg\u00fcrtel", "amenity": "bar", "name": "CocktailContor"}}, {"type": "way", "id": 30482607, "nodes": [4760156187, 1801735055, 3352989444, 1801735061, 249318718, 1801735065, 249318711, 3352989440, 1801735038, 267349269, 249318706, 3352989432, 3352989431, 3352989429, 336359469, 3352989435, 3352989436, 4760156186, 4760156187], "tags": {"addr:city": "K\u00f6ln", "addr:country": "DE", "addr:housenumber": "1", "addr:postcode": "50667", "addr:street": "Chargesheimerplatz", "amenity": "bar", "building": "yes", "level": "0", "name": "Chargesheimer", "opening_hours": "Mo off; Tu-Th 19:00+;Fr-Sa 20:00+; Su off", "outdoor_seating": "no", "source": "photography", "website": "https://www.chargesheimer.bar/", "wheelchair": "yes"}}, {"type": "way", "id": 52451476, "nodes": [666898567, 2971796002, 2971795994, 666898489, 2971796004, 666898567], "tags": {"addr:city": "K\u00f6ln", "addr:country": "DE", "addr:housenumber": "4", "addr:postcode": "50667", "addr:street": "Salzgasse", "amenity": "bar", "building": "yes", "building:use": "residential;commercial", "cuisine": "craft_beer", "name": "Delirium Cafe K\u00f6ln", "website": "http://www.deliriumcafe-koeln.de"}}, {"type": "way", "id": 61881650, "nodes": [771202628, 771202637, 3037219214, 3037219213, 3037219215, 771202630, 3037219205, 771202623, 3037219206, 3037219224, 771202615, 771202628], "tags": {"amenity": "biergarten", "name": "S\u00fcnner Biergarten"}}, {"type": "way", "id": 147039630, "nodes": [1602351579, 1602351578, 1602351574, 1602351576, 1602351579], "tags": {"amenity": "biergarten"}}, {"type": "way", "id": 150928916, "nodes": [1637907070, 1637907071, 1637907074, 1637907076, 1637907081, 1637907078, 1637907072, 1637907050, 1637907044, 1637907042, 1637907031, 1637907026, 1637907023, 1637907024, 1637907028, 1637907032, 1637907060, 1637907068, 1637907069, 1637907070], "tags": {"amenity": "bar", "man_made": "pier", "name": "Roxy"}}, {"type": "way", "id": 153987435, "nodes": [1665975488, 1665975483, 1665975485, 1665975487, 136733374, 1665975490, 1665975488], "tags": {"addr:city": "K\u00f6ln", "addr:country": "DE", "addr:housenumber": "65", "addr:postcode": "50672", "addr:street": "Venloer Stra\u00dfe", "amenity": "biergarten", "building": "apartments", "building:levels": "1", "building:use": "residential", "name": "Park Cafe 3.0 Insbaration", "outdoor_seating": "yes", "roof:shape": "flat", "source": "survey"}}, {"type": "way", "id": 159088258, "nodes": [679716686, 679716685, 1711871612, 679716687, 679716686], "tags": {"amenity": "biergarten", "email": "stefanie-bendisch@web.de", "name": "Gastwerk Engelshof", "opening_hours": "Mo-Fr 12:00-24:00;Sa-Su 10:00-24:00", "phone": "+4922039813162", "toilets:wheelchair": "yes", "wheelchair": "yes"}}, {"type": "way", "id": 170611592, "nodes": [1817791564, 1817791566, 1817791562, 1817791557, 1817791564], "tags": {"amenity": "biergarten", "name": "Alt Poller Wirtshaus", "wheelchair": "no"}}, {"type": "way", "id": 179082754, "nodes": [1892871605, 1894193545, 1892871641, 1892871595, 1892871605], "tags": {"amenity": "biergarten", "name": "Altes Poststadion", "source": "Bing"}}, {"type": "way", "id": 234684886, "nodes": [2428470267, 2428470268, 2428470269, 2428470270, 2428470271, 3645123501, 2428470267], "tags": {"amenity": "biergarten", "name": "Biergarten Aachener Weiher", "opening_hours": "\"Wetterabh\u00e4ngig\"", "smoking": "outside", "toilets:wheelchair": "no", "wheelchair": "yes"}}, {"type": "way", "id": 238688055, "nodes": [2464893440, 2464893437, 2464893439, 2464893441, 2598896417, 2464893440], "tags": {"amenity": "biergarten"}}, {"type": "way", "id": 254059952, "nodes": [2598900855, 2598900770, 2598900895, 2598901015, 2598900899, 2598900855], "tags": {"amenity": "biergarten", "operator": "Restaurant am Yachthafen"}}, {"type": "way", "id": 280010764, "nodes": [2841884603, 2708494816, 2708494825, 2841884602, 2841884603], "tags": {"amenity": "biergarten", "name": "Biergarten Rheinstation", "smoking": "outside", "wheelchair": "no"}}, {"type": "way", "id": 280058057, "nodes": [2709713553, 2709713557, 2709713559, 2709713565, 2709713563, 2709713569, 2842250162, 2842250161, 2709713553], "tags": {"amenity": "biergarten"}}, {"type": "way", "id": 351435711, "nodes": [3571986496, 3571986493, 3571986495, 3571986494, 3571986496], "tags": {"amenity": "biergarten"}}, {"type": "way", "id": 353033254, "nodes": [3588159497, 3588159496, 74885422, 76474228, 3588159497], "tags": {"amenity": "biergarten", "name": "Zum scheuen Reh", "operator": "Zum scheuen Reh"}}, {"type": "way", "id": 358477383, "nodes": [2873116242, 2873116243, 2873116267, 2873116294, 2873116292, 2873116242], "tags": {"amenity": "biergarten", "beer_garden": "yes", "leisure": "outdoor_seating", "name": "Brauhaus ohne Namen (Biergarten)", "operator": "Brauhaus ohne Namen", "outdoor_seating": "patio", "restaurant": "yes", "toilets:wheelchair": "no", "wheelchair": "limited"}}, {"type": "way", "id": 360017183, "nodes": [3646189668, 3646189669, 3646189670, 3342877231, 3342877248, 3342877174, 3646189668], "tags": {"access": "customers", "amenity": "biergarten", "beer_garden": "yes", "cinema": "yes", "leisure": "outdoor_seating", "operator": "Cinenova", "outdoor_seating:comfort": "chair", "restaurant": "yes", "toilets:wheelchair": "yes", "wheelchair": "yes"}}, {"type": "way", "id": 360579506, "nodes": [3650955164, 1797712243, 1797712238, 1797712234, 1797712231, 1797712218, 3650955164], "tags": {"amenity": "biergarten", "beer_garden": "yes", "food": "yes", "leisure": "outdoor_seating", "name": "Em H\u00f6ttche", "operator": "\"Em H\u00f6ttche\"", "pub": "yes", "toilets:wheelchair": "no", "weather_protection": "parasol", "wheelchair": "yes"}}, {"type": "way", "id": 360579638, "nodes": [3650956425, 3650956023, 1797712382, 1797712410, 1797712396, 3650956024, 3650956425], "tags": {"amenity": "biergarten", "beer_garden": "yes", "leisure": "outdoor_seating", "name": "NIKOS OUZERIA", "opening_hours": "Tu-Fr 16:00-21:00; Sa,Su 13:00-20:30", "operator": "Alt Strunden", "restaurant": "yes", "weather_protection": "parasol"}}, {"type": "way", "id": 360746638, "nodes": [3653015039, 3653015040, 2684898458, 2684898457, 2684898460, 2684898462, 2684898463, 3653015039], "tags": {"access": "customers", "amenity": "biergarten", "beer_garden": "yes", "leisure": "outdoor_seating", "name": "H\u00f6hns Biergarten", "operator": "H\u00f6hns Biergarten", "outdoor_seating": "garden", "outdoor_seating:comfort": "cushion_chair", "restaurant": "yes", "weather_protection": "parasol;trees"}}, {"type": "way", "id": 361115083, "nodes": [3656360055, 2542015006, 2542014972, 2542014998, 2542015004, 2542015009, 3656360055], "tags": {"amenity": "biergarten", "beer_garden": "yes", "cafe": "yes", "capacity": "300", "leisure": "outdoor_seating", "lit": "yes", "operator": "Decksteiner M\u00fchle", "outdoor_seating": "terrace", "outdoor_seating:comfort": "chair", "restaurant": "yes", "weather_protection": "roof; parasol"}}, {"type": "way", "id": 361342021, "nodes": [3658306663, 3685634682, 3685634658, 3658306664, 3658306665, 703171572, 2159907038, 703171655, 749943115, 703171630, 475107987, 2159907039, 82773188, 2159907040, 749943131, 475107984, 3658306663], "tags": {"amenity": "biergarten", "beer_garden": "yes", "food": "yes", "leisure": "outdoor_seating", "name": "Hafenterrasse am Schokoladenmuseum", "public_viewing": "yes", "weather_protection": "parasol"}}, {"type": "way", "id": 372973071, "nodes": [3765203621, 3765203612, 3765203613, 3765203622, 3765203621], "tags": {"amenity": "biergarten", "building": "yes", "name": "Zillichs Biergarten", "wheelchair": "yes", "wheelchair:description": "Behindertengerechte und barrierefreie Toiletten befinden sich auf P1 und am Bootshaus (Hintereingang)"}}, {"type": "way", "id": 395631795, "nodes": [3984541592, 3984541593, 3984541594, 2708494872, 2708494874, 2708494875, 2708494877, 3984541595, 3984541592], "tags": {"amenity": "biergarten", "name": "Biergarten Zum Treppchen", "smoking": "outside", "wheelchair": "no"}}, {"type": "way", "id": 417045758, "nodes": [4176772872, 4164005036, 4164005029, 4176772873, 295998176, 4166042643, 295998169, 295998166, 2217104843, 4176772872], "tags": {"amenity": "biergarten", "capacity": "300", "leisure": "outdoor_seating", "name": "Deutzer Brauhaus", "operator": "Deutzer Brauhaus", "outdoor_seating": "terrace", "pub": "yes", "restaurant": "yes", "toilets:wheelchair": "yes", "wheelchair": "yes", "wheelchair:description": "Barrierefreier Eingang durch den Bahnhof. Rampe zum Biergarten im Nebenraum. Freundliches Personal ist behilflich."}}, {"type": "way", "id": 428062937, "nodes": [4272124287, 4272124277, 4272124281, 2906873284, 2906873236, 2906873222, 4272124287], "tags": {"amenity": "biergarten", "biergarten": "yes", "leisure": "outdoor_seating", "name": "K\u00f6lschgarten", "opening_hours": "17:00+", "operator": "Rather Hof", "outdoor_seating": "garden", "pub": "yes", "restaurant": "yes", "tv": "yes", "weather_protection": "trees;parasol", "wheelchair": "yes"}}, {"type": "way", "id": 428062938, "nodes": [4272124283, 2906874059, 2906872382, 2906872385, 2906874106, 2906874101, 2906874325, 4272124282, 4272124276, 4272124283], "tags": {"amenity": "biergarten", "leisure": "outdoor_seating", "operator": "J\u00e4gerhof", "outdoor_seating": "garden", "pub": "yes", "restaurant": "yes", "weather_protection": "parasol"}}, {"type": "way", "id": 437675461, "nodes": [3475625018, 3475625029, 3475625026, 4354667759, 4354667757, 4354667758, 4354667756, 3475625012, 3475625018], "tags": {"amenity": "biergarten", "description": "Biergarten", "operator": "Meer sehen"}}, {"type": "way", "id": 438127953, "nodes": [3342877308, 3342877195, 3342877193, 3342877178, 4358688663, 4358688664, 3342877228, 3342877254, 3342877235, 4358688665, 4358688667, 4358688669, 4358688670, 3342877309, 3342877264, 3342877255, 3342877252, 3342877263, 3342877272, 3342877286, 3342877314, 3342877308], "tags": {"amenity": "biergarten", "operator": "Herbrand's", "toilets:wheelchair": "yes", "wheelchair": "limited"}}, {"type": "way", "id": 438127954, "nodes": [2691603973, 2691603949, 2691603964, 4358688671, 4358688672, 2691603973], "tags": {"amenity": "biergarten", "operator": "M\u00fchlenhof"}}, {"type": "way", "id": 438127955, "nodes": [2650520000, 2650520016, 4358688657, 4358688658, 2650520064, 2650520040, 2650519997, 2650520042, 2650520000], "tags": {"amenity": "biergarten", "name": "Haus Unkelbach", "operator": "Hau Unkelbach"}}, {"type": "way", "id": 441966630, "nodes": [4396527248, 4396527254, 4396527263, 4396527258, 4396527261, 4396527250, 4396527256, 4396527257, 4396527260, 4396527244, 4396527255, 4396527262, 4396527245, 4396527246, 4396527252, 4396527259, 4396527247, 4396527251, 4396527253, 4396527248], "tags": {"amenity": "bar", "building": "roof", "name": "Maybach"}}, {"type": "way", "id": 448647127, "nodes": [4456397613, 7638302153, 4456397614, 4456397615, 4456397616, 4456397617, 4456397618, 285563259, 7638302157, 7638302159, 4456397613], "tags": {"amenity": "biergarten", "name": "Stadtgarten Biergarten", "opening_hours": "Mo-Su 12:00-24:00", "wheelchair": "limited"}}, {"type": "way", "id": 448648612, "nodes": [3336589857, 3336589859, 4456409909, 3336589854, 3336589857], "tags": {"amenity": "biergarten", "building": "yes", "name": "Bickendorfer Hof"}}, {"type": "way", "id": 479996962, "nodes": [4730240299, 4730240300, 4730240298, 4730240297, 4730240299], "tags": {"amenity": "biergarten", "breakfast": "yes", "cafe": "yes", "food": "yes", "ice_cream": "yes", "leisure": "outdoor_seating", "name": "Goldmund", "opening_hours": "Mo-Fr 11:00-24:00; Sa-So 10:00-24:00", "operator": "Goldmund", "restaurant": "yes", "weather_protection": "parasol", "wheelchair": "yes"}}, {"type": "way", "id": 503863373, "nodes": [4941111250, 4941111252, 4941111251, 4941111249, 290666541, 290666947, 290666539, 4941100380, 290666538, 290666946, 797823631, 4941100379, 797823536, 4941111248, 4941111250], "tags": {"amenity": "biergarten", "description": "Biergarten", "name": "Heller's Volksgarten", "opening_hours": "\"Bei gutem Wetter. Siehe Schild an der Volksgartenstra\u00dfe\"", "toilets:wheelchair": "no", "website": "http://www.hellers-volksgarten.de/", "wheelchair": "limited"}}, {"type": "way", "id": 566058700, "nodes": [2558350549, 2558350553, 2558350554, 2558350561, 2558350575, 2558350568, 2558350576, 2558350558, 2558350484, 2558350482, 2558350467, 2558350445, 5450604089, 5450604088, 2558350549], "tags": {"amenity": "bar", "contact:phone": "+49 221 80148450", "contact:website": "http://www.lichtung.ws/", "level": "0;-1", "name": "Kulturcaf\u00e9 Lichtung", "outdoor_seating": "no", "short_name": "Lichtung", "smoking": "no", "toilets": "yes", "toilets:access": "customers", "toilets:wheelchair": "no", "wheelchair": "no"}}, {"type": "way", "id": 680111478, "nodes": [6368059853, 6368059852, 6368059851, 6368059850, 6368059849, 6368059848, 6368059847, 6368059846, 6368059845, 6368059844, 6368059843, 6368059853], "tags": {"amenity": "biergarten", "biergarten": "yes", "leisure": "outdoor_seating", "operator": "Goldener Pflug", "pub": "yes", "restaurant": "yes", "weather_protection": "parasol"}}]}